{"type":"FeatureCollection","region_id":"southern-california","source":{"url":"https://nrm.dfg.ca.gov/FileHandler.ashx?DocumentID=30217&inline=","date":"2001-06","datum":"Unspecified in source table; WGS84 assumed only for a broad context envelope.","derivation":"One envelope per reef complex with 500 m padding. Padding is a display/search convention, not a measured position error or habitat boundary."},"features":[{"type":"Feature","geometry":{"type":"Polygon","coordinates":[[[-119.37377054915412,34.29773066634726],[-119.36289611751253,34.29773066634726],[-119.36289611751253,34.306713778097176],[-119.37377054915412,34.306713778097176],[-119.37377054915412,34.29773066634726]]]},"properties":{"id":"sca-pitas-point","name":"Pitas Point","latitude":34.30222222222222,"longitude":-119.36833333333333,"species":["reef"],"evidence_class":"historical-context","exportable":false,"rank":null,"depth_verified":false,"reported_depth_ft":[28,28],"material":"quarry rock","source_id":"cdfw-artificial-reefs","source_url":"https://nrm.dfg.ca.gov/FileHandler.ashx?DocumentID=30217&inline=","source_date":"2001-06"}},{"type":"Feature","geometry":{"type":"Polygon","coordinates":[[[-118.65680861470692,34.0256889996806],[-118.64511082973753,34.0256889996806],[-118.64511082973753,34.03476933365273],[-118.65680861470692,34.03476933365273],[-118.65680861470692,34.0256889996806]]]},"properties":{"id":"sca-malibu","name":"Malibu","latitude":34.030229166666665,"longitude":-118.65095972222223,"species":["reef"],"evidence_class":"historical-context","exportable":false,"rank":null,"depth_verified":false,"reported_depth_ft":[60,60],"material":"quarry rock and concrete shelters","source_id":"cdfw-artificial-reefs","source_url":"https://nrm.dfg.ca.gov/FileHandler.ashx?DocumentID=30217&inline=","source_date":"2001-06"}},{"type":"Feature","geometry":{"type":"Polygon","coordinates":[[[-118.53791953272636,34.022730666347265],[-118.52708046727363,34.022730666347265],[-118.52708046727363,34.03171377809718],[-118.53791953272636,34.03171377809718],[-118.53791953272636,34.022730666347265]]]},"properties":{"id":"sca-topanga","name":"Topanga","latitude":34.02722222222222,"longitude":-118.5325,"species":["reef"],"evidence_class":"historical-context","exportable":false,"rank":null,"depth_verified":false,"reported_depth_ft":[28,28],"material":"quarry rock","source_id":"cdfw-artificial-reefs","source_url":"https://nrm.dfg.ca.gov/FileHandler.ashx?DocumentID=30217&inline=","source_date":"2001-06"}},{"type":"Feature","geometry":{"type":"Polygon","coordinates":[[[-118.55958526617357,33.99800844412504],[-118.52852028938197,33.99800844412504],[-118.52852028938197,34.02743877809718],[-118.55958526617357,34.02743877809718],[-118.55958526617357,33.99800844412504]]]},"properties":{"id":"sca-santa-monica-bay","name":"Santa Monica Bay","latitude":34.01272361111111,"longitude":-118.54405277777778,"species":["reef"],"evidence_class":"historical-context","exportable":false,"rank":null,"depth_verified":false,"reported_depth_ft":[42,72],"material":"quarry rock","source_id":"cdfw-artificial-reefs","source_url":"https://nrm.dfg.ca.gov/FileHandler.ashx?DocumentID=30217&inline=","source_date":"2001-06"}},{"type":"Feature","geometry":{"type":"Polygon","coordinates":[[[-118.53609616762587,34.00467511079171],[-118.52430383237413,34.00467511079171],[-118.52430383237413,34.01399155587496],[-118.53609616762587,34.01399155587496],[-118.53609616762587,34.00467511079171]]]},"properties":{"id":"sca-santa-monica","name":"Santa Monica","latitude":34.00933333333333,"longitude":-118.53020000000001,"species":["reef"],"evidence_class":"historical-context","exportable":false,"rank":null,"depth_verified":false,"reported_depth_ft":[60,60],"material":"quarry rock, concrete shelters and pier pilings","source_id":"cdfw-artificial-reefs","source_url":"https://nrm.dfg.ca.gov/FileHandler.ashx?DocumentID=30217&inline=","source_date":"2001-06"}},{"type":"Feature","geometry":{"type":"Polygon","coordinates":[[[-118.49319348473333,33.95995288856949],[-118.47986207082224,33.95995288856949],[-118.47986207082224,33.97365822254162],[-118.49319348473333,33.97365822254162],[-118.49319348473333,33.95995288856949]]]},"properties":{"id":"sca-marina-del-rey","name":"Marina Del Rey","latitude":33.96680555555555,"longitude":-118.48652777777778,"species":["reef"],"evidence_class":"historical-context","exportable":false,"rank":null,"depth_verified":false,"reported_depth_ft":[65,65],"material":"quarry rock and concrete","source_id":"cdfw-artificial-reefs","source_url":"https://nrm.dfg.ca.gov/FileHandler.ashx?DocumentID=30217&inline=","source_date":"2001-06"}},{"type":"Feature","geometry":{"type":"Polygon","coordinates":[[[-118.41929739170558,33.8485639996806],[-118.40736927496108,33.8485639996806],[-118.40736927496108,33.8589360003194],[-118.41929739170558,33.8589360003194],[-118.41929739170558,33.8485639996806]]]},"properties":{"id":"sca-hermosa-beach","name":"Hermosa Beach","latitude":33.853750000000005,"longitude":-118.41333333333333,"species":["reef"],"evidence_class":"historical-context","exportable":false,"rank":null,"depth_verified":false,"reported_depth_ft":[60,60],"material":"quarry rock and concrete shelters","source_id":"cdfw-artificial-reefs","source_url":"https://nrm.dfg.ca.gov/FileHandler.ashx?DocumentID=30217&inline=","source_date":"2001-06"}},{"type":"Feature","geometry":{"type":"Polygon","coordinates":[[[-118.41485191109022,33.831897333013934],[-118.40292586668757,33.831897333013934],[-118.40292586668757,33.842824889208295],[-118.41485191109022,33.842824889208295],[-118.41485191109022,33.831897333013934]]]},"properties":{"id":"sca-redondo-beach","name":"Redondo Beach","latitude":33.837361111111115,"longitude":-118.4088888888889,"species":["reef"],"evidence_class":"historical-context","exportable":false,"rank":null,"depth_verified":false,"reported_depth_ft":[72,72],"material":"quarry rock, barge and concrete","source_id":"cdfw-artificial-reefs","source_url":"https://nrm.dfg.ca.gov/FileHandler.ashx?DocumentID=30217&inline=","source_date":"2001-06"}},{"type":"Feature","geometry":{"type":"Polygon","coordinates":[[[-118.42012881627532,33.819119555236156],[-118.40931562816913,33.819119555236156],[-118.40931562816913,33.82810266698607],[-118.42012881627532,33.82810266698607],[-118.42012881627532,33.819119555236156]]]},"properties":{"id":"sca-palawan","name":"Palawan","latitude":33.82361111111111,"longitude":-118.41472222222222,"species":["reef"],"evidence_class":"historical-context","exportable":false,"rank":null,"depth_verified":false,"reported_depth_ft":[120,120],"material":"sunken ship and concrete rubble","source_id":"cdfw-artificial-reefs","source_url":"https://nrm.dfg.ca.gov/FileHandler.ashx?DocumentID=30217&inline=","source_date":"2001-06"}},{"type":"Feature","geometry":{"type":"Polygon","coordinates":[[[-118.11111805910981,33.64073066634727],[-118.09132638533461,33.64073066634727],[-118.09132638533461,33.66361933365273],[-118.11111805910981,33.66361933365273],[-118.11111805910981,33.64073066634727]]]},"properties":{"id":"sca-bolsa-chica","name":"Bolsa Chica","latitude":33.652175,"longitude":-118.10122222222222,"species":["reef"],"evidence_class":"historical-context","exportable":false,"rank":null,"depth_verified":false,"reported_depth_ft":[85,100],"material":"concrete rubble, pier pilings and poles","source_id":"cdfw-artificial-reefs","source_url":"https://nrm.dfg.ca.gov/FileHandler.ashx?DocumentID=30217&inline=","source_date":"2001-06"}},{"type":"Feature","geometry":{"type":"Polygon","coordinates":[[[-118.00678265357084,33.609119555236155],[-117.97432845754027,33.609119555236155],[-117.97432845754027,33.62921377809718],[-118.00678265357084,33.62921377809718],[-118.00678265357084,33.609119555236155]]]},"properties":{"id":"sca-huntington-beach","name":"Huntington Beach","latitude":33.61916666666667,"longitude":-117.99055555555555,"species":["reef"],"evidence_class":"historical-context","exportable":false,"rank":null,"depth_verified":false,"reported_depth_ft":[60,60],"material":"quarry rock","source_id":"cdfw-artificial-reefs","source_url":"https://nrm.dfg.ca.gov/FileHandler.ashx?DocumentID=30217&inline=","source_date":"2001-06"}},{"type":"Feature","geometry":{"type":"Polygon","coordinates":[[[-117.97011495397211,33.59745288856949],[-117.95682949047233,33.59745288856949],[-117.95682949047233,33.6089360003194],[-117.97011495397211,33.6089360003194],[-117.97011495397211,33.59745288856949]]]},"properties":{"id":"sca-newport-beach","name":"Newport Beach","latitude":33.60319444444445,"longitude":-117.96347222222222,"species":["reef"],"evidence_class":"historical-context","exportable":false,"rank":null,"depth_verified":false,"reported_depth_ft":[72,72],"material":"concrete rubble, pilings and blocks","source_id":"cdfw-artificial-reefs","source_url":"https://nrm.dfg.ca.gov/FileHandler.ashx?DocumentID=30217&inline=","source_date":"2001-06"}},{"type":"Feature","geometry":{"type":"Polygon","coordinates":[[[-117.44271839349476,33.19972511079171],[-117.41401216206081,33.19972511079171],[-117.41401216206081,33.221980444763844],[-117.44271839349476,33.221980444763844],[-117.44271839349476,33.19972511079171]]]},"properties":{"id":"sca-oceanside-2","name":"Oceanside 2","latitude":33.210852777777774,"longitude":-117.42836527777779,"species":["reef"],"evidence_class":"historical-context","exportable":false,"rank":null,"depth_verified":false,"reported_depth_ft":[42,72],"material":"quarry rock","source_id":"cdfw-artificial-reefs","source_url":"https://nrm.dfg.ca.gov/FileHandler.ashx?DocumentID=30217&inline=","source_date":"2001-06"}},{"type":"Feature","geometry":{"type":"Polygon","coordinates":[[[-117.4234222554684,33.17717511079171],[-117.41102218897605,33.17717511079171],[-117.41102218897605,33.18782488920829],[-117.4234222554684,33.18782488920829],[-117.4234222554684,33.17717511079171]]]},"properties":{"id":"sca-oceanside-1","name":"Oceanside 1","latitude":33.1825,"longitude":-117.41722222222222,"species":["reef"],"evidence_class":"historical-context","exportable":false,"rank":null,"depth_verified":false,"reported_depth_ft":[45,100],"material":"quarry rock and concrete dock floats","source_id":"cdfw-artificial-reefs","source_url":"https://nrm.dfg.ca.gov/FileHandler.ashx?DocumentID=30217&inline=","source_date":"2001-06"}},{"type":"Feature","geometry":{"type":"Polygon","coordinates":[[[-117.32902745690161,33.07834177745838],[-117.3133197653206,33.07834177745838],[-117.3133197653206,33.09323877809718],[-117.32902745690161,33.09323877809718],[-117.32902745690161,33.07834177745838]]]},"properties":{"id":"sca-carlsbad","name":"Carlsbad","latitude":33.085790277777775,"longitude":-117.3211736111111,"species":["reef"],"evidence_class":"historical-context","exportable":false,"rank":null,"depth_verified":false,"reported_depth_ft":[37,60],"material":"quarry rock","source_id":"cdfw-artificial-reefs","source_url":"https://nrm.dfg.ca.gov/FileHandler.ashx?DocumentID=30217&inline=","source_date":"2001-06"}},{"type":"Feature","geometry":{"type":"Polygon","coordinates":[[[-117.28256377311637,32.75967511079171],[-117.26215844910585,32.75967511079171],[-117.26215844910585,32.77726933365273],[-117.28256377311637,32.77726933365273],[-117.28256377311637,32.75967511079171]]]},"properties":{"id":"sca-mission-bay-park","name":"Mission Bay Park","latitude":32.76847222222222,"longitude":-117.27236111111111,"species":["reef"],"evidence_class":"historical-context","exportable":false,"rank":null,"depth_verified":false,"reported_depth_ft":[60,90],"material":"shipwrecks, concrete rubble and steel structure","source_id":"cdfw-artificial-reefs","source_url":"https://nrm.dfg.ca.gov/FileHandler.ashx?DocumentID=30217&inline=","source_date":"2001-06"}}],"withheld":[{"id":"sca-pendleton","reason":"Military access requires a separate reviewed boundary/clearance source."},{"id":"sca-torrey-pines","reason":"Envelope touches a closure","closures":["San Diego-Scripps Coastal SMCA"]},{"id":"sca-pacific-beach","reason":"Envelope touches a closure","closures":["South La Jolla SMR"]},{"id":"sca-international-reef","reason":"Close to international boundary; historic datum and current position unresolved."}]}
