<?xml version="1.0" encoding="UTF-8"?>
<gpx version="1.1" creator="SkipperCast" xmlns="http://www.topografix.com/GPX/1/1"><metadata><name>SC26-041-A habitat research</name></metadata><wpt lat="35.178331" lon="-120.830511"><name>SC26-041-A</name><desc>Avila rough reef Mapped rough-rock high; 11.3 m relief across 210 m. Terrain A 77/100; not catch probability. Center 58 ft; nearby 45–87 ft MLLW. Survey-derived habitat candidate; no verified catch at this coordinate. No verified charter identity match in the reviewed AIS sample; no AIS-confirmed hotspot. Survey 2008; screen 2026-09-20. No additional flag from this depth and closure screening. Check current regulations, closures, conditions and sounder depths.</desc><link href="https://doi.org/10.5066/P9KBGELE"/><sym>Fishing Area</sym></wpt><trk><name>SC-AREA-023</name><desc>Partial mapped habitat footprint clipped to a 225-m search window to retain complete depth coverage; not the entire reef or a single pile.</desc><trkseg><trkpt lat="35.17913524750534" lon="-120.83263070545571"/><trkpt lat="35.17895503340992" lon="-120.83263549141107"/><trkpt lat="35.17894913882159" lon="-120.83230624777134"/><trkpt lat="35.17903924585047" lon="-120.83230385443613"/><trkpt lat="35.17903531561515" lon="-120.83208435848753"/><trkpt lat="35.17948388537271" lon="-120.83196264187971"/><trkpt lat="35.179477988878745" lon="-120.83163339625422"/><trkpt lat="35.17956809585956" lon="-120.83163100212963"/><trkpt lat="35.17955236745217" lon="-120.83075301329504"/><trkpt lat="35.179732581304926" lon="-120.83074822307886"/><trkpt lat="35.17963067386204" lon="-120.8300921262871"/><trkpt lat="35.17990099451696" lon="-120.83008493873801"/><trkpt lat="35.179885254773815" lon="-120.82920694722395"/><trkpt lat="35.17997536160356" lon="-120.82920455038541"/><trkpt lat="35.179972841533676" lon="-120.82906400960633"/><trkpt lat="35.17942055593176" lon="-120.82842787892713"/><trkpt lat="35.1791212132906" lon="-120.82823906846592"/><trkpt lat="35.1788763653843" lon="-120.82824558407937"/><trkpt lat="35.17887432023591" lon="-120.82813157717518"/><trkpt lat="35.17808821925817" lon="-120.8280588761489"/><trkpt lat="35.17751424451843" lon="-120.82825030697622"/><trkpt lat="35.176866107839295" lon="-120.82880307637755"/><trkpt lat="35.176440985052814" lon="-120.82961584839721"/><trkpt lat="35.17630359366313" lon="-120.83056489057526"/><trkpt lat="35.17647484919808" lon="-120.83150572956829"/><trkpt lat="35.176928681633854" lon="-120.83229514021015"/><trkpt lat="35.177596003102195" lon="-120.83281294494925"/><trkpt lat="35.177978846348374" lon="-120.83294336312322"/><trkpt lat="35.17857373157089" lon="-120.83296314107368"/><trkpt lat="35.17913785449691" lon="-120.8327763349074"/><trkpt lat="35.17913524750534" lon="-120.83263070545571"/></trkseg><trkseg><trkpt lat="35.178982218544974" lon="-120.8291211673422"/><trkpt lat="35.17897828254768" lon="-120.82890167201016"/><trkpt lat="35.17870796206375" lon="-120.82890886323123"/><trkpt lat="35.17870205738156" lon="-120.82857962140143"/><trkpt lat="35.179062484612096" lon="-120.82857003163411"/><trkpt lat="35.17906642121851" lon="-120.82878952714418"/><trkpt lat="35.17924663485099" lon="-120.82878473268046"/><trkpt lat="35.17925253905473" lon="-120.82911397675099"/><trkpt lat="35.178982218544974" lon="-120.8291211673422"/></trkseg><trkseg><trkpt lat="35.17794813546397" lon="-120.83178384122189"/><trkpt lat="35.17794223870672" lon="-120.83145460182803"/><trkpt lat="35.17821255968132" lon="-120.83144741923864"/><trkpt lat="35.17821845649731" lon="-120.83177665972092"/><trkpt lat="35.17794813546397" lon="-120.83178384122189"/></trkseg></trk></gpx>
