<?xml version="1.0" encoding="UTF-8"?>
<gpx version="1.1" creator="SkipperCast" xmlns="http://www.topografix.com/GPX/1/1"><metadata><name>SC26-021-B habitat research</name></metadata><wpt lat="35.148717" lon="-120.812968"><name>SC26-021-B</name><desc>Avila rough reef Mapped rough-rock high; 4.8 m relief across 210 m. Terrain B 58/100; not catch probability. Center 134 ft; nearby 130–148 ft MLLW. Survey-derived habitat candidate; no verified catch at this coordinate. No verified charter identity match in the reviewed AIS sample; no AIS-confirmed hotspot. Survey 2008; screen 2026-09-20. No additional flag from this depth and closure screening. Check current regulations, closures, conditions and sounder depths.</desc><link href="https://doi.org/10.5066/P9KBGELE"/><sym>Fishing Area</sym></wpt><trk><name>SC-AREA-002</name><desc>Partial nearby mapped rough-rock/bedrock footprint, clipped within 350 m of retained targets and by depth/closure screening; not the complete reef or an individual pile.</desc><trkseg><trkpt lat="35.15163427933833" lon="-120.81228605250294"/><trkpt lat="35.15145604862024" lon="-120.8124005879227"/><trkpt lat="35.151463974652" lon="-120.8128394259342"/><trkpt lat="35.15119365583094" lon="-120.81284666295782"/><trkpt lat="35.15118374814185" lon="-120.81229811728176"/><trkpt lat="35.15091342940609" lon="-120.81230535602054"/><trkpt lat="35.15091739273996" lon="-120.81252477353422"/><trkpt lat="35.15056291186306" lon="-120.81286354897156"/><trkpt lat="35.15066688446909" lon="-120.81362909603992"/><trkpt lat="35.15048667180432" lon="-120.81363391884963"/><trkpt lat="35.150490632690726" lon="-120.81385333541257"/><trkpt lat="35.14976780152602" lon="-120.81376291697033"/><trkpt lat="35.148784552039444" lon="-120.81422826342215"/><trkpt lat="35.14852215166031" lon="-120.81467431789102"/><trkpt lat="35.14852808972782" lon="-120.81500343507027"/><trkpt lat="35.148798409057555" lon="-120.81499620589315"/><trkpt lat="35.148804346291165" lon="-120.81532532425544"/><trkpt lat="35.147188365742714" lon="-120.81569780329188"/><trkpt lat="35.14719825706767" lon="-120.81624632340237"/><trkpt lat="35.14692595939397" lon="-120.81614384433615"/><trkpt lat="35.146916067671434" lon="-120.81559532609032"/><trkpt lat="35.14664574814944" lon="-120.81560255278252"/><trkpt lat="35.14663387492634" lon="-120.8149443334137"/><trkpt lat="35.14717253446312" lon="-120.81482017167107"/><trkpt lat="35.147164616441934" lon="-120.81438135611734"/><trkpt lat="35.14743295594718" lon="-120.8142644210241"/><trkpt lat="35.14742701603259" lon="-120.8139353084165"/><trkpt lat="35.14671012474147" lon="-120.81417400084698"/><trkpt lat="35.14662793697528" lon="-120.81461522387364"/><trkpt lat="35.14581697886139" lon="-120.81463691315295"/><trkpt lat="35.14562488778368" lon="-120.81398352205262"/><trkpt lat="35.14559121363626" lon="-120.81211859348083"/><trkpt lat="35.14575953434602" lon="-120.8114555574105"/><trkpt lat="35.145933799550996" lon="-120.8111216246658"/><trkpt lat="35.14629422454023" lon="-120.81111196955294"/><trkpt lat="35.14619420398187" lon="-120.8105658717888"/><trkpt lat="35.14645857277598" lon="-120.81022952066964"/><trkpt lat="35.146552645634884" lon="-120.81044651137012"/><trkpt lat="35.14691307042442" lon="-120.81043685305951"/><trkpt lat="35.14690712019007" lon="-120.81010774338742"/><trkpt lat="35.14762796953965" lon="-120.81008842335392"/><trkpt lat="35.147700219106916" lon="-120.8090986700838"/><trkpt lat="35.14742990079434" lon="-120.80910591846904"/><trkpt lat="35.14743386958155" lon="-120.80932532616234"/><trkpt lat="35.14689521704239" lon="-120.80944952433266"/><trkpt lat="35.14680907900614" lon="-120.8096713460803"/><trkpt lat="35.146178335921235" lon="-120.8096882538526"/><trkpt lat="35.14607632458714" lon="-120.80903245692824"/><trkpt lat="35.14571590008668" lon="-120.80904212113137"/><trkpt lat="35.14572185304066" lon="-120.80937122577305"/><trkpt lat="35.145363412530514" lon="-120.80949058944152"/><trkpt lat="35.14535349107235" lon="-120.80894208412005"/><trkpt lat="35.14571391557025" lon="-120.80893241960558"/><trkpt lat="35.145707961425664" lon="-120.80860331509258"/><trkpt lat="35.14534555211993" lon="-120.8085032800559"/><trkpt lat="35.1452700528978" lon="-120.80433465001022"/><trkpt lat="35.14542241279331" lon="-120.80279399709286"/><trkpt lat="35.146409595445014" lon="-120.80254794066636"/><trkpt lat="35.14722253730215" lon="-120.80263583406236"/><trkpt lat="35.147949353735626" lon="-120.80294556010551"/><trkpt lat="35.14895842413179" lon="-120.80390625612085"/><trkpt lat="35.14961700525777" lon="-120.8054251919464"/><trkpt lat="35.14965078576681" lon="-120.80729020400713"/><trkpt lat="35.149396354497654" lon="-120.80817510980623"/><trkpt lat="35.14878347676535" lon="-120.8091793812302"/><trkpt lat="35.14941421936379" lon="-120.80916246790045"/><trkpt lat="35.149958824776526" lon="-120.80936738481931"/><trkpt lat="35.15005885155118" lon="-120.80991350574733"/><trkpt lat="35.15068959432672" lon="-120.80989659728398"/><trkpt lat="35.15096784766678" lon="-120.81032818524936"/><trkpt lat="35.15061733956793" lon="-120.81088638657809"/><trkpt lat="35.15062328823086" lon="-120.81121551136005"/><trkpt lat="35.15098371296341" lon="-120.8112058549848"/><trkpt lat="35.151244116332315" lon="-120.81065006711432"/><trkpt lat="35.15152236716336" lon="-120.8110816606214"/><trkpt lat="35.15125601423247" lon="-120.8113083217183"/><trkpt lat="35.15126394418114" lon="-120.81174715833522"/><trkpt lat="35.1515342628003" lon="-120.81173991765638"/><trkpt lat="35.15163427933833" lon="-120.81228605250294"/></trkseg><trkseg><trkpt lat="35.150198524072664" lon="-120.81265378224101"/><trkpt lat="35.15019059761551" lon="-120.8122149510781"/><trkpt lat="35.14992027885044" lon="-120.81222218982577"/><trkpt lat="35.149928205228626" lon="-120.81266101953955"/><trkpt lat="35.150198524072664" lon="-120.81265378224101"/></trkseg><trkseg><trkpt lat="35.15007075310551" lon="-120.8105717504815"/><trkpt lat="35.150060835391656" lon="-120.81002321317622"/><trkpt lat="35.14916175776677" lon="-120.81015707223706"/><trkpt lat="35.14897559419146" lon="-120.80983278449327"/><trkpt lat="35.14870527580298" lon="-120.80984003079308"/><trkpt lat="35.148560757253286" lon="-120.81181955982144"/><trkpt lat="35.1488310760063" lon="-120.81181232010663"/><trkpt lat="35.1488171987985" lon="-120.81104437896339"/><trkpt lat="35.14963013737767" lon="-120.81113235856515"/><trkpt lat="35.14989649018948" lon="-120.81090570171266"/><trkpt lat="35.14989054079148" lon="-120.81057657992542"/><trkpt lat="35.15007075310551" lon="-120.8105717504815"/></trkseg><trkseg><trkpt lat="35.14778505976349" lon="-120.80382803703301"/><trkpt lat="35.1477790914513" lon="-120.80349892530845"/><trkpt lat="35.147328562620565" lon="-120.80351103679422"/><trkpt lat="35.147334530833646" lon="-120.80384014670763"/><trkpt lat="35.14778505976349" lon="-120.80382803703301"/></trkseg><trkseg><trkpt lat="35.147651765751235" lon="-120.8114048742124"/><trkpt lat="35.14764581803788" lon="-120.81107576135314"/><trkpt lat="35.14727944461052" lon="-120.8107563057949"/><trkpt lat="35.14655859489719" lon="-120.81077561968976"/><trkpt lat="35.146472454341925" lon="-120.8109974392369"/><trkpt lat="35.14647840209617" lon="-120.81132654735504"/><trkpt lat="35.146750703259116" lon="-120.81142900965776"/><trkpt lat="35.147651765751235" lon="-120.8114048742124"/></trkseg><trkseg><trkpt lat="35.14698135465391" lon="-120.80922770213422"/><trkpt lat="35.14678724954687" lon="-120.80846461324134"/><trkpt lat="35.14651693130831" lon="-120.80847186347823"/><trkpt lat="35.14652090115436" lon="-120.808691268628"/><trkpt lat="35.14634068896151" lon="-120.80869610158267"/><trkpt lat="35.14635061177434" lon="-120.80924461343736"/><trkpt lat="35.14698135465391" lon="-120.80922770213422"/></trkseg></trk></gpx>
