<?xml version="1.0" encoding="UTF-8"?>
<gpx version="1.1" creator="SkipperCast" xmlns="http://www.topografix.com/GPX/1/1"><metadata><name>SC26-007-A habitat research</name><desc>WGS84 coordinates. Habitat research; tracks show outlines and structure alignments, not navigation routes. Check current rules and charted hazards.</desc></metadata><wpt lat="35.410384" lon="-120.955124"><name>SC26-007-A</name><cmt>SC26-007</cmt><desc>Morro outer rocky crest Local crest within a wider area of rough seafloor. Terrain A 79/100; not catch probability. Center 147 ft; nearby 140–174 ft MLLW. Survey-derived habitat candidate; no verified catch at this coordinate. No verified charter identity match in the reviewed AIS sample; no AIS-confirmed hotspot. Survey 2008; screen 2026-09-20. No additional point-specific flag from this screening. Check current regulations, closures, conditions and sounder depths.</desc><link href="https://doi.org/10.5066/P9HEZNRO"/><sym>Fishing Area</sym></wpt><trk><name>SC-AREA-059</name><desc>Partial nearby mapped rough-rock/bedrock footprint, clipped within 350 m of retained targets and by depth/closure screening; not the complete reef or an individual pile.</desc><trkseg><trkpt lat="35.41350896845703" lon="-120.9559806366991"/><trkpt lat="35.41290427379711" lon="-120.95753759317525"/><trkpt lat="35.41201805943732" lon="-120.95844091441639"/><trkpt lat="35.41200502778679" lon="-120.95767041151852"/><trkpt lat="35.41137052785854" lon="-120.95746619075892"/><trkpt lat="35.41144387501017" lon="-120.9564732770324"/><trkpt lat="35.410546493152765" lon="-120.95671617369177"/><trkpt lat="35.410386756376234" lon="-120.95793148977498"/><trkpt lat="35.40993620205801" lon="-120.95794285992287"/><trkpt lat="35.40983678160325" lon="-120.95739478959564"/><trkpt lat="35.41001514104596" lon="-120.95728017128354"/><trkpt lat="35.40999464989791" lon="-120.95606941207272"/><trkpt lat="35.40909167884253" lon="-120.95598210477893"/><trkpt lat="35.40910099469672" lon="-120.95653244355469"/><trkpt lat="35.40865044067602" lon="-120.9565438209493"/><trkpt lat="35.40855287753256" lon="-120.95610582829366"/><trkpt lat="35.40810046028755" lon="-120.95600714144331"/><trkpt lat="35.408094869776036" lon="-120.95567694233677"/><trkpt lat="35.4084534491046" lon="-120.95555776993031"/><trkpt lat="35.40844412895667" lon="-120.95500743589162"/><trkpt lat="35.408173796776815" lon="-120.95501426728543"/><trkpt lat="35.4081663389287" lon="-120.95457400170466"/><trkpt lat="35.40852678173345" lon="-120.95456489120168"/><trkpt lat="35.40842175037988" lon="-120.95368663522983"/><trkpt lat="35.40860197167757" lon="-120.95368207798026"/><trkpt lat="35.408596374741514" lon="-120.9533518773082"/><trkpt lat="35.409221551139595" lon="-120.95300572089616"/><trkpt lat="35.40921595226996" lon="-120.95267551783672"/><trkpt lat="35.409574528068966" lon="-120.95255633037245"/><trkpt lat="35.40974541506457" lon="-120.95200142856253"/><trkpt lat="35.409644100289995" lon="-120.95134330000725"/><trkpt lat="35.4108155366642" lon="-120.95131364191582"/><trkpt lat="35.411005095202164" lon="-120.95185942909264"/><trkpt lat="35.411275426721616" lon="-120.95185258644945"/><trkpt lat="35.411177846304035" lon="-120.95141458625184"/><trkpt lat="35.41135806726312" lon="-120.95141002348039"/><trkpt lat="35.41236048718231" lon="-120.9520453587524"/><trkpt lat="35.41319201489454" lon="-120.95323563505237"/><trkpt lat="35.41347727237518" lon="-120.95410938464427"/><trkpt lat="35.41350896845703" lon="-120.9559806366991"/></trkseg><trkseg><trkpt lat="35.412714740117416" lon="-120.95699177880967"/><trkpt lat="35.4127072886522" lon="-120.95655148798781"/><trkpt lat="35.41225673489557" lon="-120.95656286679062"/><trkpt lat="35.41226232355232" lon="-120.9568930830562"/><trkpt lat="35.412714740117416" lon="-120.95699177880967"/></trkseg><trkseg><trkpt lat="35.411104540814925" lon="-120.95240749919863"/><trkpt lat="35.411097072931526" lon="-120.95196721839686"/><trkpt lat="35.41073663086612" lon="-120.9519763413304"/><trkpt lat="35.41074223185484" lon="-120.95230655044813"/><trkpt lat="35.411104540814925" lon="-120.95240749919863"/></trkseg></trk></gpx>
