<?xml version="1.0" encoding="UTF-8"?>
<gpx version="1.1" creator="SkipperCast" xmlns="http://www.topografix.com/GPX/1/1"><metadata><name>SC26-026-B habitat research</name><desc>WGS84 coordinates. Habitat research; tracks show outlines and structure alignments, not navigation routes. Check current rules and charted hazards.</desc></metadata><wpt lat="35.155095" lon="-120.80676"><name>SC26-026-B</name><cmt>SC26-026</cmt><desc>Avila rough reef Mapped rough-rock high; 4.5 m relief across 210 m. Terrain B 59/100; not catch probability. Center 103 ft; nearby 102–118 ft MLLW. Survey-derived habitat candidate; no verified catch at this coordinate. No verified charter identity match in the reviewed AIS sample; no AIS-confirmed hotspot. Survey 2008; screen 2026-09-20. No additional flag from this depth and closure screening. Parallel bands visible in survey rendering; confirm small-scale relief by sonar. Check current regulations, closures, conditions and sounder depths.</desc><link href="https://doi.org/10.5066/P9KBGELE"/><sym>Fishing Area</sym></wpt><trk><name>SC-AREA-008</name><desc>Partial nearby mapped rough-rock/bedrock footprint, clipped within 350 m of retained targets and by depth/closure screening; not the complete reef or an individual pile.</desc><trkseg><trkpt lat="35.15822077872662" lon="-120.80760900679611"/><trkpt lat="35.15779209319577" lon="-120.80882799463132"/><trkpt lat="35.15749595899171" lon="-120.80740892181161"/><trkpt lat="35.1572256414228" lon="-120.80741617841558"/><trkpt lat="35.157233586635364" lon="-120.80785504594472"/><trkpt lat="35.1569632689739" lon="-120.80786230100244"/><trkpt lat="35.15688507776658" lon="-120.80852301805001"/><trkpt lat="35.15643454809578" lon="-120.80853510592057"/><trkpt lat="35.15642859129995" lon="-120.80820595832606"/><trkpt lat="35.156698909047535" lon="-120.8081987045487"/><trkpt lat="35.15669295129903" lon="-120.80786955596359"/><trkpt lat="35.15633252771173" lon="-120.80787922909485"/><trkpt lat="35.15633848538109" lon="-120.80820837623038"/><trkpt lat="35.15588795576458" lon="-120.80822046559102"/><trkpt lat="35.156082065231736" lon="-120.80898363770069"/><trkpt lat="35.155811747314445" lon="-120.80899088871598"/><trkpt lat="35.155805791848124" lon="-120.80866174352946"/><trkpt lat="35.155355262055096" lon="-120.80867383015229"/><trkpt lat="35.15536717189671" lon="-120.80933211699808"/><trkpt lat="35.15617812585332" lon="-120.80931036740677"/><trkpt lat="35.156184079612146" lon="-120.80963951423594"/><trkpt lat="35.15582563992862" lon="-120.80975889452665"/><trkpt lat="35.15519291343134" lon="-120.80966609296557"/><trkpt lat="35.15518497517769" lon="-120.80922723586308"/><trkpt lat="35.154642354389374" lon="-120.80913202217997"/><trkpt lat="35.154636399477894" lon="-120.80880288167211"/><trkpt lat="35.15517703533603" lon="-120.80878837893223"/><trkpt lat="35.15517107941261" lon="-120.80845923634672"/><trkpt lat="35.1538214752717" lon="-120.80860521028039"/><trkpt lat="35.15383735416407" lon="-120.80948290964766"/><trkpt lat="35.1540175662286" lon="-120.80947807708642"/><trkpt lat="35.1540235192152" lon="-120.8098072152508"/><trkpt lat="35.15357298894386" lon="-120.80981929476168"/><trkpt lat="35.15357695703947" lon="-120.81003871905038"/><trkpt lat="35.15339674489417" lon="-120.81004355029656"/><trkpt lat="35.15228967337933" lon="-120.80864630174477"/><trkpt lat="35.15236588088208" lon="-120.80787591182973"/><trkpt lat="35.15200347116451" lon="-120.80777587350158"/><trkpt lat="35.15189747471796" lon="-120.80690061378074"/><trkpt lat="35.151969696173985" lon="-120.80591080715035"/><trkpt lat="35.15222410950927" lon="-120.8050258668718"/><trkpt lat="35.153013182252764" lon="-120.80379725610133"/><trkpt lat="35.15345973133722" lon="-120.80356572057951"/><trkpt lat="35.153557795467016" lon="-120.80400214446979"/><trkpt lat="35.1540083239825" lon="-120.80399003289791"/><trkpt lat="35.15400235519577" lon="-120.80366089607844"/><trkpt lat="35.15354585719856" lon="-120.80334387455102"/><trkpt lat="35.15426073185568" lon="-120.80299535239654"/><trkpt lat="35.15579252744307" lon="-120.8029541520128"/><trkpt lat="35.155886613811404" lon="-120.80317115784361"/><trkpt lat="35.1561569306703" lon="-120.80316388755747"/><trkpt lat="35.15616489107645" lon="-120.8036027480953"/><trkpt lat="35.15562226727365" lon="-120.80350757124593"/><trkpt lat="35.15562823671492" lon="-120.80383671455567"/><trkpt lat="35.15589855370616" lon="-120.80382944654058"/><trkpt lat="35.155906511650926" lon="-120.80426830588696"/><trkpt lat="35.155365877496486" lon="-120.80428283892132"/><trkpt lat="35.15520555348557" lon="-120.8053848226351"/><trkpt lat="35.15583032849808" lon="-120.80503873151069"/><trkpt lat="35.15582237335884" lon="-120.80459987234651"/><trkpt lat="35.15600258477434" lon="-120.80459502866198"/><trkpt lat="35.15599860658278" lon="-120.80437559866121"/><trkpt lat="35.1563590293431" lon="-120.80436591019681"/><trkpt lat="35.15644117732316" lon="-120.80392462576536"/><trkpt lat="35.15734422348218" lon="-120.80401011567633"/><trkpt lat="35.15790077123682" lon="-120.80487332007077"/><trkpt lat="35.1581869959963" lon="-120.80574379875821"/><trkpt lat="35.15822077872662" lon="-120.80760900679611"/></trkseg><trkseg><trkpt lat="35.157089819923094" lon="-120.80489511508243"/><trkpt lat="35.15698777979904" lon="-120.80423923865717"/><trkpt lat="35.15671746278211" lon="-120.80424650560977"/><trkpt lat="35.156819502791734" lon="-120.80490237989284"/><trkpt lat="35.157089819923094" lon="-120.80489511508243"/></trkseg><trkseg><trkpt lat="35.15440454120624" lon="-120.80595517509167"/><trkpt lat="35.154398577699645" lon="-120.80562603624244"/><trkpt lat="35.1540381545178" lon="-120.80563571844642"/><trkpt lat="35.1540421302353" lon="-120.80585514336889"/><trkpt lat="35.1531410720445" lon="-120.80587934571119"/><trkpt lat="35.15315697041667" lon="-120.8067570361682"/><trkpt lat="35.15342728804791" lon="-120.80674977847698"/><trkpt lat="35.153597563891395" lon="-120.80619638032682"/><trkpt lat="35.154228304727106" lon="-120.80617944096049"/><trkpt lat="35.15440454120624" lon="-120.80595517509167"/></trkseg><trkseg><trkpt lat="35.15316491722087" lon="-120.80719588165441"/><trkpt lat="35.15315895726659" lon="-120.80686674752364"/><trkpt lat="35.15243811013166" lon="-120.8068860999282"/><trkpt lat="35.152455986840025" lon="-120.80787349391441"/><trkpt lat="35.15272630470488" lon="-120.80786624010415"/><trkpt lat="35.15280846634002" lon="-120.80742497833455"/><trkpt lat="35.15316491722087" lon="-120.80719588165441"/></trkseg></trk></gpx>
