<?xml version="1.0" encoding="UTF-8"?>
<gpx version="1.1" creator="SkipperCast" xmlns="http://www.topografix.com/GPX/1/1"><metadata><name>SC26-040-A habitat research</name></metadata><wpt lat="35.17792" lon="-120.84787"><name>SC26-040-A</name><desc>Avila rough reef Mapped rough-rock high; 10.1 m relief across 210 m. Terrain A 75/100; not catch probability. Center 104 ft; nearby 95–136 ft MLLW. Survey-derived habitat candidate; no verified catch at this coordinate. No verified charter identity match in the reviewed AIS sample; no AIS-confirmed hotspot. Survey 2008; screen 2026-09-20. No additional flag from this depth and closure screening. Check current regulations, closures, conditions and sounder depths.</desc><link href="https://doi.org/10.5066/P9KBGELE"/><sym>Fishing Area</sym></wpt><trk><name>SC-AREA-022</name><desc>Partial mapped habitat footprint clipped to a 225-m search window to retain complete depth coverage; not the entire reef or a single pile.</desc><trkseg><trkpt lat="35.17664328721849" lon="-120.84960564446241"/><trkpt lat="35.176553179125015" lon="-120.84960801849326"/><trkpt lat="35.176549280485915" lon="-120.84938852672057"/><trkpt lat="35.17645917240389" lon="-120.84939090098277"/><trkpt lat="35.17644552408314" lon="-120.84862268095686"/><trkpt lat="35.17671584818884" lon="-120.84861555559917"/><trkpt lat="35.17671779826638" lon="-120.84872530164832"/><trkpt lat="35.17680790630512" lon="-120.84872292662895"/><trkpt lat="35.17681180617514" lon="-120.84894241900075"/><trkpt lat="35.17699202227405" lon="-120.8489376694141"/><trkpt lat="35.176993972073" lon="-120.84904741585768"/><trkpt lat="35.177534620372995" lon="-120.84903316757038"/><trkpt lat="35.177538519750534" lon="-120.84925266194041"/><trkpt lat="35.177898951972644" lon="-120.84924316383892"/><trkpt lat="35.17790285100458" lon="-120.84946265921859"/><trkpt lat="35.177992959069364" lon="-120.84946028490873"/><trkpt lat="35.177994908442784" lon="-120.8495700327353"/><trkpt lat="35.1786237154812" lon="-120.84944366444479"/><trkpt lat="35.17862566489993" lon="-120.84955341311797"/><trkpt lat="35.1787157729593" lon="-120.84955103884477"/><trkpt lat="35.17872551859509" lon="-120.8500997829734"/><trkpt lat="35.17818487002246" lon="-120.85011402482627"/><trkpt lat="35.178188470276055" lon="-120.8503167812014"/><trkpt lat="35.17855051380871" lon="-120.85021749324122"/><trkpt lat="35.17891441666804" lon="-120.85002257225862"/><trkpt lat="35.179384635916165" lon="-120.84957830143136"/><trkpt lat="35.17980989527588" lon="-120.84876559614604"/><trkpt lat="35.179947428969314" lon="-120.84781653589869"/><trkpt lat="35.17977629766794" lon="-120.84687561623352"/><trkpt lat="35.17932255663674" lon="-120.84608609268676"/><trkpt lat="35.17865528784021" lon="-120.84556816613004"/><trkpt lat="35.17787608049264" lon="-120.84540068147969"/><trkpt lat="35.17710356291883" lon="-120.84560912703125"/><trkpt lat="35.176845705363235" lon="-120.84577866841128"/><trkpt lat="35.176849232278066" lon="-120.84597689748715"/><trkpt lat="35.17661255936872" lon="-120.84598314354206"/><trkpt lat="35.17645534184075" lon="-120.84616175979406"/><trkpt lat="35.17603009903644" lon="-120.84697444337182"/><trkpt lat="35.17589257027983" lon="-120.8479234587626"/><trkpt lat="35.175940088561134" lon="-120.84840416067121"/><trkpt lat="35.17615265136482" lon="-120.84908115178955"/><trkpt lat="35.17664656743146" lon="-120.84979033605306"/><trkpt lat="35.17664328721849" lon="-120.84960564446241"/></trkseg><trkseg><trkpt lat="35.17634761484499" lon="-120.84818607389867"/><trkpt lat="35.17632615334968" lon="-120.84697887383875"/><trkpt lat="35.17659647716837" lon="-120.84697174307082"/><trkpt lat="35.17661793887742" lon="-120.84817894712147"/><trkpt lat="35.17634761484499" lon="-120.84818607389867"/></trkseg></trk></gpx>
