<?xml version="1.0" encoding="UTF-8"?>
<gpx version="1.1" creator="SkipperCast" xmlns="http://www.topografix.com/GPX/1/1"><metadata><name>SC26-083-B habitat research</name></metadata><wpt lat="35.41863" lon="-120.9417"><name>SC26-083-B</name><desc>Morro Bay rough reef Mapped rough-rock high; 10.4 m relief across 210 m. Terrain B 72/100; not catch probability. Center 90 ft; nearby 82–117 ft MLLW. Survey-derived habitat candidate; no verified catch at this coordinate. No verified charter identity match in the reviewed AIS sample; no AIS-confirmed hotspot. Survey 2008; screen 2026-09-20. No additional flag from this depth and closure screening. Check current regulations, closures, conditions and sounder depths.</desc><link href="https://doi.org/10.5066/P9HEZNRO"/><sym>Fishing Area</sym></wpt><trk><name>SC-AREA-065</name><desc>Partial nearby mapped rough-rock/bedrock footprint, clipped within 350 m of retained targets and by depth/closure screening; not the complete reef or an individual pile.</desc><trkseg><trkpt lat="35.421754941780385" lon="-120.942556445928"/><trkpt lat="35.42115042984263" lon="-120.9441136559531"/><trkpt lat="35.420176089055346" lon="-120.94512958722976"/><trkpt lat="35.419460829928376" lon="-120.9454781432345"/><trkpt lat="35.41792895934426" lon="-120.94551704938179"/><trkpt lat="35.417921465096846" lon="-120.94507673335862"/><trkpt lat="35.41764926123005" lon="-120.94497352170028"/><trkpt lat="35.417643639247004" lon="-120.94464328592171"/><trkpt lat="35.41782385924748" lon="-120.9446387069827"/><trkpt lat="35.41781448720879" lon="-120.9440883129976"/><trkpt lat="35.417183717398416" lon="-120.94410434339045"/><trkpt lat="35.41719121505614" lon="-120.94454465513087"/><trkpt lat="35.4167444131886" lon="-120.94477625736566"/><trkpt lat="35.41610052296467" lon="-120.94402174646429"/><trkpt lat="35.41609302359997" lon="-120.94358144080233"/><trkpt lat="35.4164534634472" lon="-120.94357227867873"/><trkpt lat="35.41664493203097" lon="-120.94422816051622"/><trkpt lat="35.417003497439325" lon="-120.94410892341119"/><trkpt lat="35.41699412317376" lon="-120.94355853518839"/><trkpt lat="35.41726257784464" lon="-120.94344158532468"/><trkpt lat="35.41734518606615" lon="-120.94299898224145"/><trkpt lat="35.4173283013384" lon="-120.9420082801321"/><trkpt lat="35.417146205051445" lon="-120.94190278712836"/><trkpt lat="35.417140574741026" lon="-120.94157255403996"/><trkpt lat="35.41749162809046" lon="-120.94101299189019"/><trkpt lat="35.417940299535715" lon="-120.94089144559379"/><trkpt lat="35.41793466635093" lon="-120.94056120947532"/><trkpt lat="35.41820499564244" lon="-120.94055432734234"/><trkpt lat="35.41830261621533" lon="-120.94099235008117"/><trkpt lat="35.419203713991564" lon="-120.94096941377072"/><trkpt lat="35.41947967559442" lon="-120.94129277516268"/><trkpt lat="35.42047276043486" lon="-120.94137762994406"/><trkpt lat="35.420478391735635" lon="-120.94170787658963"/><trkpt lat="35.42119739298321" lon="-120.94157944931904"/><trkpt lat="35.42120114698236" lon="-120.94179961573874"/><trkpt lat="35.421743682567055" lon="-120.94189594195618"/><trkpt lat="35.421754941780385" lon="-120.942556445928"/></trkseg><trkseg><trkpt lat="35.419977126009464" lon="-120.94403334786948"/><trkpt lat="35.41997150113647" lon="-120.94370310278661"/><trkpt lat="35.41961106146988" lon="-120.94371226551694"/><trkpt lat="35.41961668626839" lon="-120.94404250913077"/><trkpt lat="35.419977126009464" lon="-120.94403334786948"/></trkseg><trkseg><trkpt lat="35.41863484917658" lon="-120.94461810125424"/><trkpt lat="35.41862922608659" lon="-120.9442878615276"/><trkpt lat="35.418268786207314" lon="-120.9442970211997"/><trkpt lat="35.41818804739411" lon="-120.94484970762723"/><trkpt lat="35.418548487403356" lon="-120.94484055044398"/><trkpt lat="35.41863484917658" lon="-120.94461810125424"/></trkseg><trkseg><trkpt lat="35.41824628512289" lon="-120.94297606908383"/><trkpt lat="35.41823878155351" lon="-120.94253575203727"/><trkpt lat="35.41761176430139" lon="-120.94277195157102"/><trkpt lat="35.41762489278757" lon="-120.9435425006537"/><trkpt lat="35.41789522259992" lon="-120.94353562855777"/><trkpt lat="35.4178858455179" lon="-120.94298523446892"/><trkpt lat="35.41824628512289" lon="-120.94297606908383"/></trkseg></trk></gpx>
