<?xml version="1.0" encoding="UTF-8"?>
<gpx version="1.1" creator="SkipperCast" xmlns="http://www.topografix.com/GPX/1/1"><metadata><name>SC26-108-B habitat research</name></metadata><wpt lat="35.444207" lon="-120.961429"><name>SC26-108-B</name><desc>Morro Bay rough reef Mapped rough-rock high; 4.8 m relief across 210 m. Terrain B 61/100; not catch probability. Center 47 ft; nearby 41–61 ft MLLW. Survey-derived habitat candidate; no verified catch at this coordinate. No verified charter identity match in the reviewed AIS sample; no AIS-confirmed hotspot. Survey 2008; screen 2026-09-20. No additional flag from this depth and closure screening. Subtle local relief in the rendered grid; primarily a mapped-bottom investigation option. Check current regulations, closures, conditions and sounder depths.</desc><link href="https://doi.org/10.5066/P9HEZNRO"/><sym>Fishing Area</sym></wpt><trk><name>SC-AREA-086</name><desc>Partial mapped habitat footprint clipped to a 225-m search window to retain complete depth coverage; not the entire reef or a single pile.</desc><trkseg><trkpt lat="35.442608389418865" lon="-120.96020218627149"/><trkpt lat="35.44261583299725" lon="-120.96064264085992"/><trkpt lat="35.442525722465795" lon="-120.9606449145939"/><trkpt lat="35.44252758310338" lon="-120.96075502814368"/><trkpt lat="35.44234736202376" lon="-120.96075957533624"/><trkpt lat="35.44235666364504" lon="-120.9613101420109"/><trkpt lat="35.44262699535461" lon="-120.96130332304531"/><trkpt lat="35.44263071533766" lon="-120.96152355052114"/><trkpt lat="35.4429047666895" lon="-120.96173696045172"/><trkpt lat="35.442908485906756" lon="-120.96195718874364"/><trkpt lat="35.442998596506165" lon="-120.96195491644004"/><trkpt lat="35.443000455970434" lon="-120.9620650307237"/><trkpt lat="35.44318067717713" lon="-120.9620604863314"/><trkpt lat="35.44318253655336" lon="-120.96217060087025"/><trkpt lat="35.443364617054655" lon="-120.96227617147683"/><trkpt lat="35.44337019431718" lon="-120.96260651591959"/><trkpt lat="35.44427315948863" lon="-120.96269391533981"/><trkpt lat="35.44427873573154" lon="-120.96302426358064"/><trkpt lat="35.444641036849454" lon="-120.96312529519427"/><trkpt lat="35.44464661196199" lon="-120.96345564502693"/><trkpt lat="35.44482683327553" lon="-120.9634511034585"/><trkpt lat="35.44483054954007" lon="-120.96367133722097"/><trkpt lat="35.445076227490276" lon="-120.96366514675249"/><trkpt lat="35.44536819332675" lon="-120.9634606717763"/><trkpt lat="35.44591603872731" lon="-120.96276298929534"/><trkpt lat="35.44621395974184" lon="-120.96176366299424"/><trkpt lat="35.446152466556434" lon="-120.96187537946024"/><trkpt lat="35.44606235600864" lon="-120.96187765211684"/><trkpt lat="35.446060496234814" lon="-120.96176753367578"/><trkpt lat="35.4458802751471" lon="-120.9617720792039"/><trkpt lat="35.445793884011415" lon="-120.96199458810955"/><trkpt lat="35.445613662890246" lon="-120.96199913308682"/><trkpt lat="35.44561180324754" lon="-120.96188901524859"/><trkpt lat="35.44542972240201" lon="-120.96178344284768"/><trkpt lat="35.445426002639444" lon="-120.96156320771196"/><trkpt lat="35.445516113179096" lon="-120.96156093475823"/><trkpt lat="35.44560250352869" lon="-120.96133842620868"/><trkpt lat="35.445782724576006" lon="-120.96133387976045"/><trkpt lat="35.445784584732785" lon="-120.96144399779342"/><trkpt lat="35.44596666585527" lon="-120.9615495698382"/><trkpt lat="35.445964805786545" lon="-120.96143945154999"/><trkpt lat="35.44605491631118" lon="-120.96143717841314"/><trkpt lat="35.446051195860335" lon="-120.9612169416218"/><trkpt lat="35.44621609535445" lon="-120.96110261583244"/><trkpt lat="35.44618460000665" lon="-120.96088307948047"/><trkpt lat="35.44613758550664" lon="-120.96099443123357"/><trkpt lat="35.445957364508054" lon="-120.96099897849801"/><trkpt lat="35.44595550393755" lon="-120.96088886026025"/><trkpt lat="35.44577342228681" lon="-120.960783289747"/><trkpt lat="35.445948060652" lon="-120.96044838741014"/><trkpt lat="35.44606780789294" lon="-120.96044536518443"/><trkpt lat="35.445728596490554" lon="-120.95979293715546"/><trkpt lat="35.44548634052951" lon="-120.95979905316422"/><trkpt lat="35.445488202072745" lon="-120.95990917068814"/><trkpt lat="35.44539809162545" lon="-120.95991144548053"/><trkpt lat="35.44539623008838" lon="-120.95980132807921"/><trkpt lat="35.44485556741056" lon="-120.95981497735714"/><trkpt lat="35.44485742891067" lon="-120.95992509402303"/><trkpt lat="35.444767318453046" lon="-120.95992736874479"/><trkpt lat="35.44476545695908" lon="-120.95981725220147"/><trkpt lat="35.44458523605173" lon="-120.9598218018598"/><trkpt lat="35.444583374469744" lon="-120.95971168557175"/><trkpt lat="35.44440129189881" lon="-120.95960611940203"/><trkpt lat="35.444397568257756" lon="-120.95938588736668"/><trkpt lat="35.44430745782354" lon="-120.9593881626508"/><trkpt lat="35.4444820924578" lon="-120.95905326372745"/><trkpt lat="35.444661777605965" lon="-120.95901703750924"/><trkpt lat="35.44430015120778" lon="-120.95895608633369"/><trkpt lat="35.44430187162784" lon="-120.95905781504122"/><trkpt lat="35.44421176121066" lon="-120.95906009068297"/><trkpt lat="35.44420994930712" lon="-120.95895295245009"/><trkpt lat="35.44396659705341" lon="-120.95896834426227"/><trkpt lat="35.44357838004514" lon="-120.95907294267961"/><trkpt lat="35.443045774201096" lon="-120.95939738750656"/><trkpt lat="35.44244591866039" lon="-120.96020628672866"/><trkpt lat="35.442608389418865" lon="-120.96020218627149"/></trkseg><trkseg><trkpt lat="35.44551239300282" lon="-120.96134069941768"/><trkpt lat="35.44532659096653" lon="-120.96101489360571"/><trkpt lat="35.445593201301065" lon="-120.96078783742104"/><trkpt lat="35.4457790039614" lon="-120.96111364372479"/><trkpt lat="35.44551239300282" lon="-120.96134069941768"/></trkseg></trk></gpx>
