<?xml version="1.0" encoding="UTF-8"?>
<gpx version="1.1" creator="SkipperCast" xmlns="http://www.topografix.com/GPX/1/1"><metadata><name>SC26-029-B habitat research</name><desc>WGS84 coordinates. Habitat research; tracks show outlines and structure alignments, not navigation routes. Check current rules and charted hazards.</desc></metadata><wpt lat="35.162739" lon="-120.790856"><name>SC26-029-B</name><cmt>SC26-029</cmt><desc>Avila rough reef Mapped rough-rock high; 7.9 m relief across 210 m. Terrain B 60/100; not catch probability. Center 51 ft; nearby 47–76 ft MLLW. Survey-derived habitat candidate; no verified catch at this coordinate. No verified charter identity match in the reviewed AIS sample; no AIS-confirmed hotspot. Survey 2008; screen 2026-09-20. No additional flag from this depth and closure screening. Check current regulations, closures, conditions and sounder depths.</desc><link href="https://doi.org/10.5066/P9KBGELE"/><sym>Fishing Area</sym></wpt><trk><name>SC-AREA-010</name><desc>Partial nearby mapped rough-rock/bedrock footprint, clipped within 350 m of retained targets and by depth/closure screening; not the complete reef or an individual pile.</desc><trkseg><trkpt lat="35.16586493830552" lon="-120.79170500244169"/><trkpt lat="35.16534831584138" lon="-120.79303634369437"/><trkpt lat="35.1648977914913" lon="-120.79304852075968"/><trkpt lat="35.164879788459125" lon="-120.79206098626433"/><trkpt lat="35.16442926437067" lon="-120.79207316849734"/><trkpt lat="35.16442526267116" lon="-120.7918537177146"/><trkpt lat="35.16397473861187" lon="-120.7918659008857"/><trkpt lat="35.163980740912564" lon="-120.7921950752634"/><trkpt lat="35.16434116024268" lon="-120.79218533019822"/><trkpt lat="35.1643491620266" lon="-120.79262423145333"/><trkpt lat="35.163720428148565" lon="-120.79275100631527"/><trkpt lat="35.16371242694772" lon="-120.79231210840041"/><trkpt lat="35.16290348365711" lon="-120.79244375616004"/><trkpt lat="35.162887477762574" lon="-120.79156596946288"/><trkpt lat="35.16242694693186" lon="-120.79102954021374"/><trkpt lat="35.16241493556248" lon="-120.7903712045945"/><trkpt lat="35.16205451655905" lon="-120.79038095696772"/><trkpt lat="35.162050512028244" lon="-120.7901615128145"/><trkpt lat="35.161419778807975" lon="-120.7901785807426"/><trkpt lat="35.16157795665526" lon="-120.78896676882225"/><trkpt lat="35.16147582969221" lon="-120.78831088126934"/><trkpt lat="35.161295620416425" lon="-120.7883157618524"/><trkpt lat="35.161279585247144" lon="-120.78743799487769"/><trkpt lat="35.16190430234738" lon="-120.7870917409073"/><trkpt lat="35.16271323804143" lon="-120.78696004257435"/><trkpt lat="35.16281136299616" lon="-120.78739649210843"/><trkpt lat="35.16308167667186" lon="-120.78738916776526"/><trkpt lat="35.16308769100425" lon="-120.7877183375491"/><trkpt lat="35.163540218479305" lon="-120.78781585579335"/><trkpt lat="35.16364034465911" lon="-120.78836203495531"/><trkpt lat="35.164182976339106" lon="-120.78845711690946"/><trkpt lat="35.16428710665176" lon="-120.78922275125319"/><trkpt lat="35.16446731594894" lon="-120.78921787213038"/><trkpt lat="35.164563430183826" lon="-120.78954460868903"/><trkpt lat="35.164401244134424" lon="-120.79053701392681"/><trkpt lat="35.164671558312854" lon="-120.79052969954412"/><trkpt lat="35.16478368086649" lon="-120.79173424512459"/><trkpt lat="35.16559662505093" lon="-120.79182204020455"/><trkpt lat="35.16566871643938" lon="-120.79083206018403"/><trkpt lat="35.165848925891325" lon="-120.79082718436183"/><trkpt lat="35.16586493830552" lon="-120.79170500244169"/></trkseg></trk></gpx>
