<?xml version="1.0" encoding="UTF-8"?>
<gpx version="1.1" creator="SkipperCast" xmlns="http://www.topografix.com/GPX/1/1"><metadata><name>SC26-133-C habitat research</name><desc>WGS84 coordinates. Habitat research; tracks show outlines and structure alignments, not navigation routes. Check current rules and charted hazards.</desc></metadata><wpt lat="35.516455" lon="-121.096219"><name>SC26-133-C</name><cmt>SC26-133</cmt><desc>Point Estero rough reef Mapped rough-rock high; 4.0 m relief across 210 m. Terrain C 12/100; not catch probability. Center 152 ft; nearby 148–159 ft MLLW. Survey-derived habitat candidate; no verified catch at this coordinate. No verified charter identity match in the reviewed AIS sample; no AIS-confirmed hotspot. Survey 2008; screen 2026-09-20. About 547 m from screened closed/access-restricted area; plan entire drift clear. Subtle local relief in the rendered grid; primarily a mapped-bottom investigation option. Check current regulations, closures, conditions and sounder depths.</desc><link href="https://doi.org/10.5066/P9ZSTUK1"/><sym>Fishing Area</sym></wpt></gpx>
