<?xml version="1.0" encoding="UTF-8"?>
<gpx version="1.1" creator="SkipperCast" xmlns="http://www.topografix.com/GPX/1/1"><metadata><name>SC26-134-C habitat research</name></metadata><wpt lat="35.523117" lon="-121.107089"><name>SC26-134-C</name><desc>Point Estero rough reef Mapped rough-rock high; 4.7 m relief across 210 m. Terrain C 22/100; not catch probability. Center 155 ft; nearby 153–167 ft MLLW. Survey-derived habitat candidate; no verified catch at this coordinate. No verified charter identity match in the reviewed AIS sample; no AIS-confirmed hotspot. Survey 2008; screen 2026-09-20. No additional flag from this depth and closure screening. Check current regulations, closures, conditions and sounder depths.</desc><link href="https://doi.org/10.5066/P9ZSTUK1"/><sym>Fishing Area</sym></wpt></gpx>
