<?xml version="1.0" encoding="UTF-8"?>
<gpx version="1.1" creator="SkipperCast" xmlns="http://www.topografix.com/GPX/1/1"><metadata><name>SC26-115-B habitat research</name><desc>WGS84 coordinates. Habitat research; tracks show outlines and structure alignments, not navigation routes. Check current rules and charted hazards.</desc></metadata><wpt lat="35.453787" lon="-121.00063"><name>SC26-115-B</name><cmt>SC26-115</cmt><desc>Point Estero rough reef Mapped rough-rock high; 6.8 m relief across 210 m. Terrain B 64/100; not catch probability. Center 52 ft; nearby 47–69 ft MLLW. Survey-derived habitat candidate; no verified catch at this coordinate. No verified charter identity match in the reviewed AIS sample; no AIS-confirmed hotspot. Survey 2008; screen 2026-09-20. No additional flag from this depth and closure screening. Check current regulations, closures, conditions and sounder depths.</desc><link href="https://doi.org/10.5066/P9ZSTUK1"/><sym>Fishing Area</sym></wpt><trk><name>SC-AREA-092</name><desc>Partial nearby mapped rough-rock/bedrock footprint, clipped within 350 m of retained targets and by depth/closure screening; not the complete reef or an individual pile.</desc><trkseg><trkpt lat="35.456641394474644" lon="-121.00149601628154"/><trkpt lat="35.45637652835633" lon="-121.00183310991692"/><trkpt lat="35.45656769427856" lon="-121.00248946489587"/><trkpt lat="35.45630647072048" lon="-121.00304682546721"/><trkpt lat="35.45533163010496" lon="-121.00406253357454"/><trkpt lat="35.45479277512902" lon="-121.00418602495971"/><trkpt lat="35.45469901912848" lon="-121.00396798500488"/><trkpt lat="35.453888004249066" lon="-121.0039880226187"/><trkpt lat="35.45342104162432" lon="-121.00300797250064"/><trkpt lat="35.45324081617321" lon="-121.00301242730372"/><trkpt lat="35.45314158960486" lon="-121.00246400033161"/><trkpt lat="35.452420687971134" lon="-121.00248182397475"/><trkpt lat="35.452233169909846" lon="-121.00204576138299"/><trkpt lat="35.450883302630565" lon="-121.00218931381575"/><trkpt lat="35.45058743051716" lon="-121.00065421571524"/><trkpt lat="35.45067206901362" lon="-121.00032160384866"/><trkpt lat="35.451212744691105" lon="-121.00030822258805"/><trkpt lat="35.451209094690256" lon="-121.00008796646006"/><trkpt lat="35.45220033316201" lon="-121.0000634305255"/><trkpt lat="35.45220398329568" lon="-121.00028368935132"/><trkpt lat="35.45247432106608" lon="-121.00027699826067"/><trkpt lat="35.4524670203247" lon="-120.99983647917706"/><trkpt lat="35.453905169990534" lon="-120.99958052060003"/><trkpt lat="35.453899692488186" lon="-120.99925012556415"/><trkpt lat="35.453717641442346" lon="-120.99914445741192"/><trkpt lat="35.45164505339387" lon="-120.99919578489006"/><trkpt lat="35.45162496204627" lon="-120.99798437102135"/><trkpt lat="35.45189529946248" lon="-120.9979776723833"/><trkpt lat="35.45188799043391" lon="-120.99753715707496"/><trkpt lat="35.45224295730686" lon="-120.99719783560803"/><trkpt lat="35.452963856633076" lon="-120.99717996495261"/><trkpt lat="35.45387411886418" lon="-120.99770828324226"/><trkpt lat="35.45423456855412" lon="-120.9976993497328"/><trkpt lat="35.45431919826" lon="-120.99736671996048"/><trkpt lat="35.45522397754912" lon="-120.99756464840415"/><trkpt lat="35.45530860673205" lon="-120.99723201438255"/><trkpt lat="35.45594853173912" lon="-120.99776704774764"/><trkpt lat="35.45623165859447" lon="-120.99853129062379"/><trkpt lat="35.456055086983795" lon="-120.99875602498766"/><trkpt lat="35.456244443343955" lon="-120.99930223441886"/><trkpt lat="35.45597775774948" lon="-120.99952919870964"/><trkpt lat="35.45607334727683" lon="-120.99985737115992"/><trkpt lat="35.45589494771692" lon="-120.99997196785128"/><trkpt lat="35.45581213602821" lon="-121.00041473616021"/><trkpt lat="35.45599966039044" lon="-121.00085081359524"/><trkpt lat="35.45626999808428" lon="-121.00084412346492"/><trkpt lat="35.45600148495793" lon="-121.00096094823338"/><trkpt lat="35.45600878222392" lon="-121.00140148688496"/><trkpt lat="35.45636923260016" lon="-121.00139256914453"/><trkpt lat="35.456455696697994" lon="-121.00117006911253"/><trkpt lat="35.456641394474644" lon="-121.00149601628154"/></trkseg><trkseg><trkpt lat="35.45444584513306" lon="-120.99956713278588"/><trkpt lat="35.45443671527929" lon="-120.999016470763"/><trkpt lat="35.45416637780526" lon="-120.99902316655425"/><trkpt lat="35.45417550756841" lon="-120.99957382673753"/><trkpt lat="35.45444584513306" lon="-120.99956713278588"/></trkseg></trk></gpx>
