<?xml version="1.0" encoding="UTF-8"?>
<gpx version="1.1" creator="SkipperCast" xmlns="http://www.topografix.com/GPX/1/1"><metadata><name>SC26-030-B habitat research</name></metadata><wpt lat="35.162812" lon="-120.809736"><name>SC26-030-B</name><desc>Avila rough reef Mapped rough-rock high; 7.4 m relief across 210 m. Terrain B 66/100; not catch probability. Center 72 ft; nearby 70–96 ft MLLW. Survey-derived habitat candidate; no verified catch at this coordinate. No verified charter identity match in the reviewed AIS sample; no AIS-confirmed hotspot. Survey 2008; screen 2026-09-20. No additional flag from this depth and closure screening. Check current regulations, closures, conditions and sounder depths.</desc><link href="https://doi.org/10.5066/P9KBGELE"/><sym>Fishing Area</sym></wpt><trk><name>SC-AREA-012</name><desc>Partial nearby mapped rough-rock/bedrock footprint, clipped within 350 m of retained targets and by depth/closure screening; not the complete reef or an individual pile.</desc><trkseg><trkpt lat="35.167401874664904" lon="-120.81680392528114"/><trkpt lat="35.1671473804713" lon="-120.81768900062826"/><trkpt lat="35.166356194705" lon="-120.81880797492337"/><trkpt lat="35.166432462226666" lon="-120.8180374575213"/><trkpt lat="35.16625224950108" lon="-120.81804227342123"/><trkpt lat="35.166136429694866" lon="-120.81661819691443"/><trkpt lat="35.1657779830879" lon="-120.81673756385267"/><trkpt lat="35.16569578988104" lon="-120.81717888890608"/><trkpt lat="35.16533932048155" lon="-120.8174079811472"/><trkpt lat="35.16534525357952" lon="-120.81773716666528"/><trkpt lat="35.1649848281298" lon="-120.81774679935965"/><trkpt lat="35.16488878876419" lon="-120.81742002380123"/><trkpt lat="35.16461846971592" lon="-120.81742724926536"/><trkpt lat="35.164524407586626" lon="-120.81721020294876"/><trkpt lat="35.16353719338906" lon="-120.81745615015993"/><trkpt lat="35.16279458207071" lon="-120.81626844104545"/><trkpt lat="35.162253944189146" lon="-120.81628289837774"/><trkpt lat="35.16224602852665" lon="-120.81584400140868"/><trkpt lat="35.16133110976303" lon="-120.81510004011453"/><trkpt lat="35.161319229515655" lon="-120.81444170268114"/><trkpt lat="35.161757876584375" lon="-120.81377130452195"/><trkpt lat="35.16184005806699" lon="-120.81332999821637"/><trkpt lat="35.16156973962083" lon="-120.81333723639725"/><trkpt lat="35.16102117664586" lon="-120.81291282293981"/><trkpt lat="35.16100928460387" lon="-120.81225448896609"/><trkpt lat="35.16037854190896" lon="-120.81227138568799"/><trkpt lat="35.15972003843538" lon="-120.81075219446096"/><trkpt lat="35.15971210323146" lon="-120.81031331272565"/><trkpt lat="35.160072527204996" lon="-120.81030364912118"/><trkpt lat="35.16007847883589" lon="-120.8106328118564"/><trkpt lat="35.16034879685971" lon="-120.81062556512785"/><trkpt lat="35.16034086107425" lon="-120.81018668005248"/><trkpt lat="35.16016064911257" lon="-120.81019151218213"/><trkpt lat="35.16015668065057" lon="-120.80997207019205"/><trkpt lat="35.15970615078619" lon="-120.80998415153677"/><trkpt lat="35.159686302849494" lon="-120.80888694827091"/><trkpt lat="35.159940734919914" lon="-120.80800193113186"/><trkpt lat="35.160203107184564" lon="-120.80755579217421"/><trkpt lat="35.16038331882684" lon="-120.80755095422366"/><trkpt lat="35.16037735877811" lon="-120.80722179093982"/><trkpt lat="35.160729833738664" lon="-120.80677322729872"/><trkpt lat="35.161440742049834" lon="-120.80620525566428"/><trkpt lat="35.162786363564486" lon="-120.80583977329967"/><trkpt lat="35.16350919716526" lon="-120.80593012943234"/><trkpt lat="35.163515161182985" lon="-120.80625930504897"/><trkpt lat="35.16405380737988" lon="-120.80613505476798"/><trkpt lat="35.164784591770236" lon="-120.80666432206132"/><trkpt lat="35.164882646911146" lon="-120.80710081009295"/><trkpt lat="35.16524505693953" lon="-120.80720085807441"/><trkpt lat="35.1657114793485" lon="-120.80806658499536"/><trkpt lat="35.16601158069463" lon="-120.80970525947806"/><trkpt lat="35.165769041093355" lon="-120.8112487103395"/><trkpt lat="35.16533040996539" lon="-120.81191915541487"/><trkpt lat="35.165248234411955" lon="-120.81236048192554"/><trkpt lat="35.16561064094165" lon="-120.81246055385917"/><trkpt lat="35.16543241114261" lon="-120.8125751101708"/><trkpt lat="35.16543835738643" lon="-120.81290429500153"/><trkpt lat="35.1657086755815" lon="-120.81289705435148"/><trkpt lat="35.16572452802078" lon="-120.81377488393856"/><trkpt lat="35.165910683314536" lon="-120.81409924571565"/><trkpt lat="35.16681372545116" lon="-120.8141848528285"/><trkpt lat="35.16661964498328" lon="-120.81342156760958"/><trkpt lat="35.16708206290726" lon="-120.81406788545588"/><trkpt lat="35.167368225887635" lon="-120.8149384961491"/><trkpt lat="35.167401874664904" lon="-120.81680392528114"/></trkseg><trkseg><trkpt lat="35.167103847443585" lon="-120.8152749225521"/><trkpt lat="35.167089985946994" lon="-120.81450680788646"/><trkpt lat="35.166369136786145" lon="-120.81452610285443"/><trkpt lat="35.16637705802672" lon="-120.81496502158869"/><trkpt lat="35.166827588894904" lon="-120.81495296473125"/><trkpt lat="35.16683352888135" lon="-120.81528215570725"/><trkpt lat="35.167103847443585" lon="-120.8152749225521"/></trkseg><trkseg><trkpt lat="35.16538480902207" lon="-120.8099416349973"/><trkpt lat="35.16526095047272" lon="-120.80807867933315"/><trkpt lat="35.165080738911996" lon="-120.80808351699312"/><trkpt lat="35.16507676615082" lon="-120.80786406209742"/><trkpt lat="35.16471634306428" lon="-120.80787373825532"/><trkpt lat="35.164710383256995" lon="-120.80754455744245"/><trkpt lat="35.16416974870127" lon="-120.80755907353245"/><trkpt lat="35.16407169532176" lon="-120.80712258862674"/><trkpt lat="35.16380137809852" lon="-120.8071298479447"/><trkpt lat="35.163721206493065" lon="-120.80768089557644"/><trkpt lat="35.164359892609575" lon="-120.8081028672036"/><trkpt lat="35.164197552936244" lon="-120.80909524133462"/><trkpt lat="35.164305522725925" lon="-120.81008036234745"/><trkpt lat="35.16493427955619" lon="-120.80995371884809"/><trkpt lat="35.16494816918517" lon="-120.81072181090602"/><trkpt lat="35.16521848700752" lon="-120.81071456316559"/><trkpt lat="35.165204597240184" lon="-120.8099464685698"/><trkpt lat="35.16538480902207" lon="-120.8099416349973"/></trkseg><trkseg><trkpt lat="35.16535815970608" lon="-120.81345534952463"/><trkpt lat="35.165348251318434" lon="-120.81290670853011"/><trkpt lat="35.16507793310551" lon="-120.81291394905159"/><trkpt lat="35.16508784139447" lon="-120.81346258823332"/><trkpt lat="35.16535815970608" lon="-120.81345534952463"/></trkseg><trkseg><trkpt lat="35.16437689804164" lon="-120.81403052560086"/><trkpt lat="35.16427886768002" lon="-120.81359403056203"/><trkpt lat="35.1636441621525" lon="-120.81339146712787"/><trkpt lat="35.16365604878692" lon="-120.81404982283374"/><trkpt lat="35.16437689804164" lon="-120.81403052560086"/></trkseg><trkseg><trkpt lat="35.16394906767676" lon="-120.81030948063419"/><trkpt lat="35.163939145386294" lon="-120.80976085025739"/><trkpt lat="35.16348861586728" lon="-120.80977293445855"/><trkpt lat="35.163498537993036" lon="-120.81032156181429"/><trkpt lat="35.16394906767676" lon="-120.81030948063419"/></trkseg><trkseg><trkpt lat="35.163940230629414" lon="-120.81481067113334"/><trkpt lat="35.163838241880924" lon="-120.81415472481987"/><trkpt lat="35.16356792337505" lon="-120.81416196080728"/><trkpt lat="35.16357386503434" lon="-120.81449113847432"/><trkpt lat="35.1633035464559" lon="-120.81449837327777"/><trkpt lat="35.163401573420025" lon="-120.8149348644265"/><trkpt lat="35.163940230629414" lon="-120.81481067113334"/></trkseg><trkseg><trkpt lat="35.163420335286865" lon="-120.81098233047386"/><trkpt lat="35.16341240019398" lon="-120.8105434287938"/><trkpt lat="35.16305197636156" lon="-120.81055309253526"/><trkpt lat="35.163057927751105" lon="-120.81088226732912"/><trkpt lat="35.163420335286865" lon="-120.81098233047386"/></trkseg><trkseg><trkpt lat="35.16234303019473" lon="-120.81123076338751"/><trkpt lat="35.16233707985677" lon="-120.81090159139724"/><trkpt lat="35.16197665587391" lon="-120.81091125317401"/><trkpt lat="35.16198260613283" lon="-120.8112404237143"/><trkpt lat="35.16234303019473" lon="-120.81123076338751"/></trkseg><trkseg><trkpt lat="35.16129033630215" lon="-120.8078559308319"/><trkpt lat="35.16128437694898" lon="-120.8075267638267"/><trkpt lat="35.160921967094765" lon="-120.80742671828405"/><trkpt lat="35.16092991299201" lon="-120.80786560566959"/><trkpt lat="35.16129033630215" lon="-120.8078559308319"/></trkseg></trk><trk><name>SC-DRIFT-030</name><desc>Principal axis of raised mapped rough habitat within 180 m of target. Optional structure alignment; actual drift depends on measured wind/current. Not a navigation route.</desc><trkseg><trkpt lat="35.16347389038212" lon="-120.80769430596109"/><trkpt lat="35.16215007389875" lon="-120.81177766250028"/></trkseg></trk></gpx>
