<?xml version="1.0" encoding="UTF-8"?>
<gpx version="1.1" creator="SkipperCast" xmlns="http://www.topografix.com/GPX/1/1"><metadata><name>SC26-123-A habitat research</name><desc>WGS84 coordinates. Habitat research; tracks show outlines and structure alignments, not navigation routes. Check current rules and charted hazards.</desc></metadata><wpt lat="35.474487" lon="-121.036926"><name>SC26-123-A</name><cmt>SC26-123</cmt><desc>Point Estero rough reef Mapped rough-rock high; 10.7 m relief across 210 m. Terrain A 76/100; not catch probability. Center 69 ft; nearby 66–99 ft MLLW. Survey-derived habitat candidate; no verified catch at this coordinate. No verified charter identity match in the reviewed AIS sample; no AIS-confirmed hotspot. Survey 2008; screen 2026-09-20. No additional flag from this depth and closure screening. Check current regulations, closures, conditions and sounder depths.</desc><link href="https://doi.org/10.5066/P9ZSTUK1"/><sym>Fishing Area</sym></wpt><trk><name>SC-AREA-097</name><desc>Partial nearby mapped rough-rock/bedrock footprint, clipped within 350 m of retained targets and by depth/closure screening; not the complete reef or an individual pile.</desc><trkseg><trkpt lat="35.47768666536759" lon="-121.03690349052229"/><trkpt lat="35.477354878013536" lon="-121.03867491589192"/><trkpt lat="35.47725939014891" lon="-121.03834660705583"/><trkpt lat="35.47698904725987" lon="-121.03835317681721"/><trkpt lat="35.476722286755965" lon="-121.03858007727963"/><trkpt lat="35.47672765959983" lon="-121.03891057353528"/><trkpt lat="35.47555617315256" lon="-121.03893903313013"/><trkpt lat="35.475284039338405" lon="-121.03883543703206"/><trkpt lat="35.47528045753157" lon="-121.03861511013385"/><trkpt lat="35.475010114510226" lon="-121.03862167851703"/><trkpt lat="35.474820929694715" lon="-121.03807524338467"/><trkpt lat="35.4740063177442" lon="-121.03787463003515"/><trkpt lat="35.474107180033336" lon="-121.0385334106576"/><trkpt lat="35.47437752308088" lon="-121.03852684219763"/><trkpt lat="35.474381104970185" lon="-121.0387471666208"/><trkpt lat="35.47465144804009" lon="-121.03874059881004"/><trkpt lat="35.474928953811855" lon="-121.03917468282144"/><trkpt lat="35.475559754392066" lon="-121.03915936082335"/><trkpt lat="35.47556870573246" lon="-121.0397101802264"/><trkpt lat="35.47628962083021" lon="-121.0396926736999"/><trkpt lat="35.47646626923684" lon="-121.03946796672507"/><trkpt lat="35.476828516941936" lon="-121.03956937777805"/><trkpt lat="35.47603001614985" lon="-121.04036022600793"/><trkpt lat="35.47531446846937" lon="-121.04070821723573"/><trkpt lat="35.47378252259476" lon="-121.04074539726003"/><trkpt lat="35.472508394950715" lon="-121.04000489550947"/><trkpt lat="35.47167767354555" lon="-121.0388128399186"/><trkpt lat="35.471393001926224" lon="-121.03793814171861"/><trkpt lat="35.47136253271882" lon="-121.03606545555586"/><trkpt lat="35.47196821782577" lon="-121.03450788923631"/><trkpt lat="35.47294331742842" lon="-121.03349231734019"/><trkpt lat="35.474377959283274" lon="-121.03301654861863"/><trkpt lat="35.47519078174165" lon="-121.03310695032395"/><trkpt lat="35.47591708180117" lon="-121.03341987694351"/><trkpt lat="35.47692449471986" lon="-121.03438721601563"/><trkpt lat="35.47738942162701" lon="-121.03525757270624"/><trkpt lat="35.47768666536759" lon="-121.03690349052229"/></trkseg><trkseg><trkpt lat="35.47521540731739" lon="-121.04015958698922"/><trkpt lat="35.47521003809137" lon="-121.0398290966751"/><trkpt lat="35.47475946604873" lon="-121.0398400371303"/><trkpt lat="35.47476483518594" lon="-121.04017052560273"/><trkpt lat="35.47521540731739" lon="-121.04015958698922"/></trkseg><trkseg><trkpt lat="35.473409539425" lon="-121.0399830180119"/><trkpt lat="35.47340237992588" lon="-121.039542374179"/><trkpt lat="35.47313203667004" lon="-121.03954893900348"/><trkpt lat="35.4731391960981" lon="-121.03998958136314"/><trkpt lat="35.473409539425" lon="-121.0399830180119"/></trkseg><trkseg><trkpt lat="35.47254836064606" lon="-121.03691823517553"/><trkpt lat="35.472542982893074" lon="-121.03658775641745"/><trkpt lat="35.472002297249034" lon="-121.03660090534227"/><trkpt lat="35.47200767489528" lon="-121.03693138189061"/><trkpt lat="35.47254836064606" lon="-121.03691823517553"/></trkseg></trk></gpx>
