<?xml version="1.0" encoding="UTF-8"?>
<gpx version="1.1" creator="SkipperCast" xmlns="http://www.topografix.com/GPX/1/1"><metadata><name>SC26-105-B habitat research</name></metadata><wpt lat="35.441721" lon="-121.012385"><name>SC26-105-B</name><desc>Point Estero rough reef Mapped rough-rock high; 9.4 m relief across 210 m. Terrain B 67/100; not catch probability. Center 141 ft; nearby 138–172 ft MLLW. Survey-derived habitat candidate; no verified catch at this coordinate. No verified charter identity match in the reviewed AIS sample; no AIS-confirmed hotspot. Survey 2008; screen 2026-09-20. No additional flag from this depth and closure screening. Check current regulations, closures, conditions and sounder depths.</desc><link href="https://doi.org/10.5066/P9ZSTUK1"/><sym>Fishing Area</sym></wpt><trk><name>SC-AREA-084</name><desc>Partial nearby mapped rough-rock/bedrock footprint, clipped within 350 m of retained targets and by depth/closure screening; not the complete reef or an individual pile.</desc><trkseg><trkpt lat="35.444845482427276" lon="-121.01324488850628"/><trkpt lat="35.44467250601682" lon="-121.01368979925046"/><trkpt lat="35.44440216568775" lon="-121.01369644356727"/><trkpt lat="35.4444076023952" lon="-121.01402680269452"/><trkpt lat="35.444589641365795" lon="-121.01413249386924"/><trkpt lat="35.44424005752011" lon="-121.01480206804568"/><trkpt lat="35.44326510652134" lon="-121.0158174802721"/><trkpt lat="35.44254962845842" lon="-121.01616553032785"/><trkpt lat="35.44128803780381" lon="-121.01619649532738"/><trkpt lat="35.44128260744576" lon="-121.01586614851101"/><trkpt lat="35.44146283466381" lon="-121.01586172432202"/><trkpt lat="35.44127174402029" lon="-121.01520545514337"/><trkpt lat="35.44171868987013" lon="-121.01497415865047"/><trkpt lat="35.44170963310272" lon="-121.0144235781482"/><trkpt lat="35.441979973671856" lon="-121.01441693692236"/><trkpt lat="35.44232774376066" lon="-121.0136372635204"/><trkpt lat="35.443324428667424" lon="-121.01394325641617"/><trkpt lat="35.443311741412984" lon="-121.0131724289562"/><trkpt lat="35.44250072045785" lon="-121.01319236583025"/><trkpt lat="35.442403355183565" lon="-121.01275411327451"/><trkpt lat="35.44186086144417" lon="-121.01265729079557"/><trkpt lat="35.44187173896941" lon="-121.0133179879551"/><trkpt lat="35.44106253026454" lon="-121.01344803743477"/><trkpt lat="35.44106796720949" lon="-121.01377838286734"/><trkpt lat="35.440709325289845" lon="-121.01389735503766"/><trkpt lat="35.44043536050402" lon="-121.01368376908732"/><trkpt lat="35.440429923383995" lon="-121.01335342625812"/><trkpt lat="35.44070026383489" lon="-121.013346781768"/><trkpt lat="35.44069482575779" lon="-121.01301643792418"/><trkpt lat="35.44051459882798" lon="-121.01302086832948"/><trkpt lat="35.440682133399164" lon="-121.01224563596611"/><trkpt lat="35.44040635209486" lon="-121.01192194168745"/><trkpt lat="35.44004589845178" lon="-121.01193080724323"/><trkpt lat="35.44005315286628" lon="-121.01237126189618"/><trkpt lat="35.43978643911575" lon="-121.01259813613912"/><trkpt lat="35.43979187821698" lon="-121.01292847618805"/><trkpt lat="35.440064031477775" lon="-121.01303194417066"/><trkpt lat="35.44016320773093" lon="-121.01358029846733"/><trkpt lat="35.43962433891012" lon="-121.01370369871762"/><trkpt lat="35.43963339850014" lon="-121.01425426478093"/><trkpt lat="35.43945317140316" lon="-121.01425869225396"/><trkpt lat="35.43945860591711" lon="-121.0145890312745"/><trkpt lat="35.43972894661434" lon="-121.01458239115324"/><trkpt lat="35.43972351204643" lon="-121.01425205102969"/><trkpt lat="35.44062283564527" lon="-121.0141197983962"/><trkpt lat="35.44062827069406" lon="-121.01445014216719"/><trkpt lat="35.44116895192482" lon="-121.01443686033456"/><trkpt lat="35.441176197395585" lon="-121.01487732177505"/><trkpt lat="35.44109151686826" lon="-121.0152098807639"/><trkpt lat="35.440370608201476" lon="-121.01522758285317"/><trkpt lat="35.44027687279876" lon="-121.01500956722263"/><trkpt lat="35.440006532056046" lon="-121.01501620604996"/><trkpt lat="35.43965151015464" lon="-121.0153553976444"/><trkpt lat="35.43891249007699" lon="-121.01427197443722"/><trkpt lat="35.43889618144061" lon="-121.01328096452433"/><trkpt lat="35.43925482285166" lon="-121.01316199270914"/><trkpt lat="35.439249384460446" lon="-121.01283165480726"/><trkpt lat="35.43879881706746" lon="-121.01284273118576"/><trkpt lat="35.43880425536868" lon="-121.0131730672493"/><trkpt lat="35.438624028365204" lon="-121.01317749699652"/><trkpt lat="35.43852122421304" lon="-121.0124089304184"/><trkpt lat="35.43876798296992" lon="-121.01097082849759"/><trkpt lat="35.43797691668007" lon="-121.01220200280376"/><trkpt lat="35.437265074791" lon="-121.01277027911577"/><trkpt lat="35.436367565216514" lon="-121.01301264808461"/><trkpt lat="35.43636393970532" lon="-121.01279243068926"/><trkpt lat="35.43599985976544" lon="-121.01258107466768"/><trkpt lat="35.43599623349962" lon="-121.0123608583313"/><trkpt lat="35.435540225931206" lon="-121.01204161341066"/><trkpt lat="35.43553478496713" lon="-121.01171129090643"/><trkpt lat="35.43535274418264" lon="-121.01160561614017"/><trkpt lat="35.4356212706125" lon="-121.01148885945774"/><trkpt lat="35.43561582812553" lon="-121.01115853673343"/><trkpt lat="35.435435601247335" lon="-121.01116297044888"/><trkpt lat="35.43542652848929" lon="-121.0106124339972"/><trkpt lat="35.43479573457956" lon="-121.0106279559799"/><trkpt lat="35.43480117840925" lon="-121.0109582752482"/><trkpt lat="35.43462095152865" lon="-121.01096270927667"/><trkpt lat="35.43452176462514" lon="-121.01041439604937"/><trkpt lat="35.43389460029799" lon="-121.01065012940428"/><trkpt lat="35.434067567514155" lon="-121.01020527316568"/><trkpt lat="35.43323475884057" lon="-121.00890398227436"/><trkpt lat="35.43367987623883" lon="-121.00856257193179"/><trkpt lat="35.433578861578134" lon="-121.00790416393716"/><trkpt lat="35.43321477387477" lon="-121.00769283702725"/><trkpt lat="35.433297616863705" lon="-121.00725019984203"/><trkpt lat="35.433658069883855" lon="-121.00724131563396"/><trkpt lat="35.43365079788872" lon="-121.00680089718344"/><trkpt lat="35.433468753192166" lon="-121.0066952359444"/><trkpt lat="35.434355335374995" lon="-121.00579217461488"/><trkpt lat="35.43507078257764" lon="-121.00544407300247"/><trkpt lat="35.435431235095066" lon="-121.00543518016372"/><trkpt lat="35.43543851238708" lon="-121.00587560794293"/><trkpt lat="35.43579896497734" lon="-121.00586671690681"/><trkpt lat="35.43589453512714" lon="-121.00619481689913"/><trkpt lat="35.436164874604174" lon="-121.00618814959167"/><trkpt lat="35.436157598323405" lon="-121.00574771777298"/><trkpt lat="35.43579714578074" lon="-121.0057566094571"/><trkpt lat="35.43579168758898" lon="-121.00542628716708"/><trkpt lat="35.43660270561438" lon="-121.00540627734735"/><trkpt lat="35.437329068924775" lon="-121.00571881870935"/><trkpt lat="35.43778873011653" lon="-121.00625825406759"/><trkpt lat="35.43661907796849" lon="-121.0063972544092"/><trkpt lat="35.43652532721966" lon="-121.0061792597103"/><trkpt lat="35.43625498776026" lon="-121.00618592713613"/><trkpt lat="35.43626044393546" lon="-121.00651625147134"/><trkpt lat="35.43580987805011" lon="-121.00652736181239"/><trkpt lat="35.43581533323212" lon="-121.00685768439834"/><trkpt lat="35.4359090827286" lon="-121.00707567806911"/><trkpt lat="35.43716884933241" lon="-121.00693446753611"/><trkpt lat="35.43816373065275" lon="-121.00713024972335"/><trkpt lat="35.43806270710965" lon="-121.0064718076413"/><trkpt lat="35.43833668376045" lon="-121.00668536263629"/><trkpt lat="35.438522365182415" lon="-121.00701125214124"/><trkpt lat="35.438343957007135" lon="-121.0071258065742"/><trkpt lat="35.43835304630796" lon="-121.00767636171845"/><trkpt lat="35.43880724739673" lon="-121.00788548008904"/><trkpt lat="35.438733487016385" lon="-121.00887870532985"/><trkpt lat="35.43900564330555" lon="-121.00898215832112"/><trkpt lat="35.43902380276262" lon="-121.01008327910981"/><trkpt lat="35.43885265200997" lon="-121.01063827531719"/><trkpt lat="35.439643701298465" lon="-121.00940707271832"/><trkpt lat="35.44035552556771" lon="-121.00883874979907"/><trkpt lat="35.440982684648496" lon="-121.00860298126251"/><trkpt lat="35.44108006460908" lon="-121.00904122045773"/><trkpt lat="35.44225335311704" lon="-121.00912248031891"/><trkpt lat="35.44288414566882" lon="-121.00910694232043"/><trkpt lat="35.44296880889946" lon="-121.00877437028457"/><trkpt lat="35.44369879747608" lon="-121.0093072010499"/><trkpt lat="35.444623534518705" lon="-121.01071656115876"/><trkpt lat="35.4448146500231" lon="-121.01137284537234"/><trkpt lat="35.444845482427276" lon="-121.01324488850628"/></trkseg><trkseg><trkpt lat="35.44159233431226" lon="-121.01277405367634"/><trkpt lat="35.441586894549985" lon="-121.01244370630297"/><trkpt lat="35.44122644086323" lon="-121.01245256991895"/><trkpt lat="35.44123188055351" lon="-121.01278291582148"/><trkpt lat="35.44159233431226" lon="-121.01277405367634"/></trkseg><trkseg><trkpt lat="35.44020616722614" lon="-121.01071512230475"/><trkpt lat="35.44020072201437" lon="-121.01038478100774"/><trkpt lat="35.43975015536251" lon="-121.01039587140876"/><trkpt lat="35.43975560048417" lon="-121.01072621086736"/><trkpt lat="35.44020616722614" lon="-121.01071512230475"/></trkseg><trkseg><trkpt lat="35.438676054921494" lon="-121.01086293411551"/><trkpt lat="35.43848675338485" lon="-121.01031681180484"/><trkpt lat="35.438036186623506" lon="-121.01032790188336"/><trkpt lat="35.438041631703804" lon="-121.01065823432684"/><trkpt lat="35.438676054921494" lon="-121.01086293411551"/></trkseg><trkseg><trkpt lat="35.43527101739744" lon="-121.00665080067976"/><trkpt lat="35.43526374296262" lon="-121.0062103736046"/><trkpt lat="35.43463295072614" lon="-121.00622592982673"/><trkpt lat="35.43462931299107" lon="-121.00600571806373"/><trkpt lat="35.43426886030035" lon="-121.00601460809673"/><trkpt lat="35.43427431668023" lon="-121.0063449242857"/><trkpt lat="35.43409409028995" lon="-121.00634936850787"/><trkpt lat="35.43409954573085" lon="-121.00667968405047"/><trkpt lat="35.43527101739744" lon="-121.00665080067976"/></trkseg></trk></gpx>
