<?xml version="1.0" encoding="UTF-8"?>
<gpx version="1.1" creator="SkipperCast" xmlns="http://www.topografix.com/GPX/1/1"><metadata><name>SC26-036-B habitat research</name></metadata><wpt lat="35.170898" lon="-120.803261"><name>SC26-036-B</name><desc>Avila rough reef Mapped rough-rock high; 10.2 m relief across 210 m. Terrain B 72/100; not catch probability. Center 40 ft; nearby 37–75 ft MLLW. Survey-derived habitat candidate; no verified catch at this coordinate. No verified charter identity match in the reviewed AIS sample; no AIS-confirmed hotspot. Survey 2008; screen 2026-09-20. Parts of the investigation circle are shallower than 40 ft. Check current regulations, closures, conditions and sounder depths.</desc><link href="https://doi.org/10.5066/P9KBGELE"/><sym>Fishing Area</sym></wpt><trk><name>SC-AREA-017</name><desc>Partial nearby mapped rough-rock/bedrock footprint, clipped within 350 m of retained targets and by depth/closure screening; not the complete reef or an individual pile.</desc><trkseg><trkpt lat="35.174023696259" lon="-120.80411044302294"/><trkpt lat="35.173769299232106" lon="-120.80499562587448"/><trkpt lat="35.1735009722617" lon="-120.80511263338556"/><trkpt lat="35.17321672783964" lon="-120.80435173482738"/><trkpt lat="35.171955251601275" lon="-120.80438566508437"/><trkpt lat="35.17196122105592" lon="-120.80471487439785"/><trkpt lat="35.17160079914067" lon="-120.8047245669191"/><trkpt lat="35.1715968196564" lon="-120.8045050949998"/><trkpt lat="35.17132650324397" lon="-120.80451236500312"/><trkpt lat="35.17123042787821" lon="-120.80418558196841"/><trkpt lat="35.1705075940831" lon="-120.80409523652526"/><trkpt lat="35.170345290453874" lon="-120.80508769227096"/><trkpt lat="35.16998685752853" lon="-120.80520711639954"/><trkpt lat="35.169996801920725" lon="-120.80575578572159"/><trkpt lat="35.17053743530206" lon="-120.80574125456411"/><trkpt lat="35.17054737740967" lon="-120.80628992778124"/><trkpt lat="35.17108801093548" lon="-120.80627539986332"/><trkpt lat="35.17127418633012" lon="-120.8065997640985"/><trkpt lat="35.1716346087182" lon="-120.80659007996962"/><trkpt lat="35.171438490818545" lon="-120.80571703510842"/><trkpt lat="35.17062754086041" lon="-120.8057388326669"/><trkpt lat="35.170697754621905" lon="-120.80463906271325"/><trkpt lat="35.17123838753554" lon="-120.8046245237868"/><trkpt lat="35.171248334872736" lon="-120.80517320130177"/><trkpt lat="35.17142854589808" lon="-120.80516835611579"/><trkpt lat="35.1714345131483" lon="-120.8054975634791"/><trkpt lat="35.1719751463075" lon="-120.80548302983907"/><trkpt lat="35.172055305684104" lon="-120.80493192441187"/><trkpt lat="35.17268803353436" lon="-120.80502470115083"/><trkpt lat="35.17278410686269" lon="-120.80535149104143"/><trkpt lat="35.17260588492553" lon="-120.80546607343652"/><trkpt lat="35.1725257232401" lon="-120.80601718221929"/><trkpt lat="35.172802005035656" lon="-120.80633912993542"/><trkpt lat="35.17173266536151" lon="-120.80702660409266"/><trkpt lat="35.17092171473068" lon="-120.80704838888566"/><trkpt lat="35.170917739523084" lon="-120.80682891844907"/><trkpt lat="35.1702008696243" lon="-120.8070677524156"/><trkpt lat="35.169656260709175" lon="-120.80686280755994"/><trkpt lat="35.16947406177905" lon="-120.80675791542151"/><trkpt lat="35.16946809824171" lon="-120.80642871568166"/><trkpt lat="35.169828520696036" lon="-120.80641903144533"/><trkpt lat="35.16982056781704" lon="-120.8059800966753"/><trkpt lat="35.169007629090345" lon="-120.80589215773898"/><trkpt lat="35.169105687745564" lon="-120.80632866700442"/><trkpt lat="35.16892547651077" lon="-120.80633350921393"/><trkpt lat="35.168278829898604" lon="-120.80547260376515"/><trkpt lat="35.16845108499088" lon="-120.80502883264151"/><trkpt lat="35.16871941234298" lon="-120.8049118330026"/><trkpt lat="35.168801559728855" lon="-120.80447048150383"/><trkpt lat="35.168601446517144" lon="-120.80337800880471"/><trkpt lat="35.169051973723626" lon="-120.803365887044"/><trkpt lat="35.169055955022614" lon="-120.80358535195738"/><trkpt lat="35.1695025008929" lon="-120.80335376501425"/><trkpt lat="35.1694965281005" lon="-120.80302456591178"/><trkpt lat="35.1692262118629" lon="-120.80303184024977"/><trkpt lat="35.169126149939544" lon="-120.80248560246947"/><trkpt lat="35.16839933188869" lon="-120.80217581048646"/><trkpt lat="35.16847349967417" lon="-120.80129553237373"/><trkpt lat="35.16874182296475" lon="-120.80117852061893"/><trkpt lat="35.168735844372975" lon="-120.80084932506331"/><trkpt lat="35.169186370804034" lon="-120.80083718929482"/><trkpt lat="35.1692605284875" lon="-120.7999569019661"/><trkpt lat="35.169526856232636" lon="-120.79973015178929"/><trkpt lat="35.1707823461102" lon="-120.79936694920286"/><trkpt lat="35.17186759691098" lon="-120.79955727294902"/><trkpt lat="35.17188354842829" lon="-120.80043516087724"/><trkpt lat="35.17224596280746" lon="-120.80053518584818"/><trkpt lat="35.172618342858705" lon="-120.80118389687333"/><trkpt lat="35.17272638024913" lon="-120.80216910497577"/><trkpt lat="35.172546169625335" lon="-120.8021739570126"/><trkpt lat="35.1725521451776" lon="-120.80250316821918"/><trkpt lat="35.173002671825145" lon="-120.80249103985977"/><trkpt lat="35.1730066550962" lon="-120.80271051526026"/><trkpt lat="35.173457181772655" lon="-120.8026983878407"/><trkpt lat="35.173453198435475" lon="-120.80247891123125"/><trkpt lat="35.1737235143838" lon="-120.80247163392495"/><trkpt lat="35.17372948930011" lon="-120.80280084994334"/><trkpt lat="35.17327896261293" lon="-120.80281297691988"/><trkpt lat="35.17320478569385" lon="-120.8036933063358"/><trkpt lat="35.174017724858714" lon="-120.803781225529"/><trkpt lat="35.174023696259" lon="-120.80411044302294"/></trkseg><trkseg><trkpt lat="35.172189732107746" lon="-120.80240313411684"/><trkpt lat="35.17218375633691" lon="-120.80207392439328"/><trkpt lat="35.17182134297826" lon="-120.80197389257955"/><trkpt lat="35.17182931076553" lon="-120.80241283692189"/><trkpt lat="35.172189732107746" lon="-120.80240313411684"/></trkseg><trkseg><trkpt lat="35.171855195100214" lon="-120.80383940722388"/><trkpt lat="35.1718452415731" lon="-120.80329072612325"/><trkpt lat="35.171482829018586" lon="-120.80319068918337"/><trkpt lat="35.171312572059456" lon="-120.80374421616298"/><trkpt lat="35.171855195100214" lon="-120.80383940722388"/></trkseg><trkseg><trkpt lat="35.17137679228947" lon="-120.80231522968866"/><trkpt lat="35.17135686917957" lon="-120.80121787530788"/><trkpt lat="35.17081623751345" lon="-120.80123243684784"/><trkpt lat="35.17062207523088" lon="-120.80046914995208"/><trkpt lat="35.170351759507746" lon="-120.8004764330505"/><trkpt lat="35.17045581637292" lon="-120.80124214432573"/><trkpt lat="35.17072812494213" lon="-120.8013445982769"/><trkpt lat="35.17073211006735" lon="-120.80156406739607"/><trkpt lat="35.171092531269394" lon="-120.80155436123954"/><trkpt lat="35.17101637092009" lon="-120.8023249325897"/><trkpt lat="35.17137679228947" lon="-120.80231522968866"/></trkseg><trkseg><trkpt lat="35.17121649465445" lon="-120.80341743420036"/><trkpt lat="35.17102831986048" lon="-120.80298334283373"/><trkpt lat="35.17067188044138" lon="-120.8032125118617"/><trkpt lat="35.17086005437347" lon="-120.80364660194992"/><trkpt lat="35.17121649465445" lon="-120.80341743420036"/></trkseg><trkseg><trkpt lat="35.17036770376918" lon="-120.80135430522819"/><trkpt lat="35.17018151486022" lon="-120.80102995721705"/><trkpt lat="35.16991518461745" lon="-120.80125670521943"/><trkpt lat="35.170101372906444" lon="-120.80158105275544"/><trkpt lat="35.17036770376918" lon="-120.80135430522819"/></trkseg><trkseg><trkpt lat="35.17026364763736" lon="-120.80058859459206"/><trkpt lat="35.17007346933658" lon="-120.80004478167218"/><trkpt lat="35.16971703580254" lon="-120.80027396032528"/><trkpt lat="35.169907213016295" lon="-120.80081777150505"/><trkpt lat="35.17026364763736" lon="-120.80058859459206"/></trkseg><trkseg><trkpt lat="35.17013722032496" lon="-120.8035562615351"/><trkpt lat="35.17013124798958" lon="-120.80322705982967"/><trkpt lat="35.16976883537465" lon="-120.80312702486297"/><trkpt lat="35.16977480792861" lon="-120.80345622508561"/><trkpt lat="35.17013722032496" lon="-120.8035562615351"/></trkseg><trkseg><trkpt lat="35.169656823023175" lon="-120.80192238423982"/><trkpt lat="35.169648853884695" lon="-120.80148345171744"/><trkpt lat="35.16928843261381" lon="-120.80149315766828"/><trkpt lat="35.16929640164646" lon="-120.80193208825665"/><trkpt lat="35.169656823023175" lon="-120.80192238423982"/></trkseg><trkseg><trkpt lat="35.16952837266573" lon="-120.80478029557723"/><trkpt lat="35.16951842396994" lon="-120.80423162976095"/><trkpt lat="35.16906789653635" lon="-120.80424374695573"/><trkpt lat="35.16907784506697" lon="-120.80479240975015"/><trkpt lat="35.16952837266573" lon="-120.80478029557723"/></trkseg></trk></gpx>
