<?xml version="1.0" encoding="UTF-8"?>
<gpx version="1.1" creator="SkipperCast" xmlns="http://www.topografix.com/GPX/1/1"><metadata><name>SC26-043-B habitat research</name><desc>WGS84 coordinates. Habitat research; tracks show outlines and structure alignments, not navigation routes. Check current rules and charted hazards.</desc></metadata><wpt lat="35.179244" lon="-120.836196"><name>SC26-043-B</name><cmt>SC26-043</cmt><desc>Avila rough reef Mapped rough-rock high; 8.2 m relief across 210 m. Terrain B 71/100; not catch probability. Center 73 ft; nearby 66–98 ft MLLW. Survey-derived habitat candidate; no verified catch at this coordinate. No verified charter identity match in the reviewed AIS sample; no AIS-confirmed hotspot. Survey 2008; screen 2026-09-20. No additional flag from this depth and closure screening. Check current regulations, closures, conditions and sounder depths.</desc><link href="https://doi.org/10.5066/P9KBGELE"/><sym>Fishing Area</sym></wpt><trk><name>SC-AREA-024</name><desc>Partial mapped habitat footprint clipped to a 225-m search window to retain complete depth coverage; not the entire reef or a single pile.</desc><trkseg><trkpt lat="35.17960738906098" lon="-120.83382597719071"/><trkpt lat="35.17939877475173" lon="-120.83373327619674"/><trkpt lat="35.1788051619474" lon="-120.83378460656881"/><trkpt lat="35.178080917646874" lon="-120.83417271037615"/><trkpt lat="35.17753374154262" lon="-120.8348688289804"/><trkpt lat="35.17737880908658" lon="-120.83523310616707"/><trkpt lat="35.17738611417668" lon="-120.83564170138015"/><trkpt lat="35.177269754945776" lon="-120.8356447870456"/><trkpt lat="35.177246932127" lon="-120.83576698552585"/><trkpt lat="35.177264151014754" lon="-120.83673045163233"/><trkpt lat="35.17758277733323" lon="-120.83761255847615"/><trkpt lat="35.17815430640606" lon="-120.83827901983949"/><trkpt lat="35.17889173222226" lon="-120.8386283721316"/><trkpt lat="35.1796827909057" lon="-120.83860742182127"/><trkpt lat="35.18040705039641" lon="-120.83821934824493"/><trkpt lat="35.18095424545971" lon="-120.83752322553224"/><trkpt lat="35.18124106649732" lon="-120.83662503294563"/><trkpt lat="35.181223845086464" lon="-120.83566151997762"/><trkpt lat="35.18090520357782" lon="-120.83477938290281"/><trkpt lat="35.180333655545944" lon="-120.83411292564791"/><trkpt lat="35.17979894867322" lon="-120.83382089260412"/><trkpt lat="35.17960738906098" lon="-120.83382597719071"/></trkseg><trkseg><trkpt lat="35.17768977444474" lon="-120.83750022259404"/><trkpt lat="35.177681932670176" lon="-120.83706123648457"/><trkpt lat="35.17804236198667" lon="-120.83705168451804"/><trkpt lat="35.178050203865375" lon="-120.83749067256247"/><trkpt lat="35.17768977444474" lon="-120.83750022259404"/></trkseg></trk></gpx>
