<?xml version="1.0" encoding="UTF-8"?>
<gpx version="1.1" creator="SkipperCast" xmlns="http://www.topografix.com/GPX/1/1"><metadata><name>SC26-097-B habitat research</name><desc>WGS84 coordinates. Habitat research; tracks show outlines and structure alignments, not navigation routes. Check current rules and charted hazards.</desc></metadata><wpt lat="35.432907" lon="-120.938362"><name>SC26-097-B</name><cmt>SC26-097</cmt><desc>Morro Bay rough reef Mapped rough-rock high; 4.7 m relief across 210 m. Terrain B 59/100; not catch probability. Center 46 ft; nearby 42–60 ft MLLW. Survey-derived habitat candidate; no verified catch at this coordinate. No verified charter identity match in the reviewed AIS sample; no AIS-confirmed hotspot. Survey 2008; screen 2026-09-20. No additional flag from this depth and closure screening. Check current regulations, closures, conditions and sounder depths.</desc><link href="https://doi.org/10.5066/P9HEZNRO"/><sym>Fishing Area</sym></wpt><trk><name>SC-AREA-077</name><desc>Partial nearby mapped rough-rock/bedrock footprint, clipped within 350 m of retained targets and by depth/closure screening; not the complete reef or an individual pile.</desc><trkseg><trkpt lat="35.43602038187051" lon="-120.93855845861772"/><trkpt lat="35.43565806377228" lon="-120.93845754703537"/><trkpt lat="35.435481605996344" lon="-120.93868234761734"/><trkpt lat="35.43584768438165" lon="-120.93900346593351"/><trkpt lat="35.43594719316291" lon="-120.93955168418005"/><trkpt lat="35.43542720587936" lon="-120.94077659105344"/><trkpt lat="35.434986049281825" lon="-120.94133857688662"/><trkpt lat="35.433737657948" lon="-120.94214140225745"/><trkpt lat="35.43256623276981" lon="-120.94217121828217"/><trkpt lat="35.4324686140313" lon="-120.94173311747802"/><trkpt lat="35.43201806593625" lon="-120.94174458712074"/><trkpt lat="35.432012433152" lon="-120.9414142933601"/><trkpt lat="35.43228276195753" lon="-120.94140741050259"/><trkpt lat="35.43227525009978" lon="-120.94096701749439"/><trkpt lat="35.43173459262459" lon="-120.94098078605757"/><trkpt lat="35.43172144327316" lon="-120.94021010383"/><trkpt lat="35.431528070011126" lon="-120.93944401497092"/><trkpt lat="35.43134785100909" lon="-120.93944860779943"/><trkpt lat="35.43134033217873" lon="-120.93900822042443"/><trkpt lat="35.43061757640209" lon="-120.93891649941186"/><trkpt lat="35.43062885434903" lon="-120.93957707459509"/><trkpt lat="35.430358525780825" lon="-120.93958396314935"/><trkpt lat="35.430364163344386" lon="-120.93991424977624"/><trkpt lat="35.43090482057946" lon="-120.93990047478069"/><trkpt lat="35.43109443382819" lon="-120.94044636584859"/><trkpt lat="35.43028344770241" lon="-120.94046702287599"/><trkpt lat="35.4300994713119" lon="-120.9402514227527"/><trkpt lat="35.429814109802" lon="-120.93937755041881"/><trkpt lat="35.42981035059832" lon="-120.93915736089569"/><trkpt lat="35.42999056961324" lon="-120.93915276767888"/><trkpt lat="35.42998304995263" lon="-120.93871238777514"/><trkpt lat="35.429802830987505" lon="-120.93871698197181"/><trkpt lat="35.429782143783925" lon="-120.93750594077234"/><trkpt lat="35.43003741901368" lon="-120.93661828602008"/><trkpt lat="35.4302176377334" lon="-120.93661368710802"/><trkpt lat="35.430211991162366" lon="-120.93628340176646"/><trkpt lat="35.430827694219595" lon="-120.93538653536014"/><trkpt lat="35.43092533546782" lon="-120.93582461853859"/><trkpt lat="35.43128388980095" lon="-120.93570532031346"/><trkpt lat="35.43127824059862" lon="-120.93537503080755"/><trkpt lat="35.431006029526316" lon="-120.93527183745566"/><trkpt lat="35.43136081617119" lon="-120.93493234351158"/><trkpt lat="35.43279502821079" lon="-120.93445512519408"/><trkpt lat="35.43360789505726" lon="-120.93454450556854"/><trkpt lat="35.434334420474855" lon="-120.93485639055476"/><trkpt lat="35.43451840635213" lon="-120.93507198871937"/><trkpt lat="35.4344320642176" lon="-120.93529449179051"/><trkpt lat="35.43461416605378" lon="-120.93539999020713"/><trkpt lat="35.43381259818751" lon="-120.93597120027738"/><trkpt lat="35.433996582126305" lon="-120.93618679974881"/><trkpt lat="35.43391212018516" lon="-120.93651940041401"/><trkpt lat="35.43409610319272" lon="-120.93673500143713"/><trkpt lat="35.4345428852336" lon="-120.93650330097093"/><trkpt lat="35.43464240499214" lon="-120.93705150679376"/><trkpt lat="35.43464993156407" lon="-120.93749191160472"/><trkpt lat="35.43437395880886" lon="-120.93716850562927"/><trkpt lat="35.43401728468467" lon="-120.93739790304097"/><trkpt lat="35.43438900939596" lon="-120.93804931255596"/><trkpt lat="35.43394598525124" lon="-120.93850120479"/><trkpt lat="35.433951626269355" lon="-120.93883150584068"/><trkpt lat="35.43431582419871" lon="-120.93904251824186"/><trkpt lat="35.43458051195035" lon="-120.93870532318772"/><trkpt lat="35.434856480782614" lon="-120.93902873541069"/><trkpt lat="35.435216918475675" lon="-120.93901954665264"/><trkpt lat="35.43539337693701" lon="-120.9387947475408"/><trkpt lat="35.43529762623322" lon="-120.93846673844757"/><trkpt lat="35.4358307592484" lon="-120.9380125397193"/><trkpt lat="35.43601097795335" lon="-120.9380079429311"/><trkpt lat="35.43602038187051" lon="-120.93855845861772"/></trkseg><trkseg><trkpt lat="35.43391776661968" lon="-120.93684970091374"/><trkpt lat="35.43373190158659" lon="-120.936524000163"/><trkpt lat="35.43337522868696" lon="-120.93675339839149"/><trkpt lat="35.433561093080215" lon="-120.9370790983051"/><trkpt lat="35.43391776661968" lon="-120.93684970091374"/></trkseg><trkseg><trkpt lat="35.43121824987461" lon="-120.93713887487193"/><trkpt lat="35.43111496683833" lon="-120.93637049924789"/><trkpt lat="35.430844638838245" lon="-120.93637739864172"/><trkpt lat="35.430855930737536" lon="-120.93703797462216"/><trkpt lat="35.43121824987461" lon="-120.93713887487193"/></trkseg></trk></gpx>
