<?xml version="1.0" encoding="UTF-8"?>
<gpx version="1.1" creator="SkipperCast" xmlns="http://www.topografix.com/GPX/1/1"><metadata><name>SC26-031-A habitat research</name></metadata><wpt lat="35.163172" lon="-120.834756"><name>SC26-031-A</name><desc>Avila rough reef Mapped rough-rock high; 14.0 m relief across 210 m. Terrain A 86/100; not catch probability. Center 109 ft; nearby 97–142 ft MLLW. Survey-derived habitat candidate; no verified catch at this coordinate. No verified charter identity match in the reviewed AIS sample; no AIS-confirmed hotspot. Survey 2008; screen 2026-09-20. No additional flag from this depth and closure screening. Check current regulations, closures, conditions and sounder depths.</desc><link href="https://doi.org/10.5066/P9KBGELE"/><sym>Fishing Area</sym></wpt><trk><name>SC-AREA-011</name><desc>Partial nearby mapped rough-rock/bedrock footprint, clipped within 350 m of retained targets and by depth/closure screening; not the complete reef or an individual pile.</desc><trkseg><trkpt lat="35.166371440072055" lon="-120.8347260996095"/><trkpt lat="35.166128578944196" lon="-120.83626950011374"/><trkpt lat="35.165252985492586" lon="-120.83771986502109"/><trkpt lat="35.16400519261078" lon="-120.83852136741754"/><trkpt lat="35.16247336280928" lon="-120.83856191346304"/><trkpt lat="35.1611981439493" lon="-120.837827230856"/><trkpt lat="35.16055171450914" lon="-120.8369661420589"/><trkpt lat="35.16091018484564" lon="-120.83684687176381"/><trkpt lat="35.160906264591965" lon="-120.83662742386875"/><trkpt lat="35.16117658725363" lon="-120.83662026292124"/><trkpt lat="35.16118246754382" lon="-120.83694943586727"/><trkpt lat="35.161452790250706" lon="-120.83694227591195"/><trkpt lat="35.16144887011748" lon="-120.83672282654568"/><trkpt lat="35.16198951541308" lon="-120.83670850489898"/><trkpt lat="35.1619934356244" lon="-120.83692795571537"/><trkpt lat="35.16226375829122" lon="-120.83692079547403"/><trkpt lat="35.1623322994806" lon="-120.83571142442322"/><trkpt lat="35.161791654572184" lon="-120.83572575284957"/><trkpt lat="35.16180145875851" lon="-120.83627437828473"/><trkpt lat="35.161531136186596" lon="-120.83628154054226"/><trkpt lat="35.161348960525075" lon="-120.83617659082358"/><trkpt lat="35.16134111710768" lon="-120.83573769291341"/><trkpt lat="35.16107079461116" lon="-120.83574485682452"/><trkpt lat="35.16097284220768" lon="-120.83530834896645"/><trkpt lat="35.160518381825234" lon="-120.83510084433831"/><trkpt lat="35.160457686936766" lon="-120.83674908190741"/><trkpt lat="35.16007961200966" lon="-120.83577112368252"/><trkpt lat="35.160071767368464" lon="-120.83533223270855"/><trkpt lat="35.16043219732195" lon="-120.83532267933892"/><trkpt lat="35.160426312720496" lon="-120.83499350976977"/><trkpt lat="35.16006588284515" lon="-120.83500306458936"/><trkpt lat="35.16004626131459" lon="-120.83390583821463"/><trkpt lat="35.16064952566477" lon="-120.83235298172706"/><trkpt lat="35.161623024498724" lon="-120.83133915178031"/><trkpt lat="35.161720991160614" lon="-120.83177565754242"/><trkpt lat="35.16236352835064" lon="-120.83241726389437"/><trkpt lat="35.16238120131583" lon="-120.83340479461809"/><trkpt lat="35.16265152333507" lon="-120.8333976226169"/><trkpt lat="35.16264170591613" lon="-120.83284899251831"/><trkpt lat="35.162910064023016" lon="-120.83273209225854"/><trkpt lat="35.162886490664256" lon="-120.83141537688155"/><trkpt lat="35.16206963026562" lon="-120.83110773711893"/><trkpt lat="35.16305687857493" lon="-120.83086195891605"/><trkpt lat="35.163869808696305" lon="-120.83095014434572"/><trkpt lat="35.16459656227811" lon="-120.83126018154574"/><trkpt lat="35.16551335348213" lon="-120.83211408692225"/><trkpt lat="35.166071673923724" lon="-120.83308730774644"/><trkpt lat="35.166371440072055" lon="-120.8347260996095"/></trkseg><trkseg><trkpt lat="35.16334112841831" lon="-120.83667269911369"/><trkpt lat="35.163333286413675" lon="-120.83623379035744"/><trkpt lat="35.1626124263941" lon="-120.83625289094"/><trkpt lat="35.16262222839128" lon="-120.83680152207793"/><trkpt lat="35.16334112841831" lon="-120.83667269911369"/></trkseg><trkseg><trkpt lat="35.16173095209741" lon="-120.83737401617107"/><trkpt lat="35.161725072881445" lon="-120.83704484092286"/><trkpt lat="35.16136464259441" lon="-120.83705438715253"/><trkpt lat="35.16137052173227" lon="-120.83738356095066"/><trkpt lat="35.16173095209741" lon="-120.83737401617107"/></trkseg></trk></gpx>
