<?xml version="1.0" encoding="UTF-8"?>
<gpx version="1.1" creator="SkipperCast" xmlns="http://www.topografix.com/GPX/1/1"><metadata><name>SC26-033-B habitat research</name></metadata><wpt lat="35.165456" lon="-120.801432"><name>SC26-033-B</name><desc>Avila rough reef Mapped rough-rock high; 8.3 m relief across 210 m. Terrain B 56/100; not catch probability. Center 54 ft; nearby 52–82 ft MLLW. Survey-derived habitat candidate; no verified catch at this coordinate. No verified charter identity match in the reviewed AIS sample; no AIS-confirmed hotspot. Survey 2008; screen 2026-09-20. No additional flag from this depth and closure screening. Check current regulations, closures, conditions and sounder depths.</desc><link href="https://doi.org/10.5066/P9KBGELE"/><sym>Fishing Area</sym></wpt><trk><name>SC-AREA-013</name><desc>Partial nearby mapped rough-rock/bedrock footprint, clipped within 350 m of retained targets and by depth/closure screening; not the complete reef or an individual pile.</desc><trkseg><trkpt lat="35.166895414116766" lon="-120.80375325772624"/><trkpt lat="35.16617058944665" lon="-120.80355319024834"/><trkpt lat="35.16617457012408" lon="-120.80377264744799"/><trkpt lat="35.16545372603613" lon="-120.8037920364813"/><trkpt lat="35.165457706210674" lon="-120.80401149179032"/><trkpt lat="35.165187389613486" lon="-120.80401876177524"/><trkpt lat="35.165103253515966" lon="-120.80435036667602"/><trkpt lat="35.164470524920844" lon="-120.80425760062182"/><trkpt lat="35.164756756308655" lon="-120.8051281457241"/><trkpt lat="35.16403193341857" lon="-120.80492807012254"/><trkpt lat="35.163022866494444" lon="-120.80396719377285"/><trkpt lat="35.1623642597059" lon="-120.80244802714525"/><trkpt lat="35.16241452014915" lon="-120.80025113417928"/><trkpt lat="35.162684836185974" lon="-120.8002438524748"/><trkpt lat="35.16269081553275" lon="-120.8005730235131"/><trkpt lat="35.16296113161574" lon="-120.80056574279917"/><trkpt lat="35.1632374262577" lon="-120.80088763529857"/><trkpt lat="35.1632493807219" lon="-120.80154598220986"/><trkpt lat="35.16297906447368" lon="-120.80155325975814"/><trkpt lat="35.16297508008908" lon="-120.80133381146968"/><trkpt lat="35.162702771545796" lon="-120.8012313658805"/><trkpt lat="35.162432455330304" lon="-120.8012386443225"/><trkpt lat="35.16243843193704" lon="-120.80156781456408"/><trkpt lat="35.16262860188035" lon="-120.80211158149808"/><trkpt lat="35.16343955093603" lon="-120.80208975438768"/><trkpt lat="35.16328721294614" lon="-120.8036307499854"/><trkpt lat="35.163563499850135" lon="-120.80395265452988"/><trkpt lat="35.16383381650789" lon="-120.8039453847632"/><trkpt lat="35.16391397094173" lon="-120.80339433361993"/><trkpt lat="35.16370588376353" lon="-120.80186302816091"/><trkpt lat="35.16406630545657" lon="-120.8018533258472"/><trkpt lat="35.16406232150893" lon="-120.801633874594"/><trkpt lat="35.164604945987605" lon="-120.80172904569665"/><trkpt lat="35.16468708251682" lon="-120.80128771410197"/><trkpt lat="35.164681104818236" lon="-120.80095853486209"/><trkpt lat="35.16422659245228" lon="-120.80075121637358"/><trkpt lat="35.16412253455003" lon="-120.79998556390831"/><trkpt lat="35.163581902685344" lon="-120.80000012970459"/><trkpt lat="35.163475846011295" lon="-120.79912475981045"/><trkpt lat="35.162935214401855" lon="-120.79913933095435"/><trkpt lat="35.16337377309821" lon="-120.79846884142222"/><trkpt lat="35.16364209379263" lon="-120.79835182874737"/><trkpt lat="35.16356595127433" lon="-120.79912233124874"/><trkpt lat="35.16383626705448" lon="-120.79911504549897"/><trkpt lat="35.16384224963781" lon="-120.79944422092663"/><trkpt lat="35.16429078187933" lon="-120.79932235384979"/><trkpt lat="35.164272830257175" lon="-120.798334822517"/><trkpt lat="35.16499766189192" lon="-120.79853483944353"/><trkpt lat="35.16500364622278" lon="-120.79886401942241"/><trkpt lat="35.16455312007811" lon="-120.7988761641939"/><trkpt lat="35.164478968373906" lon="-120.79975640106655"/><trkpt lat="35.16466316636111" lon="-120.79997099772416"/><trkpt lat="35.164675126226086" lon="-120.80062935571918"/><trkpt lat="35.16512565289293" lon="-120.80061722056146"/><trkpt lat="35.165223729638264" lon="-120.80105370194336"/><trkpt lat="35.1657643617392" lon="-120.80103914223442"/><trkpt lat="35.165754397021935" lon="-120.80049050307863"/><trkpt lat="35.16557418639375" lon="-120.80049535756652"/><trkpt lat="35.16555823778901" lon="-120.79961753741111"/><trkpt lat="35.16501960006981" lon="-120.79974183317364"/><trkpt lat="35.16501361812182" lon="-120.79941265293608"/><trkpt lat="35.16600278161919" lon="-120.79927621208321"/><trkpt lat="35.16622485084946" lon="-120.8015756512938"/><trkpt lat="35.16559411321372" lon="-120.80159263373034"/><trkpt lat="35.16560407290039" lon="-120.80214127221603"/><trkpt lat="35.165784283727035" lon="-120.80213642135364"/><trkpt lat="35.16579025838725" lon="-120.80246560529935"/><trkpt lat="35.16542983664864" lon="-120.80247530553083"/><trkpt lat="35.16542386206778" lon="-120.80214612303533"/><trkpt lat="35.16515354580772" lon="-120.80215339918357"/><trkpt lat="35.16507140618815" lon="-120.80259473262672"/><trkpt lat="35.16471297555165" lon="-120.8027141585944"/><trkpt lat="35.16472093926359" lon="-120.80315306495801"/><trkpt lat="35.165081361208486" lon="-120.80314336797127"/><trkpt lat="35.16517942894654" lon="-120.8035798526504"/><trkpt lat="35.16562995646891" lon="-120.80356773353809"/><trkpt lat="35.16562597547364" lon="-120.80334827783173"/><trkpt lat="35.16607650289271" lon="-120.80333615724194"/><trkpt lat="35.16607252143417" lon="-120.8031167003701"/><trkpt lat="35.16634283782809" lon="-120.803109427162"/><trkpt lat="35.166346819326286" lon="-120.80332888475898"/><trkpt lat="35.16679734668581" lon="-120.80331676373886"/><trkpt lat="35.166895414116766" lon="-120.80375325772624"/></trkseg></trk><trk><name>SC-DRIFT-033</name><desc>Principal axis of raised mapped rough habitat within 180 m of target. Optional structure alignment; actual drift depends on measured wind/current. Not a navigation route.</desc><trkseg><trkpt lat="35.16626627615653" lon="-120.79978412876804"/><trkpt lat="35.16464570010549" lon="-120.80307983929299"/></trkseg></trk></gpx>
