<?xml version="1.0" encoding="UTF-8"?>
<gpx version="1.1" creator="SkipperCast" xmlns="http://www.topografix.com/GPX/1/1"><metadata><name>SC26-116-B habitat research</name></metadata><wpt lat="35.456924" lon="-121.026886"><name>SC26-116-B</name><desc>Point Estero rough reef Mapped rough-rock high; 11.6 m relief across 210 m. Terrain B 74/100; not catch probability. Center 130 ft; nearby 122–159 ft MLLW. Survey-derived habitat candidate; no verified catch at this coordinate. No verified charter identity match in the reviewed AIS sample; no AIS-confirmed hotspot. Survey 2008; screen 2026-09-20. No additional flag from this depth and closure screening. Check current regulations, closures, conditions and sounder depths.</desc><link href="https://doi.org/10.5066/P9ZSTUK1"/><sym>Fishing Area</sym></wpt><trk><name>SC-AREA-093</name><desc>Partial nearby mapped rough-rock/bedrock footprint, clipped within 350 m of retained targets and by depth/closure screening; not the complete reef or an individual pile.</desc><trkseg><trkpt lat="35.460048238718706" lon="-121.02774608757584"/><trkpt lat="35.45944263402303" lon="-121.02930346612884"/><trkpt lat="35.45846756378909" lon="-121.03031890922777"/><trkpt lat="35.457032927532275" lon="-121.03079461798988"/><trkpt lat="35.45622010244215" lon="-121.03070425117359"/><trkpt lat="35.45549199865842" lon="-121.03028128122115"/><trkpt lat="35.45585065755966" lon="-121.03016235606603"/><trkpt lat="35.45593537765302" lon="-121.0298297492397"/><trkpt lat="35.45638594839392" lon="-121.02981876056566"/><trkpt lat="35.45638055332396" lon="-121.02948834932471"/><trkpt lat="35.45583807001583" lon="-121.02939140158743"/><trkpt lat="35.45574255973575" lon="-121.02906319122593"/><trkpt lat="35.45538030437791" lon="-121.02896184967355"/><trkpt lat="35.45537310779946" lon="-121.02852130708122"/><trkpt lat="35.45483422249718" lon="-121.02864463654582"/><trkpt lat="35.45507756510016" lon="-121.02698601171723"/><trkpt lat="35.4556128463767" lon="-121.02664239913558"/><trkpt lat="35.45560564129305" lon="-121.02620185589166"/><trkpt lat="35.45479641696392" lon="-121.0263318057488"/><trkpt lat="35.45477659639535" lon="-121.02512032466987"/><trkpt lat="35.454506254648805" lon="-121.02512693322848"/><trkpt lat="35.45434944942608" lon="-121.02656308140594"/><trkpt lat="35.454625194277014" lon="-121.026886881148"/><trkpt lat="35.4546323966889" lon="-121.0273274192295"/><trkpt lat="35.454273740863485" lon="-121.02744635478518"/><trkpt lat="35.45437825396856" lon="-121.02832522831329"/><trkpt lat="35.454017797583" lon="-121.02833402528216"/><trkpt lat="35.453830370798265" lon="-121.02789788969044"/><trkpt lat="35.45379975889921" lon="-121.02602562185893"/><trkpt lat="35.454405324533965" lon="-121.02446833164286"/><trkpt lat="35.45503612168177" lon="-121.02445290645284"/><trkpt lat="35.455025301620495" lon="-121.02379209723455"/><trkpt lat="35.455380345500416" lon="-121.02345287373238"/><trkpt lat="35.455921028355306" lon="-121.02343964490112"/><trkpt lat="35.45609584345735" lon="-121.0231048264077"/><trkpt lat="35.45789992322995" lon="-121.02317085871927"/><trkpt lat="35.45890199912016" lon="-121.02380744045239"/><trkpt lat="35.45973285940866" lon="-121.02499915216517"/><trkpt lat="35.46001761983036" lon="-121.02587367585501"/><trkpt lat="35.460048238718706" lon="-121.02774608757584"/></trkseg><trkseg><trkpt lat="35.457786387031376" lon="-121.02725039942514"/><trkpt lat="35.45778098474751" lon="-121.0269199829697"/><trkpt lat="35.4574205288708" lon="-121.02692878731071"/><trkpt lat="35.45742593108318" lon="-121.02725920229409"/><trkpt lat="35.457786387031376" lon="-121.02725039942514"/></trkseg><trkseg><trkpt lat="35.45738259825746" lon="-121.0301250000011"/><trkpt lat="35.45737540557314" lon="-121.0296844461849"/><trkpt lat="35.456742808299744" lon="-121.02958969429913"/><trkpt lat="35.45675179919793" lon="-121.03014038225157"/><trkpt lat="35.45738259825746" lon="-121.0301250000011"/></trkseg><trkseg><trkpt lat="35.456400449076554" lon="-121.02519080827265"/><trkpt lat="35.45639323855729" lon="-121.02475026112121"/><trkpt lat="35.45603098021253" lon="-121.02464893841636"/><trkpt lat="35.45613010739134" lon="-121.0251974169913"/><trkpt lat="35.456400449076554" lon="-121.02519080827265"/></trkseg></trk></gpx>
