<?xml version="1.0" encoding="UTF-8"?>
<gpx version="1.1" creator="SkipperCast" xmlns="http://www.topografix.com/GPX/1/1"><metadata><name>SC26-132-B habitat research</name></metadata><wpt lat="35.510111" lon="-121.099787"><name>SC26-132-B</name><desc>Point Estero rough reef Mapped rough-rock high; 9.8 m relief across 210 m. Terrain B 73/100; not catch probability. Center 160 ft; nearby 151–186 ft MLLW. Survey-derived habitat candidate; no verified catch at this coordinate. No verified charter identity match in the reviewed AIS sample; no AIS-confirmed hotspot. Survey 2008; screen 2026-09-20. No additional flag from this depth and closure screening. Check current regulations, closures, conditions and sounder depths.</desc><link href="https://doi.org/10.5066/P9ZSTUK1"/><sym>Fishing Area</sym></wpt><trk><name>SC-AREA-106</name><desc>Partial nearby mapped rough-rock/bedrock footprint, clipped within 350 m of retained targets and by depth/closure screening; not the complete reef or an individual pile.</desc><trkseg><trkpt lat="35.5126283346924" lon="-121.1022081939629"/><trkpt lat="35.51165265198212" lon="-121.10322348445322"/><trkpt lat="35.51093518095019" lon="-121.10346087857165"/><trkpt lat="35.51092131121374" lon="-121.10257914820784"/><trkpt lat="35.5106509595945" lon="-121.10258551081847"/><trkpt lat="35.51047592699419" lon="-121.10292039948241"/><trkpt lat="35.51020384147934" lon="-121.10281654554748"/><trkpt lat="35.5102887566187" lon="-121.10248377877551"/><trkpt lat="35.51046899103319" lon="-121.10247953687377"/><trkpt lat="35.51046378800593" lon="-121.10214889001614"/><trkpt lat="35.51010505366001" lon="-121.10226759037582"/><trkpt lat="35.508919652353164" lon="-121.101413456887"/><trkpt lat="35.50846906646873" lon="-121.1014240669206"/><trkpt lat="35.50820738893416" lon="-121.10198149526549"/><trkpt lat="35.50748298196689" lon="-121.10177804264814"/><trkpt lat="35.50720742579824" lon="-121.101453773762"/><trkpt lat="35.50719180680343" lon="-121.1004618741442"/><trkpt lat="35.50701157250188" lon="-121.10046612004186"/><trkpt lat="35.50691277469444" lon="-121.099917189808"/><trkpt lat="35.50698726025082" lon="-121.09892317004193"/><trkpt lat="35.50741872895944" lon="-121.0977002232926"/><trkpt lat="35.507597224468384" lon="-121.09758575975023"/><trkpt lat="35.50814314167215" lon="-121.0979036388053"/><trkpt lat="35.50842044502822" lon="-121.09833811129091"/><trkpt lat="35.50941694555988" lon="-121.09864537282967"/><trkpt lat="35.51005645186382" lon="-121.09918157063997"/><trkpt lat="35.510416920009945" lon="-121.09917307211275"/><trkpt lat="35.51114654125443" lon="-121.09970715639734"/><trkpt lat="35.51124186812749" lon="-121.10003568183885"/><trkpt lat="35.511692453441356" lon="-121.100025062964"/><trkpt lat="35.511966277416334" lon="-121.10023912657954"/><trkpt lat="35.51197322181721" lon="-121.10067999679987"/><trkpt lat="35.51233542603391" lon="-121.10078172244043"/><trkpt lat="35.51234757431769" lon="-121.10155324919944"/><trkpt lat="35.51252954365136" lon="-121.1016592232884"/><trkpt lat="35.5126283346924" lon="-121.1022081939629"/></trkseg><trkseg><trkpt lat="35.50918479806146" lon="-121.1010764493451"/><trkpt lat="35.50908600258411" lon="-121.10052750355689"/><trkpt lat="35.50863368100569" lon="-121.10042790560593"/><trkpt lat="35.50864409512533" lon="-121.1010891837408"/><trkpt lat="35.50918479806146" lon="-121.1010764493451"/></trkseg></trk><trk><name>SC-DRIFT-132</name><desc>Principal axis of raised mapped rough habitat within 180 m of target. Optional structure alignment; actual drift depends on measured wind/current. Not a navigation route.</desc><trkseg><trkpt lat="35.50851931323019" lon="-121.09875200475086"/><trkpt lat="35.511702678755285" lon="-121.10082203508337"/></trkseg></trk></gpx>
