<?xml version="1.0" encoding="UTF-8"?>
<gpx version="1.1" creator="SkipperCast" xmlns="http://www.topografix.com/GPX/1/1"><metadata><name>SC26-035-B habitat research</name></metadata><wpt lat="35.169945" lon="-120.830404"><name>SC26-035-B</name><desc>Avila rough reef Mapped rough-rock high; 6.7 m relief across 210 m. Terrain B 71/100; not catch probability. Center 68 ft; nearby 65–90 ft MLLW. Survey-derived habitat candidate; no verified catch at this coordinate. No verified charter identity match in the reviewed AIS sample; no AIS-confirmed hotspot. Survey 2008; screen 2026-09-20. No additional flag from this depth and closure screening. Check current regulations, closures, conditions and sounder depths.</desc><link href="https://doi.org/10.5066/P9KBGELE"/><sym>Fishing Area</sym></wpt><trk><name>SC-AREA-016</name><desc>Partial mapped habitat footprint clipped to a 175-m search window to retain complete depth coverage; not the entire reef or a single pile.</desc><trkseg><trkpt lat="35.16853374933224" lon="-120.82961859744881"/><trkpt lat="35.16854161630962" lon="-120.83005753222406"/><trkpt lat="35.16890204449899" lon="-120.83004795258366"/><trkpt lat="35.16890990999193" lon="-120.83048688946303"/><trkpt lat="35.1685494816981" lon="-120.83049646716935"/><trkpt lat="35.16855537969676" lon="-120.83082566848995"/><trkpt lat="35.16882570097811" lon="-120.83081848631403"/><trkpt lat="35.16883552908765" lon="-120.83136715720734"/><trkpt lat="35.168745421962704" lon="-120.8313695506722"/><trkpt lat="35.168750590141975" lon="-120.83165812941611"/><trkpt lat="35.16923200145433" lon="-120.83211735806553"/><trkpt lat="35.169824668674366" lon="-120.83231923182147"/><trkpt lat="35.170435657342296" lon="-120.83222952976836"/><trkpt lat="35.17097194916214" lon="-120.83186190231156"/><trkpt lat="35.171351896315095" lon="-120.83127231443478"/><trkpt lat="35.17151765291834" lon="-120.83055052727536"/><trkpt lat="35.17144398292646" lon="-120.8298064317928"/><trkpt lat="35.171142102738216" lon="-120.82915331569845"/><trkpt lat="35.17065797312665" lon="-120.82869061296064"/><trkpt lat="35.17006530080944" lon="-120.82848876414833"/><trkpt lat="35.16945431587902" lon="-120.8285784935059"/><trkpt lat="35.168918034442" lon="-120.82894613463344"/><trkpt lat="35.16853374933224" lon="-120.82961859744881"/></trkseg></trk><trk><name>SC-DRIFT-035</name><desc>Principal axis of raised mapped rough habitat within 180 m of target. Optional structure alignment; actual drift depends on measured wind/current. Not a navigation route.</desc><trkseg><trkpt lat="35.16955988122568" lon="-120.82825945842113"/><trkpt lat="35.170330081482064" lon="-120.83254856376354"/></trkseg></trk></gpx>
