<?xml version="1.0" encoding="UTF-8"?>
<gpx version="1.1" creator="SkipperCast" xmlns="http://www.topografix.com/GPX/1/1"><metadata><name>SC26-068-C habitat research</name><desc>WGS84 coordinates. Habitat research; tracks show outlines and structure alignments, not navigation routes. Check current rules and charted hazards.</desc></metadata><wpt lat="35.335569" lon="-120.908274"><name>SC26-068-C</name><cmt>SC26-068</cmt><desc>Morro Bay rough reef Mapped rough-rock high; 2.6 m relief across 210 m. Terrain C 7/100; not catch probability. Center 175 ft; nearby 173–181 ft MLLW. Survey-derived habitat candidate; no verified catch at this coordinate. No verified charter identity match in the reviewed AIS sample; no AIS-confirmed hotspot. Survey 2008; screen 2026-09-20. No additional flag from this depth and closure screening. Subtle local relief in the rendered grid; primarily a mapped-bottom investigation option. Check current regulations, closures, conditions and sounder depths.</desc><link href="https://doi.org/10.5066/P9HEZNRO"/><sym>Fishing Area</sym></wpt></gpx>
