<?xml version="1.0" encoding="UTF-8"?>
<gpx version="1.1" creator="SkipperCast" xmlns="http://www.topografix.com/GPX/1/1"><metadata><name>SC26-051-A habitat research</name></metadata><wpt lat="35.281992" lon="-120.901408"><name>SC26-051-A</name><desc>Avila rough reef Mapped rough-rock high; 10.2 m relief across 210 m. Terrain A 79/100; not catch probability. Center 44 ft; nearby 40–76 ft MLLW. Survey-derived habitat candidate; no verified catch at this coordinate. No verified charter identity match in the reviewed AIS sample; no AIS-confirmed hotspot. Survey 2008; screen 2026-09-20. No additional flag from this depth and closure screening. Check current regulations, closures, conditions and sounder depths.</desc><link href="https://doi.org/10.5066/P9KBGELE"/><sym>Fishing Area</sym></wpt><trk><name>SC-AREA-034</name><desc>Partial nearby mapped rough-rock/bedrock footprint, clipped within 350 m of retained targets and by depth/closure screening; not the complete reef or an individual pile.</desc><trkseg><trkpt lat="35.28519158490539" lon="-120.90138054286649"/><trkpt lat="35.28494794983332" lon="-120.9029260612684"/><trkpt lat="35.284071622232574" lon="-120.90437793572875"/><trkpt lat="35.28282341562402" lon="-120.90517970515079"/><trkpt lat="35.28183220818513" lon="-120.90520524443436"/><trkpt lat="35.28155045460685" lon="-120.90455286152145"/><trkpt lat="35.28154093165933" lon="-120.90400340517515"/><trkpt lat="35.28082005392976" lon="-120.90402198886761"/><trkpt lat="35.280718513719705" lon="-120.90336497107243"/><trkpt lat="35.28034854694284" lon="-120.90282481767069"/><trkpt lat="35.28016832761986" lon="-120.9028294660621"/><trkpt lat="35.28023937382088" lon="-120.90172824810703"/><trkpt lat="35.27969680934787" lon="-120.90163231179922"/><trkpt lat="35.27958571781003" lon="-120.90042586479026"/><trkpt lat="35.27903551954391" lon="-120.89989038741757"/><trkpt lat="35.279121811925194" lon="-120.89966828470821"/><trkpt lat="35.27993470599864" lon="-120.8997572246844"/><trkpt lat="35.280020998032775" lon="-120.89953511933957"/><trkpt lat="35.280295143942254" lon="-120.89974791432742"/><trkpt lat="35.280471545387904" lon="-120.89952348010021"/><trkpt lat="35.28028369026959" lon="-120.89908857895006"/><trkpt lat="35.28073232814979" lon="-120.89896704732308"/><trkpt lat="35.28091445634812" lon="-120.8990722803217"/><trkpt lat="35.28092018376617" lon="-120.89940195051685"/><trkpt lat="35.28073805582905" lon="-120.89929671675779"/><trkpt lat="35.280385253424456" lon="-120.89974558671234"/><trkpt lat="35.28057119793135" lon="-120.90007060037347"/><trkpt lat="35.28084152641716" lon="-120.90006361849841"/><trkpt lat="35.2809278189273" lon="-120.89984151092165"/><trkpt lat="35.28129016539742" lon="-120.89994209120972"/><trkpt lat="35.281376457631104" lon="-120.89971998226468"/><trkpt lat="35.28165060330293" lon="-120.89993278120546"/><trkpt lat="35.281999587987386" lon="-120.89926412167537"/><trkpt lat="35.28181555062033" lon="-120.8990489956885"/><trkpt lat="35.28145702220626" lon="-120.89916820044994"/><trkpt lat="35.28099501805896" lon="-120.89852050117851"/><trkpt lat="35.28063649015995" lon="-120.89863970685349"/><trkpt lat="35.28062312003436" lon="-120.89787047960232"/><trkpt lat="35.28170061127513" lon="-120.89762274020377"/><trkpt lat="35.28134208447466" lon="-120.89774195098973"/><trkpt lat="35.281347815578094" lon="-120.8980716226363"/><trkpt lat="35.28144174519719" lon="-120.89828907446622"/><trkpt lat="35.28189229208581" lon="-120.89827742771365"/><trkpt lat="35.28188465106097" lon="-120.8978378625384"/><trkpt lat="35.28215115795154" lon="-120.89761108964885"/><trkpt lat="35.28269181391441" lon="-120.89759710864165"/><trkpt lat="35.28341842028847" lon="-120.89790814672406"/><trkpt lat="35.284426813587686" lon="-120.8988715696218"/><trkpt lat="35.284892634568315" lon="-120.89973908825235"/><trkpt lat="35.28519158490539" lon="-120.90138054286649"/></trkseg><trkseg><trkpt lat="35.28165823667188" lon="-120.90037234570721"/><trkpt lat="35.28138027487603" lon="-120.89993976372415"/><trkpt lat="35.281113763243816" lon="-120.9001665269212"/><trkpt lat="35.28130161470059" lon="-120.90060143510657"/><trkpt lat="35.28165823667188" lon="-120.90037234570721"/></trkseg></trk></gpx>
