<?xml version="1.0" encoding="UTF-8"?>
<gpx version="1.1" creator="SkipperCast" xmlns="http://www.topografix.com/GPX/1/1"><metadata><name>SC26-109-B habitat research</name></metadata><wpt lat="35.444904" lon="-121.019578"><name>SC26-109-B</name><desc>Point Estero rough reef Mapped rough-rock high; 9.1 m relief across 210 m. Terrain B 69/100; not catch probability. Center 161 ft; nearby 155–185 ft MLLW. Survey-derived habitat candidate; no verified catch at this coordinate. No verified charter identity match in the reviewed AIS sample; no AIS-confirmed hotspot. Survey 2008; screen 2026-09-20. No additional flag from this depth and closure screening. Check current regulations, closures, conditions and sounder depths.</desc><link href="https://doi.org/10.5066/P9ZSTUK1"/><sym>Fishing Area</sym></wpt><trk><name>SC-AREA-087</name><desc>Partial nearby mapped rough-rock/bedrock footprint, clipped within 350 m of retained targets and by depth/closure screening; not the complete reef or an individual pile.</desc><trkseg><trkpt lat="35.44688774986961" lon="-121.01683021279062"/><trkpt lat="35.44670752270791" lon="-121.01683463570592"/><trkpt lat="35.44671295113325" lon="-121.01716500488237"/><trkpt lat="35.446532723929764" lon="-121.01716942702281"/><trkpt lat="35.44644984674928" lon="-121.0176121289797"/><trkpt lat="35.446269619489115" lon="-121.01761655008046"/><trkpt lat="35.4462840874227" lon="-121.01849753039265"/><trkpt lat="35.44655623651241" lon="-121.01860102462024"/><trkpt lat="35.4465616600842" lon="-121.01893139353199"/><trkpt lat="35.446111091571055" lon="-121.01894243890321"/><trkpt lat="35.446226502999856" lon="-121.0204819457376"/><trkpt lat="35.445961579955195" lon="-121.02081893455987"/><trkpt lat="35.44596880298686" lon="-121.021259423813"/><trkpt lat="35.44569846147592" lon="-121.02126604313553"/><trkpt lat="35.44569304440651" lon="-121.02093567728437"/><trkpt lat="35.44542270293616" lon="-121.02094229762213"/><trkpt lat="35.44488563132824" lon="-121.0211757797174"/><trkpt lat="35.444892852868755" lon="-121.02161626320343"/><trkpt lat="35.44415388547527" lon="-121.02053271203802"/><trkpt lat="35.44379343017437" lon="-121.0205415404308"/><trkpt lat="35.443694284539426" lon="-121.01999315162956"/><trkpt lat="35.44323829532414" lon="-121.01967383434716"/><trkpt lat="35.44340948716889" lon="-121.01911882468241"/><trkpt lat="35.44295530343408" lon="-121.01890963156168"/><trkpt lat="35.44267773117014" lon="-121.01847578726723"/><trkpt lat="35.44276422878633" lon="-121.01825334241703"/><trkpt lat="35.44221269590888" lon="-121.01760589749314"/><trkpt lat="35.44238749662917" lon="-121.01727112541846"/><trkpt lat="35.442657837634755" lon="-121.0172644935473"/><trkpt lat="35.44265060061132" lon="-121.01682402339803"/><trkpt lat="35.442827208755354" lon="-121.01659936561482"/><trkpt lat="35.44300743600735" lon="-121.01659494280813"/><trkpt lat="35.44310840594803" lon="-121.0172534402325"/><trkpt lat="35.44373920152498" lon="-121.01723796517965"/><trkpt lat="35.443728344956604" lon="-121.0165772511887"/><trkpt lat="35.443277776874325" lon="-121.01658830852446"/><trkpt lat="35.44327234732517" lon="-121.01625795350026"/><trkpt lat="35.44407612866566" lon="-121.01579756916823"/><trkpt lat="35.44560805905831" lon="-121.01575995713509"/><trkpt lat="35.44688232050505" lon="-121.0164998429669"/><trkpt lat="35.44688774986961" lon="-121.01683021279062"/></trkseg></trk></gpx>
