<?xml version="1.0" encoding="UTF-8"?>
<gpx version="1.1" creator="SkipperCast" xmlns="http://www.topografix.com/GPX/1/1"><metadata><name>SC26-117-B habitat research</name></metadata><wpt lat="35.45774" lon="-121.016178"><name>SC26-117-B</name><desc>Point Estero rough reef Mapped rough-rock high; 9.0 m relief across 210 m. Terrain B 69/100; not catch probability. Center 73 ft; nearby 70–95 ft MLLW. Survey-derived habitat candidate; no verified catch at this coordinate. No verified charter identity match in the reviewed AIS sample; no AIS-confirmed hotspot. Survey 2008; screen 2026-09-20. No additional flag from this depth and closure screening. Check current regulations, closures, conditions and sounder depths.</desc><link href="https://doi.org/10.5066/P9ZSTUK1"/><sym>Fishing Area</sym></wpt><trk><name>SC-AREA-094</name><desc>Partial nearby mapped rough-rock/bedrock footprint, clipped within 350 m of retained targets and by depth/closure screening; not the complete reef or an individual pile.</desc><trkseg><trkpt lat="35.460864388612976" lon="-121.01703802901352"/><trkpt lat="35.460258925370766" lon="-121.018595497224"/><trkpt lat="35.45928394993322" lon="-121.01961107601336"/><trkpt lat="35.458568463863784" lon="-121.01995916891839"/><trkpt lat="35.45748710085182" lon="-121.01998567538625"/><trkpt lat="35.45748348619958" lon="-121.01976539952206"/><trkpt lat="35.45703653286778" lon="-121.01999671933117"/><trkpt lat="35.45631020212125" lon="-121.01968398013565"/><trkpt lat="35.456212857950156" lon="-121.01924564448254"/><trkpt lat="35.455762290072705" lon="-121.01925669203432"/><trkpt lat="35.45493137635479" lon="-121.01806509877687"/><trkpt lat="35.45454196792178" lon="-121.01631180149809"/><trkpt lat="35.45461578320698" lon="-121.01531838496878"/><trkpt lat="35.45487162912824" lon="-121.01443067120542"/><trkpt lat="35.4551401568615" lon="-121.01431389240854"/><trkpt lat="35.45522120740952" lon="-121.01376100514257"/><trkpt lat="35.45566270839663" lon="-121.0131992520368"/><trkpt lat="35.45620157444517" lon="-121.01307581873432"/><trkpt lat="35.45619613357338" lon="-121.01274541159296"/><trkpt lat="35.45673681284816" lon="-121.01273211072593"/><trkpt lat="35.45691159734192" lon="-121.01239726702819"/><trkpt lat="35.45763068856988" lon="-121.01226939125921"/><trkpt lat="35.45808306865033" lon="-121.01236844222794"/><trkpt lat="35.458088510803826" lon="-121.01269885700864"/><trkpt lat="35.45898782857991" lon="-121.01256654713693"/><trkpt lat="35.45971780314544" lon="-121.01309951163661"/><trkpt lat="35.46064250409273" lon="-121.01450918797042"/><trkpt lat="35.46083360301695" lon="-121.01516561050691"/><trkpt lat="35.460864388612976" lon="-121.01703802901352"/></trkseg><trkseg><trkpt lat="35.460673299727716" lon="-121.01638160130338"/><trkpt lat="35.460662433993875" lon="-121.01572074921451"/><trkpt lat="35.46039209404879" lon="-121.01572739065614"/><trkpt lat="35.46039571632579" lon="-121.01594767391033"/><trkpt lat="35.45940084747044" lon="-121.01575174185214"/><trkpt lat="35.45940628053758" lon="-121.01608216269966"/><trkpt lat="35.46003888482459" lon="-121.01617681035881"/><trkpt lat="35.460134430176886" lon="-121.01650502099459"/><trkpt lat="35.460673299727716" lon="-121.01638160130338"/></trkseg><trkseg><trkpt lat="35.4599813497407" lon="-121.01816156399077"/><trkpt lat="35.45997230348648" lon="-121.01761085801395"/><trkpt lat="35.45951992681399" lon="-121.01751177566071"/><trkpt lat="35.45971100936513" lon="-121.01816819709951"/><trkpt lat="35.4599813497407" lon="-121.01816156399077"/></trkseg><trkseg><trkpt lat="35.45904401622241" lon="-121.01598087611148"/><trkpt lat="35.45903858292592" lon="-121.0156504567656"/><trkpt lat="35.45813563828016" lon="-121.01556245548295"/><trkpt lat="35.45814107169812" lon="-121.01589287111914"/><trkpt lat="35.45904401622241" lon="-121.01598087611148"/></trkseg><trkseg><trkpt lat="35.4589738171599" lon="-121.01719462652157"/><trkpt lat="35.458966577005874" lon="-121.01675406747185"/><trkpt lat="35.45869623681534" lon="-121.01676070504115"/><trkpt lat="35.45870347689751" lon="-121.01720126261874"/><trkpt lat="35.4589738171599" lon="-121.01719462652157"/></trkseg><trkseg><trkpt lat="35.45726890003407" lon="-121.01767720352838"/><trkpt lat="35.45726347161536" lon="-121.01734679110086"/><trkpt lat="35.456903017793735" lon="-121.01735563797398"/><trkpt lat="35.4569084461406" lon="-121.01768604892949"/><trkpt lat="35.45726890003407" lon="-121.01767720352838"/></trkseg></trk></gpx>
