<?xml version="1.0" encoding="UTF-8"?>
<gpx version="1.1" creator="SkipperCast" xmlns="http://www.topografix.com/GPX/1/1"><metadata><name>SC26-039-B habitat research</name></metadata><wpt lat="35.176124" lon="-120.858458"><name>SC26-039-B</name><desc>Avila rough reef Mapped rough-rock high; 8.3 m relief across 210 m. Terrain B 63/100; not catch probability. Center 156 ft; nearby 151–181 ft MLLW. Survey-derived habitat candidate; no verified catch at this coordinate. No verified charter identity match in the reviewed AIS sample; no AIS-confirmed hotspot. Survey 2008; screen 2026-09-20. No additional flag from this depth and closure screening. Check current regulations, closures, conditions and sounder depths.</desc><link href="https://doi.org/10.5066/P9KBGELE"/><sym>Fishing Area</sym></wpt><trk><name>SC-AREA-021</name><desc>Partial nearby mapped rough-rock/bedrock footprint, clipped within 350 m of retained targets and by depth/closure screening; not the complete reef or an individual pile.</desc><trkseg><trkpt lat="35.18193226047883" lon="-120.86319186293609"/><trkpt lat="35.18157182520247" lon="-120.86320130087482"/><trkpt lat="35.18150689076396" lon="-120.86463045670806"/><trkpt lat="35.181146455123695" lon="-120.86463988814718"/><trkpt lat="35.18086838438198" lon="-120.86420795054607"/><trkpt lat="35.18005353181767" lon="-120.86400967144871"/><trkpt lat="35.18025117273808" lon="-120.86499272188516"/><trkpt lat="35.180703652894834" lon="-120.86509068748097"/><trkpt lat="35.180803437580316" lon="-120.86563709385119"/><trkpt lat="35.1809855903937" lon="-120.86574213342251"/><trkpt lat="35.180995263217255" lon="-120.86629089862404"/><trkpt lat="35.18081504518959" lon="-120.86629561061011"/><trkpt lat="35.18082084765288" lon="-120.86662486913073"/><trkpt lat="35.180096107222106" lon="-120.86642420999813"/><trkpt lat="35.18001760127731" lon="-120.8670850764371"/><trkpt lat="35.18001180017965" lon="-120.86675582105694"/><trkpt lat="35.1798277141985" lon="-120.8665410287946"/><trkpt lat="35.17946727800886" lon="-120.86655045121353"/><trkpt lat="35.17918727966327" lon="-120.86600876470759"/><trkpt lat="35.17828038564994" lon="-120.86570307758464"/><trkpt lat="35.17827458104357" lon="-120.86537382950654"/><trkpt lat="35.178092427988005" lon="-120.86526879394572"/><trkpt lat="35.17817673120348" lon="-120.86493718947239"/><trkpt lat="35.17790253329482" lon="-120.86472476356506"/><trkpt lat="35.17788898174337" lon="-120.8639565222416"/><trkpt lat="35.17698014678354" lon="-120.86354111483173"/><trkpt lat="35.17715261728837" lon="-120.86309740666101"/><trkpt lat="35.17687454181094" lon="-120.86266549503621"/><trkpt lat="35.176516043686775" lon="-120.86278468032131"/><trkpt lat="35.176600340252605" lon="-120.86245308013453"/><trkpt lat="35.1770450711976" lon="-120.86211203830766"/><trkpt lat="35.17731539766701" lon="-120.86210495744898"/><trkpt lat="35.17723885190393" lon="-120.86287555189713"/><trkpt lat="35.17813412816786" lon="-120.86252271002574"/><trkpt lat="35.17812831493745" lon="-120.86219346322113"/><trkpt lat="35.177313459683404" lon="-120.86199520963402"/><trkpt lat="35.177307645136516" lon="-120.86166596625196"/><trkpt lat="35.17694139458017" lon="-120.8613461674745"/><trkpt lat="35.1767476044446" lon="-120.8605826607749"/><trkpt lat="35.177017930657044" lon="-120.86057557493113"/><trkpt lat="35.17709834159036" lon="-120.86002447593523"/><trkpt lat="35.176647798063925" lon="-120.86003628869827"/><trkpt lat="35.17663809794014" lon="-120.85948755495681"/><trkpt lat="35.1761875545377" lon="-120.85949937048107"/><trkpt lat="35.175932747072224" lon="-120.86038442604217"/><trkpt lat="35.17566242084508" lon="-120.86039151223414"/><trkpt lat="35.175654662420186" lon="-120.8599525304152"/><trkpt lat="35.17538433625698" lon="-120.85995961796397"/><trkpt lat="35.175372695755435" lon="-120.85930114772687"/><trkpt lat="35.17555291312176" lon="-120.8592964212537"/><trkpt lat="35.17554709149129" lon="-120.85896718555117"/><trkpt lat="35.175366874163615" lon="-120.8589719127499"/><trkpt lat="35.17535522829787" lon="-120.85831344307924"/><trkpt lat="35.174902743852996" lon="-120.85821552021649"/><trkpt lat="35.17497926060183" lon="-120.85744494514944"/><trkpt lat="35.1752495863382" lon="-120.8574378493826"/><trkpt lat="35.17524375969953" lon="-120.85710861530363"/><trkpt lat="35.17461494202978" lon="-120.85723491832134"/><trkpt lat="35.174515121158485" lon="-120.8566885652853"/><trkpt lat="35.17458774125126" lon="-120.85569850557263"/><trkpt lat="35.1748580666958" lon="-120.85569140412746"/><trkpt lat="35.174848347316896" lon="-120.85514268397377"/><trkpt lat="35.17466618625902" lon="-120.8550376757329"/><trkpt lat="35.17529111211323" lon="-120.85469186664633"/><trkpt lat="35.177095224725704" lon="-120.85475424543482"/><trkpt lat="35.1771010580292" lon="-120.85508348647066"/><trkpt lat="35.17764754098789" lon="-120.85539852139983"/><trkpt lat="35.177833589496004" lon="-120.85572303004288"/><trkpt lat="35.17784525015409" lon="-120.85638151858166"/><trkpt lat="35.1780254671022" lon="-120.85637678523209"/><trkpt lat="35.17803712426125" lon="-120.8570352756003"/><trkpt lat="35.177768741213534" lon="-120.8571521215006"/><trkpt lat="35.17787826926328" lon="-120.85824723816134"/><trkpt lat="35.1781485950121" lon="-120.8582401442893"/><trkpt lat="35.17815441899135" lon="-120.85856939032442"/><trkpt lat="35.17851485337969" lon="-120.85855993313275"/><trkpt lat="35.178597196339815" lon="-120.8581185716972"/><trkpt lat="35.178957630595406" lon="-120.8581091123605"/><trkpt lat="35.178947921189554" lon="-120.85756036378845"/><trkpt lat="35.17921824676899" lon="-120.85755326736148"/><trkpt lat="35.179249308434294" lon="-120.85930926952112"/><trkpt lat="35.17908073266659" lon="-120.85997249666349"/><trkpt lat="35.17881622599878" lon="-120.86030883412337"/><trkpt lat="35.17880070575628" lon="-120.85943083679042"/><trkpt lat="35.178530379825936" lon="-120.85943792689162"/><trkpt lat="35.17845773077342" lon="-120.8604280329304"/><trkpt lat="35.17846354884977" lon="-120.86075728068334"/><trkpt lat="35.17864376629566" lon="-120.86075255688341"/><trkpt lat="35.178469366031976" lon="-120.86108652853063"/><trkpt lat="35.17928034466567" lon="-120.86106527436628"/><trkpt lat="35.179217371683016" lon="-120.86260414072945"/><trkpt lat="35.179758024588224" lon="-120.86258998103776"/><trkpt lat="35.17992855285076" lon="-120.86203650428737"/><trkpt lat="35.18028898795075" lon="-120.86202706178051"/><trkpt lat="35.18036552721898" lon="-120.86125643785704"/><trkpt lat="35.18155632487594" lon="-120.86232327224839"/><trkpt lat="35.18193226047883" lon="-120.86319186293609"/></trkseg><trkseg><trkpt lat="35.18119976540804" lon="-120.86255222001648"/><trkpt lat="35.1811939518195" lon="-120.86222296084313"/><trkpt lat="35.18092168746031" lon="-120.8621202896536"/><trkpt lat="35.18091781107772" lon="-120.86190078433715"/><trkpt lat="35.18055737604495" lon="-120.86191022762121"/><trkpt lat="35.18030255254033" lon="-120.86279532471777"/><trkpt lat="35.18057287898486" lon="-120.86278824526774"/><trkpt lat="35.18056900384603" lon="-120.86256874079326"/><trkpt lat="35.18119976540804" lon="-120.86255222001648"/></trkseg><trkseg><trkpt lat="35.17952643010339" lon="-120.86479207853075"/><trkpt lat="35.179514814687884" lon="-120.86413357281107"/><trkpt lat="35.17924448795856" lon="-120.86414064752978"/><trkpt lat="35.17925610325837" lon="-120.86479915107229"/><trkpt lat="35.17952643010339" lon="-120.86479207853075"/></trkseg><trkseg><trkpt lat="35.178794884026075" lon="-120.85910158796365"/><trkpt lat="35.17878712032823" lon="-120.85866258967478"/><trkpt lat="35.17842668593188" lon="-120.85867204650859"/><trkpt lat="35.17843833072791" lon="-120.85933054110208"/><trkpt lat="35.178708656643366" lon="-120.85932345066952"/><trkpt lat="35.178794884026075" lon="-120.85910158796365"/></trkseg><trkseg><trkpt lat="35.17798002483474" lon="-120.85890336426117"/><trkpt lat="35.177880210669706" lon="-120.85835698646639"/><trkpt lat="35.17742966769315" lon="-120.85836880877187"/><trkpt lat="35.17743355014352" lon="-120.85858830420405"/><trkpt lat="35.177078938537186" lon="-120.85892700266774"/><trkpt lat="35.17708670095057" lon="-120.85936599184888"/><trkpt lat="35.17753724424672" lon="-120.85935417519552"/><trkpt lat="35.177529481704475" lon="-120.85891518359561"/><trkpt lat="35.17798002483474" lon="-120.85890336426117"/></trkseg><trkseg><trkpt lat="35.17773880049171" lon="-120.86055667888647"/><trkpt lat="35.17772910246513" lon="-120.86000793762656"/><trkpt lat="35.177458776384825" lon="-120.86001502553606"/><trkpt lat="35.177468474314814" lon="-120.86056376498185"/><trkpt lat="35.17773880049171" lon="-120.86055667888647"/></trkseg><trkseg><trkpt lat="35.17741024948064" lon="-120.85727133224076"/><trkpt lat="35.17740053664897" lon="-120.85672259436888"/><trkpt lat="35.17721449078899" lon="-120.85639808497432"/><trkpt lat="35.17658178824691" lon="-120.85630490442935"/><trkpt lat="35.176501394252355" lon="-120.85685600267729"/><trkpt lat="35.176142902721594" lon="-120.85697521255605"/><trkpt lat="35.17625243161146" lon="-120.85807030718532"/><trkpt lat="35.176791141551334" lon="-120.85794637220665"/><trkpt lat="35.176785316073946" lon="-120.85761713180275"/><trkpt lat="35.177145750319156" lon="-120.85760767088694"/><trkpt lat="35.177139923870314" lon="-120.85727842912628"/><trkpt lat="35.17741024948064" lon="-120.85727133224076"/></trkseg><trkseg><trkpt lat="35.17684628374265" lon="-120.85596856417341"/><trkpt lat="35.17684045288145" lon="-120.85563932397376"/><trkpt lat="35.17620969371838" lon="-120.85565589548337"/><trkpt lat="35.17621552444406" lon="-120.8559851331434"/><trkpt lat="35.17684628374265" lon="-120.85596856417341"/></trkseg></trk></gpx>
