<?xml version="1.0" encoding="UTF-8"?>
<gpx version="1.1" creator="SkipperCast" xmlns="http://www.topografix.com/GPX/1/1"><metadata><name>SC26-025-B habitat research</name></metadata><wpt lat="35.154261" lon="-120.830492"><name>SC26-025-B</name><desc>Avila rough reef Mapped rough-rock high; 8.4 m relief across 210 m. Terrain B 66/100; not catch probability. Center 133 ft; nearby 125–153 ft MLLW. Survey-derived habitat candidate; no verified catch at this coordinate. No verified charter identity match in the reviewed AIS sample; no AIS-confirmed hotspot. Survey 2008; screen 2026-09-20. No additional flag from this depth and closure screening. Check current regulations, closures, conditions and sounder depths.</desc><link href="https://doi.org/10.5066/P9KBGELE"/><sym>Fishing Area</sym></wpt><trk><name>SC-AREA-007</name><desc>Partial nearby mapped rough-rock/bedrock footprint, clipped within 350 m of retained targets and by depth/closure screening; not the complete reef or an individual pile.</desc><trkseg><trkpt lat="35.15746040357964" lon="-120.8304617420183"/><trkpt lat="35.15721759086086" lon="-120.83200498238558"/><trkpt lat="35.15678080114474" lon="-120.83278496750982"/><trkpt lat="35.156600586364995" lon="-120.83278974916674"/><trkpt lat="35.15650066029629" lon="-120.83224355133257"/><trkpt lat="35.155960016108146" lon="-120.832257899609"/><trkpt lat="35.155877763695464" lon="-120.83269915846488"/><trkpt lat="35.155431153511195" lon="-120.8329305452134"/><trkpt lat="35.1539933608585" lon="-120.83318822159019"/><trkpt lat="35.15362311488626" lon="-120.83264921261818"/><trkpt lat="35.15344290002867" lon="-120.8326539940155"/><trkpt lat="35.15315883118857" lon="-120.83189317343572"/><trkpt lat="35.152798401620366" lon="-120.8319027393577"/><trkpt lat="35.152622114828944" lon="-120.83212694720858"/><trkpt lat="35.151360610928954" lon="-120.8321604229191"/><trkpt lat="35.15116861149283" lon="-120.83150694185515"/><trkpt lat="35.151135202477306" lon="-120.82964186503835"/><trkpt lat="35.151389792354145" lon="-120.82875699853288"/><trkpt lat="35.1519146970597" lon="-120.82786493936499"/><trkpt lat="35.15245534003392" lon="-120.82785056417825"/><trkpt lat="35.15264145723633" lon="-120.82817490899372"/><trkpt lat="35.15327023984542" lon="-120.82804842678037"/><trkpt lat="35.15326040047498" lon="-120.82749986161018"/><trkpt lat="35.15362082896286" lon="-120.82749027610743"/><trkpt lat="35.15361492407117" lon="-120.8271611356835"/><trkpt lat="35.15315848286877" lon="-120.82684398083074"/><trkpt lat="35.154958655424245" lon="-120.82668632209975"/><trkpt lat="35.1556854183182" lon="-120.82699629117371"/><trkpt lat="35.15669431076252" lon="-120.8279573805844"/><trkpt lat="35.1567903210587" lon="-120.82828413778738"/><trkpt lat="35.15633978544367" lon="-120.82829611666841"/><trkpt lat="35.156333882345926" lon="-120.8279669651176"/><trkpt lat="35.155154617981076" lon="-120.82755925137155"/><trkpt lat="35.15525849981608" lon="-120.82832486489833"/><trkpt lat="35.155709035520225" lon="-120.8283128866553"/><trkpt lat="35.155805044743396" lon="-120.82863964044685"/><trkpt lat="35.15688829774139" lon="-120.8287206137619"/><trkpt lat="35.15716255339221" lon="-120.82893286440346"/><trkpt lat="35.15746040357964" lon="-120.8304617420183"/></trkseg><trkseg><trkpt lat="35.15684930388126" lon="-120.8315756766775"/><trkpt lat="35.15674740718692" lon="-120.83091976103267"/><trkpt lat="35.156026548919435" lon="-120.83093890383513"/><trkpt lat="35.15603047900489" lon="-120.83115833779912"/><trkpt lat="35.155850264397074" lon="-120.83116312291033"/><trkpt lat="35.155856158741656" lon="-120.83149227321114"/><trkpt lat="35.15684930388126" lon="-120.8315756766775"/></trkseg><trkseg><trkpt lat="35.1561772750028" lon="-120.82928836119852"/><trkpt lat="35.15617137462429" lon="-120.82895921008549"/><trkpt lat="35.15545051722566" lon="-120.82897836977362"/><trkpt lat="35.15545838398951" lon="-120.82941723407997"/><trkpt lat="35.1561772750028" lon="-120.82928836119852"/></trkseg><trkseg><trkpt lat="35.15549769398681" lon="-120.83161155816147"/><trkpt lat="35.15548983516361" lon="-120.8311726930053"/><trkpt lat="35.15458876197602" lon="-120.83119661749946"/><trkpt lat="35.15459662053826" lon="-120.83163547782372"/><trkpt lat="35.154146083758285" lon="-120.83164743725675"/><trkpt lat="35.154151976539936" lon="-120.8319765807995"/><trkpt lat="35.15532533649186" lon="-120.83205520653847"/><trkpt lat="35.155319443753584" lon="-120.83172605825284"/><trkpt lat="35.15549769398681" lon="-120.83161155816147"/></trkseg><trkseg><trkpt lat="35.155182162496935" lon="-120.82909527017955"/><trkpt lat="35.15517626173841" lon="-120.8287661231167"/><trkpt lat="35.15463561867871" lon="-120.82878049369462"/><trkpt lat="35.15464151931967" lon="-120.82910963858315"/><trkpt lat="35.155182162496935" lon="-120.82909527017955"/></trkseg><trkseg><trkpt lat="35.155154617981076" lon="-120.82755925137155"/><trkpt lat="35.15514871305379" lon="-120.82723010475532"/><trkpt lat="35.15424961051574" lon="-120.82736378673732"/><trkpt lat="35.154255514949185" lon="-120.82769292976165"/><trkpt lat="35.15452977213943" lon="-120.82790517048511"/><trkpt lat="35.1545376426122" lon="-120.82834402953436"/><trkpt lat="35.15498817837576" lon="-120.82833205171659"/><trkpt lat="35.15488429667355" lon="-120.82756644069464"/><trkpt lat="35.155154617981076" lon="-120.82755925137155"/></trkseg><trkseg><trkpt lat="35.15340557629819" lon="-120.83056943700834"/><trkpt lat="35.15339967980231" lon="-120.83024029677865"/><trkpt lat="35.15213817764229" lon="-120.830273802573"/><trkpt lat="35.15224007653851" lon="-120.83092968050481"/><trkpt lat="35.15332332957" lon="-120.83101068329117"/><trkpt lat="35.15340557629819" lon="-120.83056943700834"/></trkseg><trkseg><trkpt lat="35.15328204381473" lon="-120.82870670533546"/><trkpt lat="35.153276142276695" lon="-120.82837756601008"/><trkpt lat="35.15291571355595" lon="-120.82838714747756"/><trkpt lat="35.152921615015586" lon="-120.82871628535352"/><trkpt lat="35.15328204381473" lon="-120.82870670533546"/></trkseg></trk></gpx>
