<?xml version="1.0" encoding="UTF-8"?>
<gpx version="1.1" creator="SkipperCast" xmlns="http://www.topografix.com/GPX/1/1"><metadata><name>SC26-048-A habitat research</name><desc>WGS84 coordinates. Habitat research; tracks show outlines and structure alignments, not navigation routes. Check current rules and charted hazards.</desc></metadata><wpt lat="35.268905" lon="-120.910979"><name>SC26-048-A</name><cmt>SC26-048</cmt><desc>Avila rough reef Mapped rough-rock high; 10.9 m relief across 210 m. Terrain A 80/100; not catch probability. Center 63 ft; nearby 54–92 ft MLLW. Survey-derived habitat candidate; no verified catch at this coordinate. No verified charter identity match in the reviewed AIS sample; no AIS-confirmed hotspot. Survey 2008; screen 2026-09-20. No additional flag from this depth and closure screening. Check current regulations, closures, conditions and sounder depths.</desc><link href="https://doi.org/10.5066/P9KBGELE"/><sym>Fishing Area</sym></wpt><trk><name>SC-AREA-031</name><desc>Partial nearby mapped rough-rock/bedrock footprint, clipped within 350 m of retained targets and by depth/closure screening; not the complete reef or an individual pile.</desc><trkseg><trkpt lat="35.27203033411484" lon="-120.91183353038566"/><trkpt lat="35.27142611354021" lon="-120.9133880191051"/><trkpt lat="35.27045195696662" lon="-120.91440234019812"/><trkpt lat="35.269736757155975" lon="-120.91475045227266"/><trkpt lat="35.26820487835417" lon="-120.91478972230159"/><trkpt lat="35.26693006800949" lon="-120.91405295433118"/><trkpt lat="35.26609822263566" lon="-120.91286516777117"/><trkpt lat="35.26570743132558" lon="-120.9111164880694"/><trkpt lat="35.26578045882045" lon="-120.91012534037438"/><trkpt lat="35.266384640867486" lon="-120.9085709396683"/><trkpt lat="35.26735874845997" lon="-120.907556604481"/><trkpt lat="35.26879290529712" lon="-120.90708002049385"/><trkpt lat="35.269605797395336" lon="-120.90716902890304"/><trkpt lat="35.27088064626758" lon="-120.90790570886011"/><trkpt lat="35.27171254042017" lon="-120.90909350951442"/><trkpt lat="35.271998065884475" lon="-120.90996558975776"/><trkpt lat="35.27203033411484" lon="-120.91183353038566"/></trkseg></trk></gpx>
