<?xml version="1.0" encoding="UTF-8"?>
<gpx version="1.1" creator="SkipperCast" xmlns="http://www.topografix.com/GPX/1/1"><metadata><name>SC26-120-B habitat research</name><desc>WGS84 coordinates. Habitat research; tracks show outlines and structure alignments, not navigation routes. Check current rules and charted hazards.</desc></metadata><wpt lat="35.468647" lon="-121.04368"><name>SC26-120-B</name><cmt>SC26-120</cmt><desc>Point Estero rough reef Mapped rough-rock high; 11.2 m relief across 210 m. Terrain B 72/100; not catch probability. Center 153 ft; nearby 146–184 ft MLLW. Survey-derived habitat candidate; no verified catch at this coordinate. No verified charter identity match in the reviewed AIS sample; no AIS-confirmed hotspot. Survey 2008; screen 2026-09-20. No additional flag from this depth and closure screening. Check current regulations, closures, conditions and sounder depths.</desc><link href="https://doi.org/10.5066/P9ZSTUK1"/><sym>Fishing Area</sym></wpt><trk><name>SC-AREA-098</name><desc>Partial nearby mapped rough-rock/bedrock footprint, clipped within 350 m of retained targets and by depth/closure screening; not the complete reef or an individual pile.</desc><trkseg><trkpt lat="35.48542793489667" lon="-121.04729639310317"/><trkpt lat="35.48509599934184" lon="-121.04906795453691"/><trkpt lat="35.48474622968916" lon="-121.04973773121006"/><trkpt lat="35.483770993544795" lon="-121.05075326870937"/><trkpt lat="35.48224616059224" lon="-121.05123096474183"/><trkpt lat="35.48152346144503" lon="-121.05113819930159"/><trkpt lat="35.48151990155749" lon="-121.0509178537582"/><trkpt lat="35.48188036117565" lon="-121.0509091486886"/><trkpt lat="35.48186967895961" lon="-121.05024810934242"/><trkpt lat="35.48150921948278" lon="-121.05025681735982"/><trkpt lat="35.481428006560634" lon="-121.05080985736706"/><trkpt lat="35.48124955682849" lon="-121.05092438245897"/><trkpt lat="35.480523297095935" lon="-121.05061127771312"/><trkpt lat="35.48062765108033" lon="-121.05149047354595"/><trkpt lat="35.4803590856341" lon="-121.05160717133319"/><trkpt lat="35.480200200707415" lon="-121.05293357451252"/><trkpt lat="35.479659510468906" lon="-121.05294661769386"/><trkpt lat="35.47939805454406" lon="-121.05350398921593"/><trkpt lat="35.47903759422058" lon="-121.05351268190518"/><trkpt lat="35.47894392381067" lon="-121.0532945162279"/><trkpt lat="35.47867357858357" lon="-121.05330103635146"/><trkpt lat="35.47866824489472" lon="-121.05297052929085"/><trkpt lat="35.47839789970737" lon="-121.05297705043286"/><trkpt lat="35.4784032333433" lon="-121.05330755638822"/><trkpt lat="35.477952657913555" lon="-121.05331842292318"/><trkpt lat="35.477781314909" lon="-121.05387360862339"/><trkpt lat="35.47733073928104" lon="-121.05388447175072"/><trkpt lat="35.477148731826205" lon="-121.05377864994374"/><trkpt lat="35.47714339964312" lon="-121.05344814903029"/><trkpt lat="35.47669282408149" lon="-121.05345901427603"/><trkpt lat="35.47650370507085" lon="-121.05291252994185"/><trkpt lat="35.475872899408394" lon="-121.05292774504348"/><trkpt lat="35.47586578674379" lon="-121.05248708436334"/><trkpt lat="35.47631636210665" lon="-121.05247621402602"/><trkpt lat="35.47630924771668" lon="-121.05203555104444"/><trkpt lat="35.47522786706671" lon="-121.05206164534259"/><trkpt lat="35.475480419769895" lon="-121.05095347617127"/><trkpt lat="35.475119959759375" lon="-121.05096217898907"/><trkpt lat="35.47501916461924" lon="-121.0503033713802"/><trkpt lat="35.47519761417396" lon="-121.05018885444322"/><trkpt lat="35.47536003459504" lon="-121.04908285845818"/><trkpt lat="35.47554026439418" lon="-121.04907850283593"/><trkpt lat="35.475534919548956" lon="-121.04874800943054"/><trkpt lat="35.47580348234994" lon="-121.04863131000205"/><trkpt lat="35.47588468651407" lon="-121.04807830709991"/><trkpt lat="35.47660025741034" lon="-121.04773037750915"/><trkpt lat="35.478132208965114" lon="-121.04769332613577"/><trkpt lat="35.47913238478408" lon="-121.04822019674282"/><trkpt lat="35.47911812234005" lon="-121.04733884243493"/><trkpt lat="35.47740772485026" lon="-121.04749042855269"/><trkpt lat="35.47668145722949" lon="-121.04717736839898"/><trkpt lat="35.47585793932613" lon="-121.04642583488196"/><trkpt lat="35.47569197770772" lon="-121.04731151275611"/><trkpt lat="35.47542163329858" lon="-121.04731805212678"/><trkpt lat="35.475338649929704" lon="-121.04776088830566"/><trkpt lat="35.47497997318129" lon="-121.04787976896291"/><trkpt lat="35.474821126529434" lon="-121.04920608859851"/><trkpt lat="35.47446957206473" lon="-121.04976561422087"/><trkpt lat="35.47366565959341" lon="-121.05022585447011"/><trkpt lat="35.47373974743538" lon="-121.04923221935084"/><trkpt lat="35.47337928769049" lon="-121.04924092929231"/><trkpt lat="35.473382849934474" lon="-121.04946125240343"/><trkpt lat="35.47284394113843" lon="-121.04958447638586"/><trkpt lat="35.47258605984966" lon="-121.05036213098795"/><trkpt lat="35.47222559979299" lon="-121.05037083551613"/><trkpt lat="35.47230859341732" lon="-121.04992801879878"/><trkpt lat="35.47211767839885" lon="-121.0492714128697"/><trkpt lat="35.47166710358227" lon="-121.04928229940255"/><trkpt lat="35.4716724464617" lon="-121.04961277708591"/><trkpt lat="35.471405662883114" lon="-121.04983962555211"/><trkpt lat="35.470497389871504" lon="-121.04942076087949"/><trkpt lat="35.46985055279376" lon="-121.0484445893621"/><trkpt lat="35.46956238513034" lon="-121.04734956088998"/><trkpt lat="35.46884324861283" lon="-121.04747714997636"/><trkpt lat="35.468659453337054" lon="-121.0472611981193"/><trkpt lat="35.4684720914722" lon="-121.04682493783582"/><trkpt lat="35.46855328899529" lon="-121.04627198409834"/><trkpt lat="35.46837127552769" lon="-121.04616619034181"/><trkpt lat="35.46799297321913" lon="-121.04507337249721"/><trkpt lat="35.46735502980638" lon="-121.0446480318497"/><trkpt lat="35.467346102786145" lon="-121.04409726683065"/><trkpt lat="35.4675263322885" lon="-121.04409290137207"/><trkpt lat="35.46752276075363" lon="-121.04387259494129"/><trkpt lat="35.46788321969349" lon="-121.04386386292597"/><trkpt lat="35.46796797628051" lon="-121.0435312184834"/><trkpt lat="35.468236534145724" lon="-121.04341451408271"/><trkpt lat="35.46832128942692" lon="-121.04308186775381"/><trkpt lat="35.468591633470346" lon="-121.04307531591765"/><trkpt lat="35.46867638775294" lon="-121.04274266779609"/><trkpt lat="35.46948384542559" lon="-121.04250269676386"/><trkpt lat="35.46929110335144" lon="-121.04173597751384"/><trkpt lat="35.46973988834" lon="-121.0416148937551"/><trkpt lat="35.46982106151336" lon="-121.04106192717428"/><trkpt lat="35.470181519709605" lon="-121.04105318187602"/><trkpt lat="35.47017257567087" lon="-121.04050239876935"/><trkpt lat="35.46963188854527" lon="-121.04051552034105"/><trkpt lat="35.46945702607426" lon="-121.0408503610095"/><trkpt lat="35.46882622421623" lon="-121.04086566635459"/><trkpt lat="35.468829801352825" lon="-121.04108597594393"/><trkpt lat="35.468469343068676" lon="-121.04109472065996"/><trkpt lat="35.468476496041795" lon="-121.0415353379912"/><trkpt lat="35.46802949886" lon="-121.04176657370951"/><trkpt lat="35.468034861843655" lon="-121.04209703502691"/><trkpt lat="35.46839532037005" lon="-121.04208829492362"/><trkpt lat="35.46840425678539" lon="-121.04263906643472"/><trkpt lat="35.46786714260164" lon="-121.04287248004871"/><trkpt lat="35.46750311012979" lon="-121.04266091026507"/><trkpt lat="35.46749596143493" lon="-121.04222029794634"/><trkpt lat="35.467225617480615" lon="-121.04222685237922"/><trkpt lat="35.467142651426535" lon="-121.04266964752571"/><trkpt lat="35.466872307383696" lon="-121.04267620036943"/><trkpt lat="35.46687945430587" lon="-121.0431168094067"/><trkpt lat="35.46669922488937" lon="-121.04312117693881"/><trkpt lat="35.46644138379342" lon="-121.04389879005711"/><trkpt lat="35.46607199463748" lon="-121.04335676536361"/><trkpt lat="35.46552773353924" lon="-121.0431495649526"/><trkpt lat="35.46569188085055" lon="-121.04215384191605"/><trkpt lat="35.46604161343865" lon="-121.04148419647466"/><trkpt lat="35.464601566988804" lon="-121.04162931277389"/><trkpt lat="35.46458905001183" lon="-121.04085826948786"/><trkpt lat="35.46494950847704" lon="-121.04084952496808"/><trkpt lat="35.464841503752496" lon="-121.03975021784724"/><trkpt lat="35.464124165991265" lon="-121.03998801308323"/><trkpt lat="35.464129533334315" lon="-121.04031845807393"/><trkpt lat="35.463859189536805" lon="-121.04032501805705"/><trkpt lat="35.46386455592266" lon="-121.04065546203067"/><trkpt lat="35.463505886005194" lon="-121.04077435458616"/><trkpt lat="35.46323017614561" lon="-121.04045047146714"/><trkpt lat="35.4628697176637" lon="-121.04045921721281"/><trkpt lat="35.46268233253623" lon="-121.04002300454056"/><trkpt lat="35.46241198872165" lon="-121.04002956516214"/><trkpt lat="35.46222102285269" lon="-121.0393730646034"/><trkpt lat="35.46275634048479" lon="-121.03902949976538"/><trkpt lat="35.4627455981965" lon="-121.03836862161444"/><trkpt lat="35.46300877812179" lon="-121.03792146864237"/><trkpt lat="35.463189007087394" lon="-121.03791709010554"/><trkpt lat="35.46318184182783" lon="-121.0374765025672"/><trkpt lat="35.463628830806066" lon="-121.03724525866286"/><trkpt lat="35.46370102270027" lon="-121.03614159326148"/><trkpt lat="35.46441655881104" lon="-121.03579361719598"/><trkpt lat="35.464407592029204" lon="-121.03524287513132"/><trkpt lat="35.464677934978134" lon="-121.0352362980094"/><trkpt lat="35.46468331540194" lon="-121.03556674432343"/><trkpt lat="35.465762893833926" lon="-121.03543028912412"/><trkpt lat="35.466757738058256" lon="-121.03562647689365"/><trkpt lat="35.467296630410814" lon="-121.03550317163976"/><trkpt lat="35.46738136374164" lon="-121.03517052197297"/><trkpt lat="35.46812917431645" lon="-121.03680528261789"/><trkpt lat="35.46815962964951" lon="-121.0386778946503"/><trkpt lat="35.46764042291179" lon="-121.04001286410109"/><trkpt lat="35.468628103508905" lon="-121.03976849431349"/><trkpt lat="35.470077093542635" lon="-121.04017411634297"/><trkpt lat="35.47108445366313" lon="-121.04114147582901"/><trkpt lat="35.47117993331137" lon="-121.04146976356638"/><trkpt lat="35.47090958964375" lon="-121.0414763214018"/><trkpt lat="35.47091495379794" lon="-121.0418067944448"/><trkpt lat="35.47145564122644" lon="-121.04179368089626"/><trkpt lat="35.47174385943701" lon="-121.04288871247986"/><trkpt lat="35.47255131676752" lon="-121.04264873230396"/><trkpt lat="35.47336413528525" lon="-121.04273923021056"/><trkpt lat="35.47409041311232" lon="-121.04305223842836"/><trkpt lat="35.47491395063726" lon="-121.04380372091246"/><trkpt lat="35.475157489153496" lon="-121.0421447162408"/><trkpt lat="35.47603538402852" lon="-121.04069071978289"/><trkpt lat="35.47728445899424" lon="-121.0398889337062"/><trkpt lat="35.47881640319269" lon="-121.03985173263196"/><trkpt lat="35.47954268774013" lon="-121.04016473329855"/><trkpt lat="35.480550050082186" lon="-121.04113220047738"/><trkpt lat="35.48120588664315" lon="-121.04265929471127"/><trkpt lat="35.48122197070332" lon="-121.04365084121761"/><trkpt lat="35.48293235951133" lon="-121.04349916289691"/><trkpt lat="35.484206468455426" lon="-121.04423980864529"/><trkpt lat="35.48513082708615" lon="-121.04565027362925"/><trkpt lat="35.48542793489667" lon="-121.04729639310317"/></trkseg><trkseg><trkpt lat="35.47772973430887" lon="-121.05067874488994"/><trkpt lat="35.47762715624681" lon="-121.0499097491675"/><trkpt lat="35.477174800853945" lon="-121.04981046758476"/><trkpt lat="35.477098929613774" lon="-121.05069397812895"/><trkpt lat="35.47682858472248" lon="-121.05070050651508"/><trkpt lat="35.47683392438906" lon="-121.05103100559948"/><trkpt lat="35.477194384311844" lon="-121.05102230253888"/><trkpt lat="35.47718904457461" lon="-121.05069180198095"/><trkpt lat="35.47772973430887" lon="-121.05067874488994"/></trkseg><trkseg><trkpt lat="35.47657781397988" lon="-121.0519188611631"/><trkpt lat="35.47656891814084" lon="-121.05136803085969"/><trkpt lat="35.47629857311721" lon="-121.05137455686167"/><trkpt lat="35.47621735382776" lon="-121.05192756002391"/><trkpt lat="35.47657781397988" lon="-121.0519188611631"/></trkseg><trkseg><trkpt lat="35.47183308132006" lon="-121.04839666945712"/><trkpt lat="35.47182773508989" lon="-121.04806619135616"/><trkpt lat="35.47146727548131" lon="-121.04807490588736"/><trkpt lat="35.471477966895975" lon="-121.04873585922999"/><trkpt lat="35.471748311710684" lon="-121.04872932555581"/><trkpt lat="35.47183308132006" lon="-121.04839666945712"/></trkseg><trkseg><trkpt lat="35.47064639789663" lon="-121.04192350842024"/><trkpt lat="35.47063924596295" lon="-121.0414828791499"/><trkpt lat="35.470367114052145" lon="-121.04137927988562"/><trkpt lat="35.470006655796645" lon="-121.04138802378851"/><trkpt lat="35.47001202007476" lon="-121.04171849311976"/><trkpt lat="35.46965156172483" lon="-121.04172723539442"/><trkpt lat="35.4696587125946" lon="-121.04216785934126"/><trkpt lat="35.47064639789663" lon="-121.04192350842024"/></trkseg><trkseg><trkpt lat="35.470081673414796" lon="-121.04601460236626"/><trkpt lat="35.47007632089033" lon="-121.0456841319011"/><trkpt lat="35.46962574688569" lon="-121.045695037625"/><trkpt lat="35.46963109932162" lon="-121.0460255062489"/><trkpt lat="35.470081673414796" lon="-121.04601460236626"/></trkseg><trkseg><trkpt lat="35.467802752869694" lon="-121.03890695639627"/><trkpt lat="35.4677054759762" lon="-121.0384685324663"/><trkpt lat="35.46734501819005" lon="-121.03847728849922"/><trkpt lat="35.46744945574331" lon="-121.0393563216584"/><trkpt lat="35.467719799222884" lon="-121.03934975756482"/><trkpt lat="35.467802752869694" lon="-121.03890695639627"/></trkseg><trkseg><trkpt lat="35.467368289893365" lon="-121.03990927321769"/><trkpt lat="35.467362921007016" lon="-121.03957881506005"/><trkpt lat="35.46682223392846" lon="-121.03959194145392"/><trkpt lat="35.46683297058403" lon="-121.04025285343819"/><trkpt lat="35.467283543330744" lon="-121.04024191848289"/><trkpt lat="35.467368289893365" lon="-121.03990927321769"/></trkseg><trkseg><trkpt lat="35.46684012634549" lon="-121.04069346162186"/><trkpt lat="35.46683475967506" lon="-121.04036300546954"/><trkpt lat="35.46647430142762" lon="-121.04037175276812"/><trkpt lat="35.46647966802703" lon="-121.04070220744767"/><trkpt lat="35.46684012634549" lon="-121.04069346162186"/></trkseg></trk></gpx>
