<?xml version="1.0" encoding="UTF-8"?>
<gpx version="1.1" creator="SkipperCast" xmlns="http://www.topografix.com/GPX/1/1"><metadata><name>SC26-111-B habitat research</name><desc>WGS84 coordinates. Habitat research; tracks show outlines and structure alignments, not navigation routes. Check current rules and charted hazards.</desc></metadata><wpt lat="35.450111" lon="-121.023747"><name>SC26-111-B</name><cmt>SC26-111</cmt><desc>Point Estero rough reef Mapped rough-rock high; 9.0 m relief across 210 m. Terrain B 66/100; not catch probability. Center 148 ft; nearby 145–182 ft MLLW. Survey-derived habitat candidate; no verified catch at this coordinate. No verified charter identity match in the reviewed AIS sample; no AIS-confirmed hotspot. Survey 2008; screen 2026-09-20. No additional flag from this depth and closure screening. Check current regulations, closures, conditions and sounder depths.</desc><link href="https://doi.org/10.5066/P9ZSTUK1"/><sym>Fishing Area</sym></wpt><trk><name>SC-AREA-089</name><desc>Partial nearby mapped rough-rock/bedrock footprint, clipped within 350 m of retained targets and by depth/closure screening; not the complete reef or an individual pile.</desc><trkseg><trkpt lat="35.45246602396921" lon="-121.0216511895568"/><trkpt lat="35.4521055689215" lon="-121.02166001566881"/><trkpt lat="35.4519307572859" lon="-121.02199482013401"/><trkpt lat="35.45148018833896" lon="-121.02200585061618"/><trkpt lat="35.451474772531505" lon="-121.02167546098778"/><trkpt lat="35.451114317419226" lon="-121.02168428666883"/><trkpt lat="35.45121345695374" lon="-121.02223272785345"/><trkpt lat="35.45220470876839" lon="-121.02220846349061"/><trkpt lat="35.45221734106796" lon="-121.02297937997098"/><trkpt lat="35.45185688571598" lon="-121.02298820007888"/><trkpt lat="35.45180103418171" lon="-121.02508288343734"/><trkpt lat="35.451172038689144" lon="-121.02520843154969"/><trkpt lat="35.45116482915196" lon="-121.02476791289176"/><trkpt lat="35.450804373347665" lon="-121.0247767246815"/><trkpt lat="35.450642165910374" lon="-121.02588242009794"/><trkpt lat="35.45037182385405" lon="-121.02588902510008"/><trkpt lat="35.45037542670842" lon="-121.02610928239764"/><trkpt lat="35.450014970565114" lon="-121.0261180879493"/><trkpt lat="35.45017718047182" lon="-121.0250124015487"/><trkpt lat="35.44972661057245" lon="-121.02502341449741"/><trkpt lat="35.44973201698738" lon="-121.02535379764869"/><trkpt lat="35.449011104929" lon="-121.02537141491534"/><trkpt lat="35.44872634429367" lon="-121.02449701047846"/><trkpt lat="35.448185660448125" lon="-121.02451022872754"/><trkpt lat="35.44827216883463" lon="-121.02428777434676"/><trkpt lat="35.447814386721994" lon="-121.02385829040264"/><trkpt lat="35.44789007126836" lon="-121.02297508586206"/><trkpt lat="35.44761612124489" lon="-121.02276145054306"/><trkpt lat="35.44760709869259" lon="-121.02221082728127"/><trkpt lat="35.44805586314344" lon="-121.02208967428118"/><trkpt lat="35.44806308190693" lon="-121.02253017528412"/><trkpt lat="35.448333423518434" lon="-121.02252355961173"/><trkpt lat="35.448688464932424" lon="-121.02218436023641"/><trkpt lat="35.44868485506557" lon="-121.0219641080575"/><trkpt lat="35.44922553803459" lon="-121.02195087253497"/><trkpt lat="35.44922012237397" lon="-121.02162049213293"/><trkpt lat="35.44805225315945" lon="-121.02186942383844"/><trkpt lat="35.447956723611" lon="-121.02154125455586"/><trkpt lat="35.44794588947922" lon="-121.02088050437467"/><trkpt lat="35.44874607541295" lon="-121.02019988417868"/><trkpt lat="35.4499175538504" lon="-121.02017118113544"/><trkpt lat="35.45000224692594" lon="-121.0198385898978"/><trkpt lat="35.45135937312525" lon="-121.02013585203926"/><trkpt lat="35.452456995287115" lon="-121.02110053362698"/><trkpt lat="35.45246602396921" lon="-121.0216511895568"/></trkseg><trkseg><trkpt lat="35.450530426191634" lon="-121.02456307586769"/><trkpt lat="35.45043129729906" lon="-121.0240146359072"/><trkpt lat="35.4501609555381" lon="-121.02402124710467"/><trkpt lat="35.45016997039398" lon="-121.02457188836469"/><trkpt lat="35.450530426191634" lon="-121.02456307586769"/></trkseg><trkseg><trkpt lat="35.45030329333074" lon="-121.02170414387837"/><trkpt lat="35.4502978768528" lon="-121.02137375912064"/><trkpt lat="35.449665274731245" lon="-121.02127907826902"/><trkpt lat="35.44967249673532" lon="-121.02171958782625"/><trkpt lat="35.45030329333074" lon="-121.02170414387837"/></trkseg><trkseg><trkpt lat="35.44997712106897" lon="-121.02380539857573"/><trkpt lat="35.44997171038439" lon="-121.02347501473157"/><trkpt lat="35.4496112547902" lon="-121.02348383189882"/><trkpt lat="35.44961666540317" lon="-121.0238142142715"/><trkpt lat="35.44997712106897" lon="-121.02380539857573"/></trkseg></trk></gpx>
