<?xml version="1.0" encoding="UTF-8"?>
<gpx version="1.1" creator="SkipperCast" xmlns="http://www.topografix.com/GPX/1/1"><metadata><name>SC26-038-A habitat research</name></metadata><wpt lat="35.174864" lon="-120.818196"><name>SC26-038-A</name><desc>Avila rough reef Mapped rough-rock high; 11.8 m relief across 210 m. Terrain A 77/100; not catch probability. Center 53 ft; nearby 44–84 ft MLLW. Survey-derived habitat candidate; no verified catch at this coordinate. No verified charter identity match in the reviewed AIS sample; no AIS-confirmed hotspot. Survey 2008; screen 2026-09-20. No additional flag from this depth and closure screening. Check current regulations, closures, conditions and sounder depths.</desc><link href="https://doi.org/10.5066/P9KBGELE"/><sym>Fishing Area</sym></wpt><trk><name>SC-AREA-020</name><desc>Partial mapped habitat footprint clipped to a 175-m search window to retain complete depth coverage; not the entire reef or a single pile.</desc><trkseg><trkpt lat="35.17416379871494" lon="-120.81684267020894"/><trkpt lat="35.17434401106063" lon="-120.81683785025143"/><trkpt lat="35.174263797629216" lon="-120.81738896249487"/><trkpt lat="35.1738132665822" lon="-120.81740100923233"/><trkpt lat="35.17381128826555" lon="-120.81729126936361"/><trkpt lat="35.17372118205825" lon="-120.81729367879993"/><trkpt lat="35.173713776374925" lon="-120.81688292373667"/><trkpt lat="35.17334499264687" lon="-120.81767885935083"/><trkpt lat="35.17329812532237" lon="-120.81842618054706"/><trkpt lat="35.17355984401008" lon="-120.81927425706087"/><trkpt lat="35.173846882768906" lon="-120.81926658863621"/><trkpt lat="35.17384885929775" lon="-120.81937632869735"/><trkpt lat="35.173938965628295" lon="-120.81937392154754"/><trkpt lat="35.17394291840113" lon="-120.81959340194362"/><trkpt lat="35.17430532002463" lon="-120.81969351490251"/><trkpt lat="35.17431072707362" lon="-120.8199937932303"/><trkpt lat="35.17474386681621" lon="-120.82011135527603"/><trkpt lat="35.17530318378854" lon="-120.82003878890026"/><trkpt lat="35.1752964897136" lon="-120.81966703906944"/><trkpt lat="35.175476702364996" lon="-120.81966222514276"/><trkpt lat="35.17547472601602" lon="-120.8195524828732"/><trkpt lat="35.175990902980146" lon="-120.81953869357577"/><trkpt lat="35.17627097710018" lon="-120.81906414698369"/><trkpt lat="35.176436658281524" lon="-120.81834229488825"/><trkpt lat="35.17636291205013" lon="-120.81759816985219"/><trkpt lat="35.17606096641344" lon="-120.81694506408678"/><trkpt lat="35.175874495723725" lon="-120.81672367630988"/><trkpt lat="35.17587581575878" lon="-120.81679687888496"/><trkpt lat="35.17560549731386" lon="-120.81680410935073"/><trkpt lat="35.175607476159186" lon="-120.81691385159486"/><trkpt lat="35.17524705151888" lon="-120.81692349158247"/><trkpt lat="35.17523715643036" lon="-120.81637478288702"/><trkpt lat="35.17535201329562" lon="-120.81637171014981"/><trkpt lat="35.17498410266073" lon="-120.81628064071077"/><trkpt lat="35.17497079632702" lon="-120.81660149729973"/><trkpt lat="35.17461037172391" lon="-120.81661113843879"/><trkpt lat="35.174604823698616" lon="-120.81630351047791"/><trkpt lat="35.174157281806046" lon="-120.81648128350635"/><trkpt lat="35.17416379871494" lon="-120.81684267020894"/></trkseg><trkseg><trkpt lat="35.175647032206655" lon="-120.81910869872324"/><trkpt lat="35.17564110133243" lon="-120.81877947138138"/><trkpt lat="35.17609163265754" lon="-120.81876743143415"/><trkpt lat="35.176097563630215" lon="-120.81909666058976"/><trkpt lat="35.175647032206655" lon="-120.81910869872324"/></trkseg><trkseg><trkpt lat="35.17526090047105" lon="-120.81769168420534"/><trkpt lat="35.1752549658018" lon="-120.8173624587314"/><trkpt lat="35.17552528436309" lon="-120.81735523020767"/><trkpt lat="35.17553121909145" lon="-120.81768445676988"/><trkpt lat="35.17526090047105" lon="-120.81769168420534"/></trkseg></trk></gpx>
