<?xml version="1.0" encoding="UTF-8"?>
<gpx version="1.1" creator="SkipperCast" xmlns="http://www.topografix.com/GPX/1/1"><metadata><name>SC26-010-A habitat research</name><desc>WGS84 coordinates. Habitat research; tracks show outlines and structure alignments, not navigation routes. Check current rules and charted hazards.</desc></metadata><wpt lat="35.491555" lon="-121.066714"><name>SC26-010-A</name><cmt>SC26-010</cmt><desc>Estero reef crest Broad rough-rock high with sloping flanks. Terrain A 80/100; not catch probability. Center 135 ft; nearby 125–165 ft MLLW. Survey-derived habitat candidate; no verified catch at this coordinate. No verified charter identity match in the reviewed AIS sample; no AIS-confirmed hotspot. Survey 2008; screen 2026-09-20. No additional point-specific flag from this screening. Check current regulations, closures, conditions and sounder depths.</desc><link href="https://doi.org/10.5066/P9ZSTUK1"/><sym>Fishing Area</sym></wpt><trk><name>SC-AREA-100</name><desc>Partial nearby mapped rough-rock/bedrock footprint, clipped within 350 m of retained targets and by depth/closure screening; not the complete reef or an individual pile.</desc><trkseg><trkpt lat="35.494679382512466" lon="-121.06757597681481"/><trkpt lat="35.49407327846178" lon="-121.06913376178036"/><trkpt lat="35.49309787667513" lon="-121.07014919526927"/><trkpt lat="35.492382238894116" lon="-121.07049700714809"/><trkpt lat="35.49211189151517" lon="-121.07050347287951"/><trkpt lat="35.49182391309198" lon="-121.06940805770722"/><trkpt lat="35.491553565861636" lon="-121.06941452695318"/><trkpt lat="35.491276163530486" lon="-121.0689802470033"/><trkpt lat="35.49028841806494" lon="-121.06922434375811"/><trkpt lat="35.490157710573406" lon="-121.06669222933428"/><trkpt lat="35.49042452516712" lon="-121.06646537941975"/><trkpt lat="35.49050050764495" lon="-121.06558173167893"/><trkpt lat="35.490769087199695" lon="-121.06546506350404"/><trkpt lat="35.49076025013744" lon="-121.06491413193785"/><trkpt lat="35.49111717662199" lon="-121.06468511286809"/><trkpt lat="35.49111364064438" lon="-121.06446473936407"/><trkpt lat="35.491383987103845" lon="-121.06445825364318"/><trkpt lat="35.491573057405645" lon="-121.06500486668544"/><trkpt lat="35.49202363494039" lon="-121.06499405993499"/><trkpt lat="35.492011258961334" lon="-121.06422274403518"/><trkpt lat="35.491560681631256" lon="-121.06423355508676"/><trkpt lat="35.49146349210123" lon="-121.06379496848602"/><trkpt lat="35.491733838437874" lon="-121.06378848043799"/><trkpt lat="35.49181687811861" lon="-121.06334556714121"/><trkpt lat="35.49217557056562" lon="-121.06322672615515"/><trkpt lat="35.49226214722787" lon="-121.06300418634126"/><trkpt lat="35.4928046090205" lon="-121.06310139343618"/><trkpt lat="35.493534378111434" lon="-121.06363503457828"/><trkpt lat="35.49436486968394" lon="-121.06482766975633"/><trkpt lat="35.49464935615941" lon="-121.06570271737085"/><trkpt lat="35.494679382512466" lon="-121.06757597681481"/></trkseg><trkseg><trkpt lat="35.493112090931135" lon="-121.06540888080806"/><trkpt lat="35.49310678853948" lon="-121.06507831225409"/><trkpt lat="35.49274632656146" lon="-121.06508695764258"/><trkpt lat="35.49275162888298" lon="-121.0654175247218"/><trkpt lat="35.493112090931135" lon="-121.06540888080806"/></trkseg></trk><trk><name>SC-DRIFT-010</name><desc>Principal axis of raised mapped rough habitat within 180 m of target. Optional structure alignment; actual drift depends on measured wind/current. Not a navigation route.</desc><trkseg><trkpt lat="35.490159587748344" lon="-121.06810940817878"/><trkpt lat="35.49295039427009" lon="-121.06531854315463"/></trkseg></trk></gpx>
