<?xml version="1.0" encoding="UTF-8"?>
<gpx version="1.1" creator="SkipperCast" xmlns="http://www.topografix.com/GPX/1/1"><metadata><name>SC26-104-B habitat research</name></metadata><wpt lat="35.438616" lon="-120.988227"><name>SC26-104-B</name><desc>Point Estero rough reef Mapped rough-rock high; 7.0 m relief across 210 m. Terrain B 65/100; not catch probability. Center 99 ft; nearby 96–118 ft MLLW. Survey-derived habitat candidate; no verified catch at this coordinate. No verified charter identity match in the reviewed AIS sample; no AIS-confirmed hotspot. Survey 2008; screen 2026-09-20. No additional flag from this depth and closure screening. Check current regulations, closures, conditions and sounder depths.</desc><link href="https://doi.org/10.5066/P9ZSTUK1"/><sym>Fishing Area</sym></wpt><trk><name>SC-AREA-085</name><desc>Partial nearby mapped rough-rock/bedrock footprint, clipped within 350 m of retained targets and by depth/closure screening; not the complete reef or an individual pile.</desc><trkseg><trkpt lat="35.446983883234054" lon="-120.98994697524664"/><trkpt lat="35.44663993800705" lon="-120.99094703144416"/><trkpt lat="35.44654615918689" lon="-120.99072902957688"/><trkpt lat="35.44618571057748" lon="-120.99073799163084"/><trkpt lat="35.44619121034318" lon="-120.99106835341527"/><trkpt lat="35.44646337992974" lon="-120.99117175397555"/><trkpt lat="35.446378766351636" lon="-120.99150435664295"/><trkpt lat="35.445404021893324" lon="-120.99252006856841"/><trkpt lat="35.44486701149099" lon="-120.99275373686582"/><trkpt lat="35.44550878495887" lon="-120.99339878850436"/><trkpt lat="35.44616519515043" lon="-120.99492481667212"/><trkpt lat="35.446179828627066" lon="-120.9958057836681"/><trkpt lat="35.44599960375316" lon="-120.99581025333704"/><trkpt lat="35.44619628361069" lon="-120.99679687229738"/><trkpt lat="35.44601788644549" lon="-120.99691146052285"/><trkpt lat="35.44601423070991" lon="-120.99669121900635"/><trkpt lat="35.44574389324283" lon="-120.99669792049318"/><trkpt lat="35.445738408941196" lon="-120.99636755939612"/><trkpt lat="35.44546807151532" lon="-120.99637426189702"/><trkpt lat="35.4459405658167" lon="-120.99768453887836"/><trkpt lat="35.44514964385003" lon="-120.99891594937951"/><trkpt lat="35.44407924543673" lon="-120.99960343385706"/><trkpt lat="35.44380525678492" lon="-120.99938988926552"/><trkpt lat="35.443884415159374" lon="-120.99872695052055"/><trkpt lat="35.443248148332266" lon="-120.99841221873866"/><trkpt lat="35.44304965543261" lon="-120.99731551409279"/><trkpt lat="35.44214852970332" lon="-120.99733784263486"/><trkpt lat="35.44169431223065" lon="-120.99712877672596"/><trkpt lat="35.44016605258142" lon="-120.99738696193899"/><trkpt lat="35.43997851830562" lon="-120.9969509768302"/><trkpt lat="35.43994743694293" lon="-120.99507906498533"/><trkpt lat="35.440116685028364" lon="-120.99441391912944"/><trkpt lat="35.44055260554348" lon="-120.99352183444036"/><trkpt lat="35.440822942717205" lon="-120.99351512361835"/><trkpt lat="35.44099401300936" lon="-120.99296008126689"/><trkpt lat="35.44152736157972" lon="-120.99250619805964"/><trkpt lat="35.442069867061036" lon="-120.99260288414766"/><trkpt lat="35.44186948974744" lon="-120.99139609747289"/><trkpt lat="35.44132331800263" lon="-120.99107919172832"/><trkpt lat="35.44122770668918" lon="-120.9907510899055"/><trkpt lat="35.440867257756885" lon="-120.99076005010306"/><trkpt lat="35.440694365023475" lon="-120.99120498259312"/><trkpt lat="35.43944561928469" lon="-120.9920071150517"/><trkpt lat="35.43791370952586" lon="-120.99204516849619"/><trkpt lat="35.43736937157514" lon="-120.9918383811223"/><trkpt lat="35.43663931168948" lon="-120.99130575090156"/><trkpt lat="35.435808138116336" lon="-120.99011473108217"/><trkpt lat="35.43579346681995" lon="-120.98923388015352"/><trkpt lat="35.435523130131244" lon="-120.98924060404097"/><trkpt lat="35.4354165052343" lon="-120.98825189319422"/><trkpt lat="35.43549560441839" lon="-120.98758901577979"/><trkpt lat="35.43639305382963" lon="-120.98734637004448"/><trkpt lat="35.43692638129232" lon="-120.98689247816434"/><trkpt lat="35.43673513640063" lon="-120.98623632155972"/><trkpt lat="35.43700547253547" lon="-120.98622958732909"/><trkpt lat="35.43699996076268" lon="-120.98589926405512"/><trkpt lat="35.43636733913945" lon="-120.98580487281329"/><trkpt lat="35.43636182629047" lon="-120.9854745522321"/><trkpt lat="35.43707169362852" lon="-120.98479594076659"/><trkpt lat="35.43778707342933" lon="-120.9844476433625"/><trkpt lat="35.43823763307182" lon="-120.98443640919388"/><trkpt lat="35.438335099407595" lon="-120.98487460021613"/><trkpt lat="35.43914794528403" lon="-120.98496449300548"/><trkpt lat="35.4391534599026" lon="-120.98529482486327"/><trkpt lat="35.43960953348487" lon="-120.98561392863435"/><trkpt lat="35.43961504638865" lon="-120.98594426250978"/><trkpt lat="35.43781280633622" lon="-120.98598916636759"/><trkpt lat="35.43781831797218" lon="-120.98631949297997"/><trkpt lat="35.437185696618" lon="-120.9862250977922"/><trkpt lat="35.43719304429248" lon="-120.98666552994395"/><trkpt lat="35.438186113643354" lon="-120.98675095158113"/><trkpt lat="35.4382725521148" lon="-120.98652848824416"/><trkpt lat="35.4389033363614" lon="-120.98651277628765"/><trkpt lat="35.4393575702211" lon="-120.98672177516048"/><trkpt lat="35.4406191385652" lon="-120.98669035251697"/><trkpt lat="35.44107153544702" lon="-120.98678924301349"/><trkpt lat="35.441167157362" lon="-120.98711733899157"/><trkpt lat="35.441709665984106" lon="-120.9872139883696"/><trkpt lat="35.44180528683658" lon="-120.98754208746158"/><trkpt lat="35.44234595907272" lon="-120.98752862512268"/><trkpt lat="35.443344535478005" lon="-120.98794440924163"/><trkpt lat="35.443614871600566" lon="-120.98793767907999"/><trkpt lat="35.44360385472419" lon="-120.98727697792629"/><trkpt lat="35.4429730706728" lon="-120.9872926866455"/><trkpt lat="35.442336777011676" lon="-120.98697804958226"/><trkpt lat="35.44233126657091" lon="-120.98664770437755"/><trkpt lat="35.44206093060533" lon="-120.9866544385334"/><trkpt lat="35.44178140873402" lon="-120.98611060113467"/><trkpt lat="35.44303011103655" lon="-120.9853083545015"/><trkpt lat="35.44456201315078" lon="-120.98527016623045"/><trkpt lat="35.445106360896574" lon="-120.98547692481617"/><trkpt lat="35.445200148899396" lon="-120.98569491631496"/><trkpt lat="35.445207499942455" lon="-120.98613539197872"/><trkpt lat="35.44493716419108" lon="-120.98614212856214"/><trkpt lat="35.4449445135555" lon="-120.98658260291437"/><trkpt lat="35.44539507325536" lon="-120.9865713776772"/><trkpt lat="35.44548885934394" lon="-120.98678937130678"/><trkpt lat="35.445851144070375" lon="-120.98689051173727"/><trkpt lat="35.44613066324252" lon="-120.9874343787113"/><trkpt lat="35.446492947514" lon="-120.98753552272292"/><trkpt lat="35.44649661999429" lon="-120.98775576430616"/><trkpt lat="35.44685706792447" lon="-120.98774678885285"/><trkpt lat="35.446983883234054" lon="-120.98994697524664"/></trkseg><trkseg><trkpt lat="35.446176542294126" lon="-120.99018738885565"/><trkpt lat="35.44607725940643" lon="-120.9896390280437"/><trkpt lat="35.44570947269139" lon="-120.98920751541205"/><trkpt lat="35.445439136451725" lon="-120.98921424184762"/><trkpt lat="35.44536003109946" lon="-120.98987720017595"/><trkpt lat="35.44563220157487" lon="-120.98998059574657"/><trkpt lat="35.445729649204694" lon="-120.99041883411842"/><trkpt lat="35.446176542294126" lon="-120.99018738885565"/></trkseg><trkseg><trkpt lat="35.44587134389997" lon="-120.98810183084109"/><trkpt lat="35.44586583605983" lon="-120.98777147096597"/><trkpt lat="35.44550538806492" lon="-120.98778044598107"/><trkpt lat="35.44551089583215" lon="-120.98811080438512"/><trkpt lat="35.44587134389997" lon="-120.98810183084109"/></trkseg><trkseg><trkpt lat="35.444870931755624" lon="-120.98757591470402"/><trkpt lat="35.44486542261064" lon="-120.98724555902366"/><trkpt lat="35.44441302613232" lon="-120.98714666235715"/><trkpt lat="35.44451048374456" lon="-120.98758489026157"/><trkpt lat="35.444870931755624" lon="-120.98757591470402"/></trkseg><trkseg><trkpt lat="35.444624458037374" lon="-120.98901418392359"/><trkpt lat="35.444618952860864" lon="-120.98868382895816"/><trkpt lat="35.44416472195887" lon="-120.98847480673373"/><trkpt lat="35.44417206267487" lon="-120.98891527750965"/><trkpt lat="35.444624458037374" lon="-120.98901418392359"/></trkseg><trkseg><trkpt lat="35.44264715203629" lon="-120.99479177421753"/><trkpt lat="35.44263983303103" lon="-120.99435131015997"/><trkpt lat="35.44200904613844" lon="-120.99436696313182"/><trkpt lat="35.44201453541575" lon="-120.99469730858613"/><trkpt lat="35.44264715203629" lon="-120.99479177421753"/></trkseg><trkseg><trkpt lat="35.442386330338806" lon="-120.98995116045745"/><trkpt lat="35.442375324810094" lon="-120.98929046852481"/><trkpt lat="35.44210498840712" lon="-120.98929719385582"/><trkpt lat="35.44211599382658" lon="-120.98995788358222"/><trkpt lat="35.442386330338806" lon="-120.98995116045745"/></trkseg><trkseg><trkpt lat="35.44159323362371" lon="-120.99647032126965"/><trkpt lat="35.44158774925371" lon="-120.99613997717769"/><trkpt lat="35.44122547085186" lon="-120.99603879928483"/><trkpt lat="35.44123278344907" lon="-120.99647925609322"/><trkpt lat="35.44159323362371" lon="-120.99647032126965"/></trkseg><trkseg><trkpt lat="35.44086684902611" lon="-120.99615784960775"/><trkpt lat="35.44076942281073" lon="-120.99571962937874"/><trkpt lat="35.44040897275258" lon="-120.99572856727707"/><trkpt lat="35.440416286336074" lon="-120.99616901955427"/><trkpt lat="35.44086684902611" lon="-120.99615784960775"/></trkseg></trk></gpx>
