{"type":"FeatureCollection","crs":{"type":"name","properties":{"name":"EPSG:4326"}},"features":[{"type":"Feature","geometry":{"type":"Polygon","coordinates":[[[-120.624478029066,34.7375287885891],[-120.624087042728,34.7374362650575],[-120.62340013337,34.7375097531183],[-120.622943277166,34.7374716814256],[-120.622396001935,34.7370291027071],[-120.622093809572,34.7367102542203],[-120.621729752031,34.7365365538513],[-120.621551291819,34.7366079380537],[-120.621239582703,34.7365032410055],[-120.620885042814,34.7362748137087],[-120.620683867801,34.735911764121],[-120.620440083897,34.7359464480865],[-120.619745281042,34.7357085013071],[-120.619469262892,34.7355585948461],[-120.619133759201,34.7350374927633],[-120.618574585784,34.7347947884025],[-120.618034448567,34.7345068730038],[-120.617939269368,34.7344569047175],[-120.617518105026,34.7342879627261],[-120.617206395911,34.7341095029999],[-120.616809025247,34.7338858337001],[-120.616452106618,34.7335431920008],[-120.61624985183,34.7332862099786],[-120.616256989843,34.7329102551903],[-120.61617264792,34.7326131242542],[-120.615966696564,34.7325461971314],[-120.615864379352,34.7326604115825],[-120.615662125462,34.7323748770044],[-120.615552669338,34.7322939744999],[-120.61556651058,34.7322411146007],[-120.61531948286,34.7317704930879],[-120.61504108597,34.7313897799358],[-120.615088674223,34.7312565290323],[-120.614824554258,34.7311351772951],[-120.614855486846,34.730771119538],[-120.614950666046,34.7304832048869],[-120.614791242032,34.7303404376516],[-120.614776966006,34.7301572185999],[-120.614648474581,34.7299644820137],[-120.614574710319,34.7297550901466],[-120.614401010279,34.7295956660515],[-120.614370077691,34.7293624784121],[-120.614101197553,34.7289103810969],[-120.61373951965,34.7287842691285],[-120.613363564822,34.7286296043864],[-120.613099444857,34.7282726852143],[-120.613051855707,34.7280561541878],[-120.61245461079,34.7272590349259],[-120.612133383126,34.7269116339614],[-120.612126245113,34.7266760673099],[-120.611990615675,34.7262858352894],[-120.611954922914,34.7258813276136],[-120.611947785799,34.725555340897],[-120.612064379038,34.7253863991679],[-120.611976337852,34.7249937880944],[-120.611700320599,34.7245583463937],[-120.611700320599,34.7242632933595],[-120.611590865373,34.723701739902],[-120.611683664935,34.7233971688795],[-120.61187057021,34.723263863006],[-120.611897817011,34.7230473882632],[-120.611724115174,34.7229855220945],[-120.611695562223,34.7228855855892],[-120.611578968984,34.7228784473156],[-120.611395750395,34.7230664241116],[-120.611286295169,34.7231735001238],[-120.61097934443,34.7230116969584],[-120.610779469279,34.7229022410665],[-120.61062687875,34.7227710423593],[-120.610524866965,34.7226833310632],[-120.610456651597,34.7226847774752],[-120.610291248397,34.722502854968],[-120.610289723956,34.7225011006634],[-120.610287826714,34.7224986109685],[-120.610286116322,34.7224960179055],[-120.610284619729,34.7224933458395],[-120.610283344121,34.7224905947707],[-120.610282283211,34.7224877728208],[-120.610281442388,34.7224849132153],[-120.61028083872,34.7224820100473],[-120.610280468614,34.7224790788222],[-120.610280323087,34.7224761276618],[-120.610280423698,34.7224731838846],[-120.610280747092,34.7224702482291],[-120.610281305844,34.7224673302938],[-120.610151291774,34.7224001749292],[-120.610006144686,34.7224049342982],[-120.610003765048,34.7222764430537],[-120.609818166823,34.7222597874503],[-120.609732506172,34.7221836440256],[-120.60971418593,34.7221471062025],[-120.609706332858,34.7220860862447],[-120.609600726913,34.7220702450002],[-120.609515975358,34.7220575328701],[-120.609451729645,34.7219813899974],[-120.609450197119,34.7219266384988],[-120.609125743605,34.7216458860602],[-120.608990114167,34.7214079394577],[-120.60895918068,34.7210058105279],[-120.608823551242,34.7206869629856],[-120.608542774715,34.7206488924036],[-120.608388110874,34.7204204633753],[-120.608583225852,34.7200349908663],[-120.608647471564,34.7198517718624],[-120.608576087839,34.719682830292],[-120.608559431277,34.7191902821724],[-120.608602262051,34.7189047468429],[-120.608495185564,34.7186739391113],[-120.60848890634,34.71851962612],[-120.608295311312,34.7183979211982],[-120.608219168312,34.7185121360007],[-120.608123990011,34.7185097562043],[-120.608114115729,34.718271122004],[-120.608109713086,34.7181647344607],[-120.608014392851,34.7181073244714],[-120.607900321183,34.7180386230823],[-120.607743275909,34.7178220918322],[-120.607740730981,34.7177589716662],[-120.607731378621,34.7175270383866],[-120.607652349334,34.7173473270838],[-120.607557678581,34.7171320485508],[-120.607462499382,34.7170321108776],[-120.60739587493,34.7168013023494],[-120.607422049143,34.7165538386393],[-120.607495812506,34.7163135130298],[-120.607355423793,34.716120776657],[-120.607186483027,34.7156044343659],[-120.607176964479,34.715364108951],[-120.607234092839,34.715263497928],[-120.607355423793,34.7151142654764],[-120.607334548742,34.7150271862597],[-120.60727214278,34.7147668636913],[-120.607236450917,34.7146240958968],[-120.607117477142,34.7145408145696],[-120.607124616054,34.714450395634],[-120.607137816797,34.7142828164839],[-120.606715349,34.7140244720131],[-120.606475023611,34.713917396706],[-120.606244214973,34.7137032441991],[-120.605999130309,34.7134153299173],[-120.606037201809,34.7132178342768],[-120.605815912619,34.7130584100436],[-120.605606518919,34.712851397406],[-120.605137765428,34.7127086299971],[-120.60466425356,34.7125825184208],[-120.604278780183,34.7123302954299],[-120.603936137581,34.7121018677903],[-120.603593494979,34.7120185861385],[-120.603365066877,34.7118686802831],[-120.603171494306,34.7115332416498],[-120.602767227275,34.7109994633221],[-120.602453137625,34.7107924492234],[-120.602246124461,34.7104045975878],[-120.601970107208,34.7104022182965],[-120.601734541093,34.7101833084308],[-120.601656018455,34.7099025316286],[-120.601636983155,34.7097502455818],[-120.601537045579,34.7094218801931],[-120.601503733354,34.7090483047602],[-120.601529906668,34.7087175594606],[-120.601263407066,34.7083820563551],[-120.601165849127,34.707953753138],[-120.600944559937,34.7075325880407],[-120.60101118349,34.7072875033019],[-120.6009421803,34.7070138651757],[-120.600950018999,34.7068968400737],[-120.600955375653,34.7067949182804],[-120.600987389813,34.7061858130364],[-120.600911246813,34.705445799835],[-120.600899349525,34.7047414799582],[-120.600968353614,34.7039943287035],[-120.600996907464,34.7033352179583],[-120.601194402079,34.7022811172701],[-120.601446625654,34.7014697211275],[-120.601589393106,34.7007535027926],[-120.601539424318,34.7000896336417],[-120.601665535208,34.6994757323752],[-120.601848753796,34.6985596396931],[-120.601973771436,34.6977387637687],[-120.602291333076,34.696396709852],[-120.602393349352,34.6960062913696],[-120.602497021224,34.6957190415204],[-120.602701326866,34.6947834512857],[-120.602719508768,34.6947001957761],[-120.602911812019,34.6941631816202],[-120.602912647452,34.6941609156056],[-120.602913076847,34.6941598933878],[-120.603075228145,34.6937875703957],[-120.603191958827,34.6930262025007],[-120.603196718101,34.6920387258549],[-120.603767787907,34.6912249506302],[-120.604330881571,34.6901314750306],[-120.604407863598,34.6895545684377],[-120.604583944173,34.6889430464869],[-120.604876617988,34.6879984013464],[-120.604959899001,34.687401155743],[-120.605273987754,34.6865683446046],[-120.605502415856,34.6861685954439],[-120.605609492343,34.6856546308783],[-120.605961651697,34.6849217573336],[-120.606102793198,34.6842805614365],[-120.606257900806,34.68370654002],[-120.606406611512,34.6831561971847],[-120.606475451209,34.6826959808792],[-120.606535102038,34.682297211747],[-120.606977680419,34.6811241371738],[-120.607227984295,34.6804542163337],[-120.607611420293,34.6792622086074],[-120.607623113663,34.679220971972],[-120.607881271509,34.6783105568886],[-120.607891893189,34.6782908340566],[-120.608226897416,34.6771337808526],[-120.608533849054,34.6762628980646],[-120.609159646922,34.6747971496292],[-120.609449941099,34.6736930794246],[-120.609723578715,34.6727484339091],[-120.61033034218,34.6714611446898],[-120.610713435021,34.6703023470485],[-120.611177429238,34.6689579517837],[-120.611643803991,34.6676992164393],[-120.612098281456,34.6665427984455],[-120.612471855749,34.6654149335481],[-120.6127859454,34.6645297739258],[-120.61312156138,34.663898312089],[-120.613460527177,34.6629201170809],[-120.613559791915,34.6626556473073],[-120.613935224821,34.6616553848213],[-120.614204103162,34.6608082964682],[-120.614649904699,34.6598569063648],[-120.614700123218,34.6597458189235],[-120.615111803146,34.6588351557944],[-120.615339106558,34.6579672202964],[-120.6157242251,34.6571495005794],[-120.615822903237,34.6568984631152],[-120.616040439266,34.6563450470054],[-120.616236163302,34.6558471192775],[-120.616754885581,34.654564590091],[-120.617234340703,34.65339773867],[-120.617497277587,34.652537289615],[-120.617925580839,34.6516259553591],[-120.618294397654,34.6511334071409],[-120.618560956545,34.6503942741247],[-120.618832155234,34.6493511903171],[-120.619522199713,34.6477997815827],[-120.620005229231,34.6466671580017],[-120.620600094511,34.6454702890559],[-120.621287758454,34.6441139958419],[-120.621911177583,34.6428409844751],[-120.622163401158,34.6424626498592],[-120.622467971362,34.6416845662265],[-120.622817751978,34.6411825003398],[-120.623025658067,34.6410648877492],[-120.623003350204,34.6409088617552],[-120.623036662429,34.6399428001432],[-120.623203225354,34.6392551363877],[-120.623407211196,34.6390595487879],[-120.623978929585,34.6378512544309],[-120.624185942749,34.6369994068726],[-120.62472370033,34.6359738585903],[-120.624830775918,34.6354265823634],[-120.625040419349,34.6351080230604],[-120.625530337149,34.6345747357719],[-120.625749248499,34.6339917679258],[-120.625972917327,34.6336253307342],[-120.625998246224,34.6333786420862],[-120.626021808136,34.6331491739463],[-120.626262022134,34.6328722307567],[-120.626542798661,34.6323320941927],[-120.626797400976,34.6317086744604],[-120.626797400077,34.6315468713695],[-120.626978600152,34.6313752371817],[-120.627013752127,34.6313587813381],[-120.6270724202,34.6312836009386],[-120.62720290858,34.6310737221167],[-120.627389377273,34.630586871248],[-120.627534828891,34.6302071080984],[-120.627624819421,34.6299799625244],[-120.627624907456,34.6299797836455],[-120.62762613725,34.6299770176752],[-120.627627590724,34.6299743248825],[-120.62762924542,34.6299717133983],[-120.627631113018,34.6299691943102],[-120.627633184533,34.6299667942282],[-120.627635423135,34.629964502804],[-120.627636820913,34.6299632122147],[-120.627681308181,34.6299239179751],[-120.627844571594,34.6295531342188],[-120.627843419954,34.6295105149841],[-120.627843413666,34.629509814248],[-120.627843500802,34.6295068612512],[-120.627843824196,34.6295039252552],[-120.627844392829,34.6295010158695],[-120.627845173465,34.629498142703],[-120.627846190358,34.6294953138869],[-120.62784742105,34.6294925493788],[-120.627847651019,34.6294920910913],[-120.628091535534,34.6290119862852],[-120.628320198096,34.6285317242119],[-120.628320429861,34.6285312393086],[-120.628321442263,34.6285293100439],[-120.628407886244,34.6283748194059],[-120.628408295876,34.6280371657146],[-120.629122134032,34.6270496897596],[-120.629500467598,34.6262168781007],[-120.629966842351,34.6257980929582],[-120.630092954139,34.6253507544517],[-120.630302346042,34.6249652813035],[-120.630538313704,34.6247445836017],[-120.631292420639,34.6239661925649],[-120.631467769986,34.623332828706],[-120.631427831786,34.6229760512817],[-120.6315111128,34.6224668471952],[-120.631601300959,34.6223429467301],[-120.631862297482,34.6220265586023],[-120.631930295457,34.6218988311686],[-120.632172602531,34.6214436785209],[-120.632227330593,34.6210986566304],[-120.632451689327,34.6208940228966],[-120.632451678547,34.6207396939843],[-120.632451769277,34.6207370445076],[-120.632452091772,34.6207341089406],[-120.632452647829,34.6207312014651],[-120.632453438346,34.6207283265164],[-120.632454458833,34.6207254981406],[-120.63245568683,34.620722732601],[-120.632457141202,34.6207200439435],[-120.63245880578,34.6207174329072],[-120.632460673378,34.6207149224092],[-120.632462332566,34.6207129493469],[-120.632698463722,34.620092145032],[-120.632865025748,34.6195210736452],[-120.632992092445,34.61940924095],[-120.633367092364,34.6191189443754],[-120.633419543197,34.619004676733],[-120.633444883773,34.6189494712314],[-120.633500342165,34.6188286504816],[-120.633452753014,34.6187049190524],[-120.633493634445,34.6186347179994],[-120.633579023804,34.6184880888328],[-120.633580723417,34.6181623238404],[-120.633617722328,34.6178119004551],[-120.633631212329,34.617684129571],[-120.633657385643,34.617339107576],[-120.633709734966,34.6170702289522],[-120.633948838647,34.6166733574494],[-120.63394984476,34.6166705289353],[-120.633951073655,34.6166677684356],[-120.63395252713,34.616665075211],[-120.633954192606,34.6166624647865],[-120.633956059305,34.6166599534265],[-120.633958118244,34.6166575529595],[-120.633960366727,34.6166552522963],[-120.633962163358,34.6166536192099],[-120.633994132602,34.6166259639316],[-120.633997648608,34.6164016000919],[-120.634335034269,34.6159563770641],[-120.634408491307,34.6156743167431],[-120.634550055016,34.6153165948386],[-120.63466844219,34.6151043009931],[-120.634868532038,34.6147454950294],[-120.635075545202,34.6142624644771],[-120.635425325818,34.6140245182803],[-120.635672790119,34.6139721706022],[-120.635694171819,34.6139589103089],[-120.635989842414,34.61381048892],[-120.636191512398,34.6137603982308],[-120.636184373487,34.6134558271456],[-120.636224824624,34.6132630901553],[-120.636336576842,34.6131035148913],[-120.636351730522,34.6130818764912],[-120.63643174077,34.6130178861464],[-120.636339038226,34.6128990322285],[-120.636034468022,34.6128228895112],[-120.635913115509,34.6127015371422],[-120.635929772071,34.6125159395366],[-120.635989258509,34.6124064846851],[-120.635939288823,34.6122827525544],[-120.636048744048,34.6120519448162],[-120.636148682522,34.6116046061476],[-120.636317624186,34.6112357892358],[-120.63658412289,34.6108003480624],[-120.636688818841,34.6104624639052],[-120.636858494429,34.6101898655414],[-120.636969596266,34.6100436791127],[-120.636993865152,34.609827568574],[-120.637019565054,34.6095987199431],[-120.637123833407,34.6089172659112],[-120.637060866896,34.6087928860784],[-120.637008758321,34.6087258795427],[-120.636992512289,34.6087049882324],[-120.636814930629,34.6078545745021],[-120.63737886332,34.6076943418958],[-120.637481120345,34.6076943418958],[-120.6378031529,34.607532364809],[-120.638099840387,34.6073525086897],[-120.638290196989,34.6072620895413],[-120.638387754927,34.607235915053],[-120.638562250875,34.607317169729],[-120.638716152046,34.6072028496112],[-120.638761330118,34.6071692902556],[-120.638765470453,34.6070966276867],[-120.638779364696,34.6070688531431],[-120.638930271782,34.6069575182758],[-120.638956445994,34.6068552014161],[-120.639039727906,34.6067124331673],[-120.639058762309,34.6066291527462],[-120.63895128697,34.6064334009874],[-120.638927893043,34.6063007866573],[-120.638996896233,34.606136604235],[-120.639205376346,34.6060775779227],[-120.639310010314,34.6059845732435],[-120.639311142191,34.6059835979978],[-120.639313728441,34.6059815720891],[-120.639316461116,34.6059796837056],[-120.639589382774,34.605810617755],[-120.63967941283,34.6058057673942],[-120.639774980101,34.6058272738622],[-120.639928254249,34.605805378478],[-120.639976388676,34.6057486026177],[-120.639820190513,34.6056630912431],[-120.639774652216,34.6055569545964],[-120.639704022177,34.6053923337251],[-120.639700845734,34.6053597141396],[-120.639808293225,34.6048160032025],[-120.639981994164,34.6048350381363],[-120.640250872505,34.6044067355426],[-120.640443609642,34.6043876997712],[-120.640572100169,34.6043639044963],[-120.640736282558,34.6043710433753],[-120.64093377897,34.6045257088302],[-120.64098374686,34.6045756771755],[-120.640936157709,34.6045970930166],[-120.640971849572,34.6046446819472],[-120.641102719736,34.6046375430917],[-120.641131273585,34.6047017883322],[-120.641216933338,34.6047017883322],[-120.641235969537,34.6047636548938],[-120.641409657899,34.6047515828141],[-120.641459920435,34.6047567482182],[-120.64151774499,34.6047626922034],[-120.641642857852,34.6047755517354],[-120.641747919417,34.604713592019],[-120.641765148206,34.6047257971951],[-120.641878424865,34.6046423018358],[-120.64202833033,34.6044757404546],[-120.642370972932,34.6044709802222],[-120.642397147144,34.6043163154048],[-120.642519656688,34.6042635904275],[-120.642585125008,34.6042354141824],[-120.642580720568,34.6041948973654],[-120.642561330432,34.6040165039448],[-120.642508982007,34.6038166290367],[-120.642555844421,34.6037913119084],[-120.642625575246,34.6038023526616],[-120.64267078476,34.6038856329602],[-120.642692199698,34.6038499413083],[-120.642597022295,34.6036881386154],[-120.642566088808,34.603607236781],[-120.642570848083,34.6035310936755],[-120.642428240531,34.6034818116088],[-120.642415085602,34.6034620857604],[-120.642414101049,34.6034605551917],[-120.642412604456,34.6034578741085],[-120.642411330644,34.6034551227817],[-120.642410270632,34.6034523145206],[-120.642409434301,34.6034494448888],[-120.64240883782,34.6034465427231],[-120.642408456036,34.6034436102417],[-120.642408319492,34.6034406592749],[-120.642408406628,34.6034377157022],[-120.642408740802,34.6034347802628],[-120.642409297757,34.6034318699631],[-120.642410085579,34.6034289958942],[-120.642411091693,34.6034261676683],[-120.642412321486,34.6034234022918],[-120.64241377496,34.6034207145527],[-120.642415439539,34.6034181029724],[-120.642417307136,34.6034155919511],[-120.642419365176,34.6034131814889],[-120.642421601981,34.603410890071],[-120.642424031026,34.6034087265701],[-120.642426616377,34.6034066924651],[-120.642429358934,34.603404812896],[-120.642432250611,34.6034030715956],[-120.64243526356,34.6034015047949],[-120.642438402274,34.6034000940089],[-120.642441641599,34.6033988577225],[-120.642444974348,34.6033978055482],[-120.642448384353,34.6033969293524],[-120.64245185185,34.6033962454021],[-120.642455367856,34.6033957366909],[-120.642458916202,34.603395430577],[-120.642462490598,34.6033953181873],[-120.642441492478,34.6033139598538],[-120.642297209569,34.6031361035692],[-120.642275794631,34.6029005367003],[-120.642014053405,34.6025674117927],[-120.641799901329,34.6024079882552],[-120.641554816665,34.6022223898219],[-120.6413478044,34.6018964035039],[-120.64131925055,34.6016989088648],[-120.641200476202,34.6016295518991],[-120.641156064392,34.6016036189052],[-120.641107654182,34.6015842564062],[-120.64117410436,34.6012801234981],[-120.641369219338,34.6012491904043],[-120.641497709865,34.6011944625948],[-120.641576232502,34.6012039804773],[-120.641895080529,34.6011016639225],[-120.64206640183,34.6011016631831],[-120.642242482405,34.6010183823109],[-120.642023571954,34.6007614007442],[-120.641657133878,34.6008232665442],[-120.64149057275,34.6006257715715],[-120.641478675462,34.6005615261356],[-120.64100278216,34.6003925837308],[-120.640826702483,34.6002141252059],[-120.640724385271,34.5999143122461],[-120.640291323642,34.5995907067375],[-120.639886814964,34.5991171926535],[-120.639813051602,34.5988435550942],[-120.640089068854,34.5984890157285],[-120.640265148531,34.5984414254888],[-120.640307979306,34.5983700426663],[-120.640484058983,34.5983153144385],[-120.640433959041,34.5982879872836],[-120.640300841292,34.5982153775785],[-120.640198675895,34.5979443044334],[-120.640281805093,34.597806109926],[-120.640243733593,34.5977037928826],[-120.640179446558,34.5976406144413],[-120.640105725416,34.5975681638931],[-120.639953062123,34.5971513926956],[-120.639867778765,34.5969185707477],[-120.639991510018,34.5960572060217],[-120.640155994241,34.595297511369],[-120.640229076681,34.5949733924211],[-120.640241354854,34.5947247076374],[-120.640460265306,34.594327337393],[-120.640550683434,34.5937158167971],[-120.640744091613,34.5933108123518],[-120.64075260315,34.5932928721883],[-120.641083683537,34.5925950899996],[-120.641178860939,34.5920739879982],[-120.641218436219,34.5917040593817],[-120.641551490204,34.5905758939776],[-120.64199847572,34.5898754621724],[-120.642118308284,34.589793351069],[-120.642118307385,34.5897075925344],[-120.642100116501,34.5896165943527],[-120.642202029471,34.589387576139],[-120.642654127299,34.588709429865],[-120.64325613149,34.5883073007509],[-120.64347348067,34.5883352642352],[-120.643601791534,34.5883517715017],[-120.643729333439,34.5883303914072],[-120.643905723934,34.588252573289],[-120.643912862845,34.5881835682104],[-120.644092983145,34.588080802246],[-120.644153562832,34.588090899953],[-120.644188880098,34.5881288414066],[-120.644217433947,34.5882192606781],[-120.644284058399,34.5882597113341],[-120.644260263823,34.5881550145212],[-120.644295022337,34.5881259505382],[-120.644413689786,34.5881852802482],[-120.644443482412,34.588143118257],[-120.644345924474,34.5880645951797],[-120.644272160213,34.5879313458338],[-120.644360201399,34.5879622787103],[-120.644422067474,34.5880645959193],[-120.644550558001,34.5880693541338],[-120.644655253952,34.5881407384123],[-120.644662391965,34.5881883271577],[-120.644878591302,34.5882016869671],[-120.644894770858,34.588179042958],[-120.644908845662,34.5881567561412],[-120.644759950802,34.5881573943654],[-120.644880015131,34.5881241837731],[-120.64494858713,34.588097555091],[-120.644984726354,34.5880835215421],[-120.645119249966,34.588031283233],[-120.645081177568,34.5879265868718],[-120.645026450404,34.5878671001937],[-120.644945549028,34.5878385463956],[-120.644867026391,34.5877124355189],[-120.645000276192,34.587802854504],[-120.645114490692,34.5878456852159],[-120.645214427369,34.5878456852159],[-120.645328641869,34.5879456219786],[-120.645404784869,34.5879480025684],[-120.645464271307,34.5880098675579],[-120.64546189167,34.5880788720411],[-120.645492824259,34.5880764921946],[-120.645540414307,34.5879741757398],[-120.645404784869,34.5878789979765],[-120.645514240095,34.5879027920578],[-120.645837846498,34.5877219534671],[-120.645818789637,34.5876970618485],[-120.645653364878,34.5874809966949],[-120.645488065882,34.587265095899],[-120.645453668492,34.587277348012],[-120.645314364944,34.5873269621365],[-120.645240601581,34.587324583008],[-120.645223945918,34.5871746770683],[-120.645183493882,34.5870390478982],[-120.645028830041,34.5867083021257],[-120.645117019449,34.5866302325188],[-120.645173976232,34.5865798118629],[-120.645134474614,34.5864827007813],[-120.645130996337,34.5864741529891],[-120.645116870329,34.5864394234142],[-120.644897958979,34.5863323473695],[-120.644812391753,34.5863107471066],[-120.6445315227,34.5862466865823],[-120.644533901439,34.5861586465449],[-120.644921699655,34.5861364375795],[-120.645062142267,34.5862014773647],[-120.645197771705,34.5862038572649],[-120.645321663756,34.5860540143846],[-120.645228704294,34.5858945266127],[-120.645271535068,34.5857089282603],[-120.64514542328,34.5856803751997],[-120.645089499561,34.585694491246],[-120.645024347448,34.5856634155291],[-120.644969343603,34.5857113081746],[-120.644888441329,34.5856565812216],[-120.644814677966,34.585530469252],[-120.644774226828,34.5853591481548],[-120.644897618518,34.585261669561],[-120.645012173479,34.5851711708957],[-120.645024070767,34.5848927733767],[-120.645076419192,34.5847809384156],[-120.645059483254,34.5847270517433],[-120.645024070767,34.5846143764043],[-120.645086403068,34.5845338353939],[-120.645235843205,34.584340739146],[-120.64512512405,34.5841709051039],[-120.645146025152,34.5840855223886],[-120.645338159519,34.5839052974767],[-120.645195392068,34.583769667408],[-120.64520253098,34.5836506947139],[-120.645161420479,34.5836001642711],[-120.645088316479,34.5835103064938],[-120.645085936842,34.5832747401767],[-120.645116770616,34.5832152531269],[-120.644990757643,34.5830701056708],[-120.645109731417,34.5825180719058],[-120.645528516121,34.5813354787315],[-120.645442706351,34.5810811705941],[-120.645397645059,34.580947627521],[-120.645107543121,34.5808561685864],[-120.645060218974,34.5808022756711],[-120.644941397015,34.5806939350298],[-120.644901448036,34.5806815732238],[-120.644708143163,34.5802165064562],[-120.644813300848,34.5800300922025],[-120.644814317741,34.5800272639196],[-120.644815545738,34.5800245022018],[-120.644816998314,34.5800218085284],[-120.644818662892,34.580019196952],[-120.644820528693,34.5800166867026],[-120.644822575954,34.5800142763011],[-120.644824823539,34.5800119849773],[-120.644875139076,34.579990363102],[-120.645200150444,34.5798506950013],[-120.645394704873,34.5798557584076],[-120.645359955343,34.5794672886274],[-120.645345297533,34.5793034192785],[-120.645440475834,34.5789108079827],[-120.645849742887,34.5785515098529],[-120.645997147442,34.5785472569982],[-120.646078171888,34.5785872012802],[-120.646216180065,34.5785324740736],[-120.646411800794,34.5782992671176],[-120.646513612255,34.578320701567],[-120.646525510441,34.578384947191],[-120.646585064253,34.5784216830445],[-120.646956193331,34.578216004806],[-120.647033030729,34.5782594240265],[-120.647074892221,34.5782425205326],[-120.647291697022,34.5782374200464],[-120.647455879411,34.578282630638],[-120.64764997031,34.5782844109256],[-120.647715241,34.5782850092857],[-120.647810419301,34.5782183841952],[-120.647836593514,34.5780875147264],[-120.647914601416,34.5780905139301],[-120.648022190841,34.5780946521654],[-120.648072160527,34.57819221017],[-120.648025396928,34.5782881660232],[-120.648095954204,34.5783088046346],[-120.648041487552,34.578404400894],[-120.647979360965,34.57851343829],[-120.648051126475,34.578475163312],[-120.648157820279,34.5784182600459],[-120.648205410328,34.5784372951118],[-120.648277854964,34.5786247321426],[-120.648318721123,34.5786374958715],[-120.648319962595,34.5786378952696],[-120.648323222581,34.5786390934639],[-120.648326381956,34.5786404691684],[-120.648329421855,34.5786420016737],[-120.648332338685,34.5786437116892],[-120.648335111784,34.5786455592751],[-120.648337729475,34.5786475644013],[-120.648340182774,34.5786497004412],[-120.648342466291,34.5786519659157],[-120.648344563857,34.5786543438132],[-120.648431457895,34.578520576432],[-120.648724131709,34.578354013708],[-120.648757444833,34.5783825678065],[-120.648657507258,34.5784729873277],[-120.648612297745,34.5785943394159],[-120.648795517232,34.5784515721479],[-120.648924007758,34.5784896429995],[-120.6490699795,34.5784301902458],[-120.649244479939,34.5783591178851],[-120.649198894032,34.5781699206749],[-120.64900966751,34.5780089925025],[-120.649166711887,34.5779328496018],[-120.649229618211,34.5779273304648],[-120.649302341325,34.5779209518743],[-120.649292233481,34.5778354902541],[-120.649276168011,34.5776996616733],[-120.649485433251,34.5776032672765],[-120.649551764852,34.5775247379385],[-120.649454627325,34.5774902694135],[-120.649461765338,34.5774498186929],[-120.649376104688,34.5773784348463],[-120.649621189352,34.5772451846381],[-120.649706850002,34.5773070509384],[-120.649792510653,34.5772808766262],[-120.649775854989,34.5772142522103],[-120.649897206604,34.5771381093212],[-120.649990030421,34.57720954293],[-120.649999253424,34.5772049312818],[-120.650139911631,34.5772547030455],[-120.650270781795,34.5772642207122],[-120.650327076519,34.5772043787716],[-120.650328038615,34.5772044653093],[-120.650331559112,34.5772049261044],[-120.650335037389,34.5772055792054],[-120.65033845997,34.5772064186955],[-120.650341807991,34.5772074320008],[-120.650345067079,34.5772086309553],[-120.6503479354,34.57720987059],[-120.650382616658,34.5772737383777],[-120.650456380021,34.5773022921076],[-120.650473353688,34.5772679263002],[-120.650571955469,34.5770682799304],[-120.650592009459,34.576940614256],[-120.650487312609,34.576807363346],[-120.650306474556,34.5767169449715],[-120.650204288498,34.5767582207505],[-120.650075666817,34.576885886705],[-120.649990006166,34.5769834439094],[-120.64993508317,34.5769842390233],[-120.649509355387,34.5770572075176],[-120.649357069387,34.5770024800434],[-120.649357069387,34.5769333790853],[-120.649357069387,34.5768930242472],[-120.649495078462,34.5767716718941],[-120.649578358577,34.5767692924635],[-120.649625948626,34.5767050470701],[-120.649640225551,34.5766027306682],[-120.64974730114,34.5764266507776],[-120.649633086639,34.5764528238795],[-120.649447488414,34.5765813150065],[-120.649380863962,34.576614627105],[-120.64923670502,34.5767763198088],[-120.649204783387,34.5768121229447],[-120.64912457012,34.5767515166275],[-120.648990631311,34.576650319364],[-120.648816931271,34.5766408016269],[-120.648540914019,34.576655078232],[-120.64831962393,34.5769382340905],[-120.648238721655,34.5772213904638],[-120.648062093108,34.5773841463255],[-120.648058625611,34.577384838626],[-120.6480551123,34.5773853386208],[-120.648051563954,34.577385644091],[-120.648047992253,34.5773857572555],[-120.647943669102,34.5774069885402],[-120.647934252063,34.5773637811504],[-120.647903217965,34.5772213904638],[-120.64788894104,34.5771166937975],[-120.647831834239,34.5770619663625],[-120.647855628814,34.576735980427],[-120.647650995288,34.5768145023742],[-120.647374977137,34.5769120604019],[-120.647272660823,34.5769191986814],[-120.647216923952,34.5769775290014],[-120.647170344508,34.5770262742802],[-120.647107435489,34.57700682987],[-120.646908603282,34.5769453731075],[-120.646782491494,34.5769882027584],[-120.646665694338,34.5769800585732],[-120.646573630496,34.5769736384902],[-120.646502990575,34.5769763189489],[-120.646293719047,34.576960455869],[-120.646210293405,34.5770046960068],[-120.64613667467,34.5770437364499],[-120.646024839807,34.5771079823213],[-120.646000202612,34.5771040925558],[-120.645934419883,34.577093705794],[-120.645760719843,34.5771555714674],[-120.64566792028,34.5771175000047],[-120.645475184041,34.5772483710007],[-120.645465956547,34.57732087625],[-120.645458528378,34.577379241051],[-120.645320682796,34.5773877350455],[-120.645297044527,34.5773891913912],[-120.645103987589,34.5770960844757],[-120.644989773988,34.5770603931479],[-120.644915795029,34.577122041392],[-120.644875559487,34.5771555714674],[-120.644704238186,34.577157950887],[-120.644589455951,34.5770932020993],[-120.64451863996,34.5770532548805],[-120.644435600594,34.5770575847342],[-120.644432049554,34.5770573184637],[-120.644428526361,34.5770568495318],[-120.644425048983,34.5770562045656],[-120.644421613825,34.5770553658136],[-120.644418280177,34.5770543510272],[-120.644415019292,34.5770531520704],[-120.644411859019,34.5770517763396],[-120.644408809239,34.5770502341897],[-120.644405904986,34.5770485344965],[-120.644403130988,34.5770466868751],[-120.644400511501,34.577044680231],[-120.644399725475,34.5770440204718],[-120.644354161127,34.577005325441],[-120.644333042633,34.5768843127475],[-120.644258118647,34.5768820760709],[-120.644173618619,34.5768795538925],[-120.643909678318,34.5767211993991],[-120.643906200939,34.5767205455546],[-120.643902776561,34.5767197156749],[-120.643899429438,34.5767186920088],[-120.643747695004,34.5766677816126],[-120.643688208566,34.5765297736091],[-120.643693511321,34.5764870391363],[-120.643704474361,34.5763986892034],[-120.644036416231,34.5760503299817],[-120.643642077381,34.5755561437747],[-120.643602547915,34.5755066047247],[-120.643545441114,34.5755066054643],[-120.643497851964,34.5754685339861],[-120.643190900326,34.5755922654869],[-120.643017200286,34.5757183770041],[-120.64298981784,34.5757851217029],[-120.642941057286,34.575903974738],[-120.64294581656,34.5760039125473],[-120.642726906109,34.5759706002041],[-120.642484201082,34.5759563234815],[-120.642310500144,34.5758135561206],[-120.642285561115,34.5756861673681],[-120.642235525852,34.575645325233],[-120.64218914763,34.5755113636582],[-120.64220897794,34.5754305164852],[-120.642220081117,34.5753852525666],[-120.642319484195,34.5753880136989],[-120.64239140152,34.5753900115072],[-120.642547003202,34.5753021071605],[-120.642601537228,34.5752818058253],[-120.642902986684,34.5752876942263],[-120.643017200286,34.5752543815961],[-120.643074307087,34.5752591405441],[-120.643171865025,34.5752115517916],[-120.643174244662,34.5751687212253],[-120.643276561875,34.5750973376389],[-120.643269423862,34.5750497480541],[-120.643188521587,34.5750545077534],[-120.643283699888,34.5749640874724],[-120.643212316163,34.5749640874724],[-120.64312665641,34.5749593285075],[-120.643038616123,34.5749997789607],[-120.642902985786,34.574992641256],[-120.642876811574,34.5749450516113],[-120.642952954574,34.5747737308836],[-120.642924401622,34.5747546949789],[-120.642833981697,34.5747761103714],[-120.642691214246,34.5746809322861],[-120.642565635159,34.5747101762707],[-120.642517513308,34.5747213828748],[-120.642472303794,34.574702346958],[-120.642544696328,34.574560709127],[-120.64258175902,34.574488195553],[-120.642522272582,34.5743930171381],[-120.642362848569,34.5743121156216],[-120.642217412222,34.5742279491436],[-120.642217410426,34.5741431745748],[-120.642300982493,34.5740765483838],[-120.642381883869,34.5740004063191],[-120.642365228206,34.5739123658834],[-120.642193906905,34.573898089547],[-120.641689638518,34.573613532752],[-120.641615497863,34.5735305401652],[-120.641563349762,34.5734721652653],[-120.641618034705,34.5734401544707],[-120.641660907701,34.5734150588629],[-120.641760845276,34.5734507502766],[-120.641798916776,34.5734340943348],[-120.641896473816,34.5734816833651],[-120.641955960254,34.5734507510163],[-120.641903612727,34.5733484335677],[-120.641917889652,34.5732722908361],[-120.642001169767,34.573212804764],[-120.641929786041,34.5731176256286],[-120.641889334904,34.5731842511087],[-120.641806054789,34.5731652148401],[-120.641734670165,34.5732223228934],[-120.641734671063,34.5733127413705],[-120.641660906802,34.5733293980763],[-120.641637113125,34.5732937066105],[-120.641610938913,34.5733032239911],[-120.641591902714,34.5733365359238],[-120.641441289376,34.5733627839658],[-120.641311597802,34.5732931999341],[-120.641201670961,34.5732342190743],[-120.641177876386,34.5731390414428],[-120.641151702173,34.5731319028387],[-120.641151702173,34.5730676575929],[-120.64149910405,34.5729748578307],[-120.641594582388,34.572983517223],[-120.641618076926,34.5730414834253],[-120.641817951178,34.5729010950381],[-120.641763224015,34.5728987154966],[-120.64142296105,34.5726441130437],[-120.641400661271,34.5726779215652],[-120.641349197687,34.5727559480625],[-120.641101734284,34.5728273314404],[-120.640851239067,34.5727849848747],[-120.640818233167,34.5727794040026],[-120.640815193268,34.5727778713892],[-120.640682948682,34.5726560100471],[-120.640525903407,34.5726964616209],[-120.640520424582,34.5727249577487],[-120.640514007018,34.5727583268684],[-120.640287957655,34.5727583276081],[-120.640247507416,34.5727273942504],[-120.639988145827,34.5727654655046],[-120.639638365211,34.572717876804],[-120.639303015133,34.5726485200537],[-120.639269379513,34.572648164268],[-120.639171990459,34.5725536930998],[-120.639125384963,34.5725500383396],[-120.638807932918,34.5725251406976],[-120.638738927931,34.5724799306732],[-120.638358214728,34.5724442388428],[-120.638146443187,34.5721039759076],[-120.638077438201,34.5719207566565],[-120.638032228687,34.571639981038],[-120.638186893426,34.5712497486418],[-120.638320391162,34.5711585889683],[-120.63887455737,34.5708214459856],[-120.639031601746,34.5708404813116],[-120.63907443252,34.5708856914877],[-120.639164852445,34.5708119283211],[-120.639124401308,34.5707357854855],[-120.639048258308,34.5707357854855],[-120.63903636102,34.570678678683],[-120.638876937007,34.5706905759676],[-120.63873892883,34.5707595807763],[-120.638595645745,34.5707236270946],[-120.638472428329,34.5707238889471],[-120.6384768166,34.5706397439863],[-120.638446834429,34.5706185790254],[-120.638258277152,34.570681058288],[-120.638115509701,34.5706168118881],[-120.638116930835,34.5703625930088],[-120.638097237069,34.570313364497],[-120.6380052945,34.569941176121],[-120.638125232167,34.5693959011643],[-120.638165478488,34.5692129304059],[-120.638734011452,34.5686533453275],[-120.638762830305,34.5685597299098],[-120.638762921034,34.5685594710092],[-120.638763921758,34.568556642336],[-120.638764273897,34.5685558005394],[-120.638772241055,34.5682516280997],[-120.638791276356,34.5680231997475],[-120.638898351945,34.5678685351316],[-120.639092308096,34.5678512530064],[-120.639102841741,34.5678367729453],[-120.639033981383,34.567742422803],[-120.639077358333,34.5676710616896],[-120.639107744746,34.5676210704081],[-120.639119642034,34.567449749383],[-120.639040951411,34.5674321357736],[-120.638931665069,34.5672831866698],[-120.638931664171,34.5671713524269],[-120.639091088184,34.5670285847749],[-120.639081570534,34.5669905138528],[-120.638953079109,34.5670928302486],[-120.638925288827,34.5670882343133],[-120.638650888542,34.5670428615511],[-120.638334420152,34.5669667189628],[-120.638127836383,34.5667129157494],[-120.638084576214,34.5666597681924],[-120.637835104178,34.5664720563739],[-120.637735099229,34.5663968098217],[-120.637392688392,34.5660189863421],[-120.637174149843,34.5654245156582],[-120.6371756123,34.5653619229637],[-120.63718344022,34.5650267693302],[-120.637191131595,34.5649911970986],[-120.637312062799,34.564650040375],[-120.637373116797,34.5644778025943],[-120.637594407784,34.5643001953249],[-120.637917563233,34.5640408328447],[-120.63795013345,34.5640310495713],[-120.637950879052,34.5640308328228],[-120.637954289057,34.5640299562119],[-120.637957754757,34.5640292726772],[-120.637961268068,34.564028763725],[-120.63796185916,34.5640287060241],[-120.638251798502,34.5639981955185],[-120.63825474318,34.5639979484398],[-120.63825831578,34.5639978352571],[-120.6382618776,34.563997908493],[-120.638265429538,34.5639981748053],[-120.638266211971,34.5639982628363],[-120.638454850096,34.5640200205474],[-120.638598346979,34.5639937236911],[-120.638584263192,34.5638401072153],[-120.638772240157,34.5637473082508],[-120.638824587684,34.5637615841108],[-120.638945940197,34.5637258929766],[-120.639152954259,34.5637163744999],[-120.639450387348,34.5637853791781],[-120.639467814665,34.5639099144274],[-120.639514176717,34.5640272997478],[-120.6395186647,34.5640553512943],[-120.639533356646,34.5640704341749],[-120.639588057759,34.5640522028933],[-120.639621707751,34.5640661554278],[-120.639762096464,34.5640661554278],[-120.639878689703,34.5639781155695],[-120.639886416112,34.5639214590765],[-120.639900105539,34.5638210710265],[-120.639747819539,34.5636687857985],[-120.639674055278,34.5637163752396],[-120.63960267245,34.5635855043959],[-120.639426591875,34.5636140583884],[-120.639398038923,34.5636640269269],[-120.639290962437,34.5636806826065],[-120.639267167861,34.5636378527581],[-120.639254085696,34.563581163484],[-120.63923861491,34.5635141204815],[-120.6391938303,34.5635609924438],[-120.639079368763,34.5634503952543],[-120.639077769762,34.5634487803555],[-120.639075662314,34.5634463931459],[-120.639074454978,34.5634448551822],[-120.639024031643,34.56337762565],[-120.638936423445,34.5633784911714],[-120.638865038821,34.5635331560008],[-120.638865039719,34.5633856298731],[-120.638905489958,34.5632547592488],[-120.638715132458,34.5632547592488],[-120.638662784931,34.5633832500594],[-120.638658025657,34.5634760494301],[-120.638536674042,34.5635640890801],[-120.638301107028,34.5635260180515],[-120.638360593466,34.5634046654218],[-120.638310379439,34.5633557960139],[-120.638403423343,34.5630644024835],[-120.638410562254,34.5629835003011],[-120.638308245042,34.563045366857],[-120.638329660878,34.5630667823064],[-120.638263212496,34.5631946616231],[-120.638203548192,34.563309487635],[-120.638088818957,34.5632571886303],[-120.638101232776,34.5631690990912],[-120.638201169453,34.5630239514022],[-120.638198790714,34.5629716033933],[-120.63813692374,34.5629953986866],[-120.638101596594,34.5629544793],[-120.638050213858,34.5628949629136],[-120.637901844512,34.5629498298728],[-120.637891839975,34.5630334692184],[-120.637787143125,34.5632333445875],[-120.637630098749,34.5633784919111],[-120.637426338384,34.5633393407448],[-120.637071964683,34.5632712530023],[-120.636649276799,34.5629889582899],[-120.635900230074,34.5627003450017],[-120.635787597507,34.5625345206827],[-120.635596100045,34.5622525874375],[-120.635526887547,34.5619181055654],[-120.635526619849,34.5619166948147],[-120.635526248845,34.5619137630868],[-120.635526114098,34.561910821002],[-120.635526200336,34.5619078678204],[-120.635526524628,34.5619049316536],[-120.635527090566,34.5619020228583],[-120.635527868507,34.5618991488324],[-120.635528888095,34.5618963199327],[-120.635530116092,34.5618935679694],[-120.635530478113,34.5618928466887],[-120.635591499772,34.5617745928177],[-120.63559258853,34.561772612437],[-120.635594254007,34.5617700002873],[-120.635596120706,34.5617674894869],[-120.63559817695,34.5617650807756],[-120.635600412856,34.5617627896886],[-120.635602841003,34.5617606265829],[-120.635605425456,34.5617585907185],[-120.635608168012,34.5617567124266],[-120.63560979037,34.5617557070706],[-120.635639309908,34.561738138861],[-120.636042997526,34.5617390421281],[-120.636067735332,34.5613345920424],[-120.636241782122,34.561138038909],[-120.63639438882,34.5609656976834],[-120.636447999378,34.5609051545334],[-120.636219078101,34.5605897626184],[-120.635840743636,34.5608824365074],[-120.63576935991,34.5608776774764],[-120.63565514541,34.5611132443786],[-120.635545675811,34.561138595225],[-120.635567105122,34.5612226994949],[-120.635438614596,34.5614106776459],[-120.635460029534,34.5615891366519],[-120.635236359808,34.5617438011099],[-120.634800918542,34.5617580780536],[-120.634129911161,34.5618437389246],[-120.633911000709,34.5618699129182],[-120.633894127653,34.5617651443963],[-120.633777750908,34.5617176270766],[-120.633673054058,34.561489199271],[-120.633563340118,34.561500628111],[-120.633444625956,34.5615129942486],[-120.633468420531,34.5615819985357],[-120.63341131373,34.5616414855308],[-120.633361344943,34.5617533190726],[-120.63313529558,34.5618675338008],[-120.632723649787,34.5617556996728],[-120.632525407774,34.5616467423883],[-120.632228721185,34.561429712167],[-120.632150198547,34.5612726687303],[-120.632266793583,34.5611417977403],[-120.632264413048,34.5610561376259],[-120.632098265144,34.5609932738422],[-120.631986185041,34.5608892314238],[-120.631929990929,34.5608462470026],[-120.631633855905,34.56098475376],[-120.631453016954,34.5608895754234],[-120.63134121443,34.5607639858966],[-120.631410187078,34.5606563877795],[-120.631372114679,34.5606302134041],[-120.631288391695,34.5607046477106],[-120.631129410551,34.5606111787],[-120.631079441763,34.560501722779],[-120.630907763831,34.5603979357126],[-120.630822127435,34.5603051506624],[-120.630820346974,34.5603031029258],[-120.630818439851,34.5603006120555],[-120.63081673395,34.5602980198339],[-120.630884324988,34.560173357111],[-120.630848634024,34.5601329061031],[-120.630589272435,34.5601067330425],[-120.630567857497,34.5600424873505],[-120.630486594998,34.5600150832479],[-120.630367982346,34.5600258309422],[-120.630486956121,34.5599211340769],[-120.630382259271,34.5598045404587],[-120.630294182152,34.5597958034952],[-120.63013894878,34.5596761284561],[-120.629911125244,34.5596260813228],[-120.629854018443,34.5596689117575],[-120.629761218881,34.5596451169921],[-120.629675559129,34.5595642151826],[-120.629558964991,34.5595594560762],[-120.629609111645,34.559423161158],[-120.629651764553,34.5593072333998],[-120.62954342773,34.5592958945139],[-120.629290085752,34.5593286490719],[-120.629216322389,34.5592667834504],[-120.629228219677,34.559204917043],[-120.629173493411,34.559150188915],[-120.629164301849,34.559049095255],[-120.629154457212,34.5589407965472],[-120.629102108787,34.5589336582037],[-120.629028345424,34.5587242660306],[-120.629018827774,34.5584886997607],[-120.628723783305,34.5583305462397],[-120.628604800548,34.5582340968357],[-120.62857557386,34.5581532402619],[-120.628185482244,34.5580098675007],[-120.628307369255,34.5579081103244],[-120.628293092331,34.557855762055],[-120.628157462892,34.557872418158],[-120.627998701836,34.5578375686212],[-120.627669672303,34.5577653430465],[-120.627581632914,34.5578153121396],[-120.6273841374,34.5578391066886],[-120.627241369949,34.5577891376099],[-120.627127156347,34.557610678589],[-120.626784512846,34.5574750485301],[-120.626477383342,34.5571176279013],[-120.626232117219,34.5568322006206],[-120.626210880147,34.5568036672343],[-120.626104462125,34.5566668092355],[-120.626103288925,34.5566652378545],[-120.626101583025,34.55666264404],[-120.626096556951,34.5566502949369],[-120.625968358376,34.5563352863943],[-120.62586128189,34.5563043535859],[-120.625597161925,34.5563828755924],[-120.625482124568,34.5563203870671],[-120.625413668451,34.5562832005129],[-120.625211689446,34.556173483657],[-120.624990399358,34.5560592692483],[-120.624704863556,34.5560330949059],[-120.624491595423,34.5557765549901],[-120.62454781918,34.5554168150867],[-120.624521645866,34.5550384800704],[-120.624426467565,34.5549694762737],[-120.624273638084,34.5549626830933],[-120.624191760239,34.5548600891324],[-120.624045753463,34.554498342517],[-120.624050511839,34.5544317176025],[-120.623848956838,34.5543068396721],[-120.623796053255,34.5542166113851],[-120.623762781453,34.5541762440423],[-120.666691859425,34.5541762388634],[-120.666691892662,34.7441762757938],[-120.629515350886,34.7441795827059],[-120.629392273607,34.7438585185662],[-120.629300311275,34.7436186200072],[-120.629054896031,34.7435766691701],[-120.629052195695,34.7435761487706],[-120.629048764131,34.7435753080116],[-120.629045409821,34.7435742952623],[-120.629043694039,34.7435736855459],[-120.628900453176,34.7435208808424],[-120.628898737393,34.743520263744],[-120.62889717702,34.7435196724811],[-120.628859043536,34.7435044199642],[-120.628855898534,34.7435030536373],[-120.628852853245,34.7435015116293],[-120.628849931026,34.7434998109176],[-120.628847151638,34.7434979625748],[-120.628844529456,34.7434959562665],[-120.628842059987,34.7434938207808],[-120.62883978186,34.7434915553795],[-120.628837806464,34.7434893239334],[-120.628708088839,34.7433329143957],[-120.628707966668,34.7433327667641],[-120.628706055053,34.7433302688389],[-120.628704344661,34.7433276764293],[-120.628702844474,34.7433249998697],[-120.628701568867,34.7433222524469],[-120.628700510651,34.7433194363753],[-120.628699680608,34.7433165804431],[-120.628699061669,34.743313669149],[-120.62869874097,34.7433112627547],[-120.628675848303,34.7430861796892],[-120.628675800693,34.7430856637155],[-120.628675664149,34.7430827110763],[-120.628675753082,34.7430797680331],[-120.628676086357,34.7430768323713],[-120.628676633431,34.7430739232833],[-120.628677424847,34.7430710503649],[-120.628678444435,34.743068221736],[-120.628679676923,34.743065457327],[-120.628679905994,34.7430650136929],[-120.628308962867,34.742739809295],[-120.628135809002,34.7425390457257],[-120.627761687636,34.7422425015614],[-120.627352419684,34.7416690505959],[-120.627120502526,34.7413862082664],[-120.62708285503,34.7412958268114],[-120.626959808294,34.7410004223612],[-120.626905081131,34.740560222513],[-120.626899612187,34.7403339604537],[-120.626491054803,34.7400938479205],[-120.626574334918,34.7396012996169],[-120.626438706378,34.7390683004309],[-120.626255487789,34.7385353007594],[-120.625848599474,34.7379880251889],[-120.625258493469,34.7378071860922],[-120.62479925673,34.7375644810076],[-120.624478029066,34.7375287885891]]]},"properties":{"NAME":"Vandenberg SMR","FULLNAME":"Vandenberg State Marine Reserve","Type":"SMR","CCR":"Section 632 (b) (95)"}},{"type":"Feature","geometry":{"type":"Polygon","coordinates":[[[-120.416679241673,34.4531064962633],[-120.416679236283,34.3993659452236],[-120.41709059731,34.3993329743721],[-120.41814154175,34.3992643694319],[-120.419194393315,34.3992109542389],[-120.420233895914,34.3991727866373],[-120.420766066871,34.3989058338231],[-120.421675857235,34.3984631698297],[-120.422593307533,34.3980322971978],[-120.423520262905,34.3976163077937],[-120.424454879109,34.3972121101406],[-120.425399000388,34.3968227953812],[-120.426350784296,34.3964452712552],[-120.427310160765,34.3960829172663],[-120.428279089919,34.3957357276816],[-120.429251855777,34.3954000601736],[-120.430234129404,34.3950795566699],[-120.431222131588,34.3947745116245],[-120.43221588299,34.394480700019],[-120.433215299167,34.3942060090145],[-120.434222378873,34.3939428260009],[-120.43523327552,34.3936948270342],[-120.436249903419,34.3934622842956],[-120.437270326699,34.3932409845243],[-120.438138169332,34.3930692605512],[-120.439042256292,34.3928900678799],[-120.440072226868,34.3926991204008],[-120.441105998215,34.3925275791529],[-120.442143608962,34.3923672798017],[-120.443183131324,34.3922224514196],[-120.444226432898,34.3920928057284],[-120.445271686512,34.3919783516938],[-120.446318808621,34.3918790871544],[-120.447367843244,34.3917952938525],[-120.448420700198,34.391726401786],[-120.449471668893,34.3916769395067],[-120.450526398834,34.3916387165791],[-120.45157926028,34.3916159805894],[-120.452634036035,34.3916081533467],[-120.453688815384,34.3916158049045],[-120.454743556105,34.3916386535697],[-120.455796431924,34.3916769891728],[-120.456849289776,34.3917265804357],[-120.457900218946,34.3917950366267],[-120.458949285908,34.3918789804096],[-120.459998316937,34.3919781211547],[-120.461043531923,34.392092757545],[-120.462086840684,34.3922223165065],[-120.46312637652,34.3923673709791],[-120.464163967504,34.3925276310424],[-120.465195850593,34.3926991693251],[-120.466225811287,34.3928898558753],[-120.467251937073,34.3930920954768],[-120.468272402575,34.3933134979371],[-120.469288989151,34.3935461722938],[-120.469605605763,34.3936223176581],[-120.470299898374,34.3937521077513],[-120.471326044822,34.3939543096886],[-120.472346467204,34.3941717352124],[-120.473363100493,34.3944083151145],[-120.474373987258,34.394656174834],[-120.475379149959,34.3949192555349],[-120.476380524464,34.3951941725048],[-120.477374242628,34.3954876984474],[-120.478362260981,34.3957930670431],[-120.479342643655,34.3961133862089],[-120.480317306755,34.3964492087408],[-120.481284313514,34.3967963190179],[-120.482243730407,34.3971586602819],[-120.482714826705,34.3973416952744],[-120.48324888682,34.3974180121171],[-120.48428650116,34.3975783707296],[-120.485320281491,34.3977500002094],[-120.486348317095,34.3979405136639],[-120.487374477915,34.3981428529866],[-120.488394938027,34.3983640767923],[-120.489411523705,34.3985968534803],[-120.49042243203,34.3988448520044],[-120.4914295306,34.3991080648173],[-120.492428973727,34.3993825677697],[-120.493422678416,34.3996762354184],[-120.494410684193,34.3999814649481],[-120.495392971295,34.4003019185479],[-120.496365715594,34.4006376108671],[-120.497334673494,34.4009848594241],[-120.498294046369,34.4013470654425],[-120.499245833871,34.4017247853668],[-120.500189966828,34.4021137949261],[-120.501124562371,34.4025183276389],[-120.502051545591,34.4029341496254],[-120.502970902114,34.4033652052892],[-120.503878781761,34.4038075691144],[-120.504779051779,34.4042615047796],[-120.505667854803,34.4047346328081],[-120.506547151854,34.4052151186795],[-120.507416914187,34.4057111261612],[-120.508275198745,34.4062184459465],[-120.509124006077,34.4067373453856],[-120.509961296109,34.4072675544852],[-120.510787178435,34.4078130144279],[-120.5116016297,34.4083700659176],[-120.512402709541,34.4089344931586],[-120.513192382574,34.4095144543365],[-120.513970582325,34.4101057247296],[-120.5147373052,34.4107083070627],[-120.515488792648,34.4113188371846],[-120.516228869694,34.4119443376444],[-120.516955577115,34.4125774978896],[-120.517666987124,34.4132222692644],[-120.518367024462,34.4138746888966],[-120.519051760796,34.4145384390497],[-120.519723109537,34.4152135090789],[-120.520381175788,34.4158965209071],[-120.521023938341,34.4165905801435],[-120.52165146277,34.4172925911099],[-120.522263728417,34.4180059305824],[-120.522862639708,34.418722989209],[-120.5234443815,34.4194516686009],[-120.524012775225,34.4201916698175],[-120.524563992263,34.4209356890005],[-120.525099963094,34.421687096201],[-120.525618763527,34.4224501253689],[-120.526122296193,34.4232168837273],[-120.526610585347,34.4239913110679],[-120.52708167356,34.4247731389378],[-120.527537521854,34.4255629184224],[-120.527974339339,34.4263601046771],[-120.528395845939,34.4271613016175],[-120.528800210886,34.4279662364535],[-120.529187400044,34.4287825142598],[-120.5295574215,34.4295988678222],[-120.529910285133,34.430422902913],[-120.530245961301,34.4312506775299],[-120.53056260576,34.4320858591538],[-120.530707563304,34.4324788714936],[-120.53071517473,34.4324979851144],[-120.531136700194,34.4332991676782],[-120.531541083107,34.4341040893428],[-120.531928262384,34.4349164093179],[-120.532298282043,34.4357366926908],[-120.532651159151,34.4365607161647],[-120.532986848793,34.4373884759244],[-120.533303463608,34.438223927381],[-120.533604820538,34.4390591682282],[-120.533887102642,34.4399023782903],[-120.534152237703,34.440749048507],[-120.53439827009,34.4415997492223],[-120.534627157231,34.4424544699409],[-120.534838865889,34.4433087070444],[-120.535031517686,34.4441672558792],[-120.535206974831,34.4450292636363],[-120.535363370623,34.4458953013693],[-120.53550071764,34.4467611464059],[-120.535588452501,34.4473791323069],[-120.535649477753,34.4478406719413],[-120.535681927596,34.4481153623626],[-120.535752497448,34.4487103362778],[-120.535834497464,34.4495840413633],[-120.53586672722,34.4500047598683],[-120.535845925831,34.4500047657945],[-120.471376809517,34.4500047783876],[-120.471388982587,34.4499349831175],[-120.471533958098,34.4498510316715],[-120.471531232609,34.4497662497369],[-120.471522982482,34.4495095922043],[-120.471699062159,34.4491598109409],[-120.471868003823,34.449086048104],[-120.471970321035,34.4490598742262],[-120.472098811562,34.4490693924723],[-120.472053602049,34.448898070544],[-120.471956043212,34.4487767183175],[-120.471970321035,34.4487267497459],[-120.47206074096,34.448664883466],[-120.472134503425,34.4485625675094],[-120.471963182124,34.448410281185],[-120.471846490968,34.4484035163545],[-120.471798999734,34.4484007636046],[-120.471625298796,34.4483579329978],[-120.47159198657,34.4484388346605],[-120.471775205159,34.4485601873779],[-120.471715718721,34.4486077759191],[-120.471670508309,34.4485768438519],[-120.471556294707,34.4486101567899],[-120.471227928132,34.4485792232421],[-120.471004259304,34.4484102819258],[-120.470942393229,34.4483008259818],[-120.470887665167,34.4482841701935],[-120.470754415365,34.4483507955489],[-120.470649720312,34.4483008259818],[-120.470525042236,34.4483607227882],[-120.470459362812,34.4484721476535],[-120.469983470409,34.4488814148749],[-120.469716970807,34.4489742136667],[-120.469423116606,34.4489874409974],[-120.469391991778,34.4489888418083],[-120.46929342593,34.4489313833539],[-120.469112587877,34.4491122227143],[-120.469124557928,34.4491487311484],[-120.469160177027,34.4492573696467],[-120.469124485165,34.4494596240712],[-120.469081096536,34.4494710001318],[-120.468838948465,34.44953449033],[-120.468734253412,34.4495619404105],[-120.468498686398,34.4494667621661],[-120.46849102826,34.4493817524237],[-120.468610521261,34.4492883022026],[-120.468586725788,34.4492311958226],[-120.468532012997,34.4491901612829],[-120.468501066035,34.4491669498022],[-120.468559079236,34.4491669505429],[-120.468612900898,34.4491669498022],[-120.468714945921,34.4490619839598],[-120.468670007699,34.4490455979663],[-120.468734831927,34.4490472180463],[-120.468765186,34.4490479766023],[-120.46875566835,34.4490931869716],[-120.468862744837,34.4491455354387],[-120.468846087377,34.4490218034535],[-120.468788980576,34.449024182831],[-120.468744639733,34.4489911626653],[-120.468677145713,34.4489409008739],[-120.46859148596,34.4489480397539],[-120.468520102235,34.4489028300468],[-120.468522480973,34.4488623790796],[-120.468408267372,34.4488338257489],[-120.46840112846,34.4487933747483],[-120.468286914858,34.4488457226625],[-120.468217909871,34.4487576824983],[-120.468255701097,34.4486962718213],[-120.468275016672,34.448664883466],[-120.468225048783,34.4486053980112],[-120.468094178619,34.4485601873779],[-120.468067488774,34.4485704879463],[-120.467958549181,34.4486125361792],[-120.467750823653,34.4485707294411],[-120.467580214716,34.4485363927268],[-120.467335130052,34.4485363934676],[-120.467232813738,34.4486101560491],[-120.467258987052,34.4486553659146],[-120.467323232764,34.4486458483621],[-120.467326580785,34.448765770333],[-120.467232812839,34.4488076517922],[-120.467049595149,34.4488076517922],[-120.466899995111,34.4490331032737],[-120.466565303498,34.4492636877205],[-120.466502394478,34.449282530082],[-120.465788480864,34.4491598124224],[-120.465629055952,34.4491264989629],[-120.4653530387,34.4491003250978],[-120.464991360797,34.4491383965756],[-120.464789106009,34.4489908700581],[-120.464734378845,34.448831446366],[-120.464508329482,34.4489147276914],[-120.464034816716,34.4485316339439],[-120.463953914441,34.4483174832483],[-120.463851598127,34.4483983842093],[-120.463577959614,34.4484388354012],[-120.463422558256,34.4484824593444],[-120.463240076286,34.4486268132539],[-120.46278322098,34.4486268125131],[-120.462131248001,34.448286549592],[-120.462074140302,34.4480961923105],[-120.461674390899,34.4477416529674],[-120.461586350611,34.4475988857824],[-120.461174703921,34.4478177964034],[-120.460798749093,34.4478701441883],[-120.460075393287,34.4476726491917],[-120.45927589448,34.4473014535483],[-120.458723859077,34.4468326992761],[-120.458478774413,34.4463782227959],[-120.458393114661,34.4462092799911],[-120.458497810612,34.4457286289014],[-120.458661993002,34.4456215533627],[-120.458828555028,34.4452455985243],[-120.458978460493,34.444976719978],[-120.458754791665,34.4448268132806],[-120.458830934666,34.4447316348263],[-120.458697494422,34.4445600847193],[-120.458583470364,34.4446935635625],[-120.458478774413,34.4447268758267],[-120.458464497488,34.4448101567996],[-120.457788730833,34.4449505455534],[-120.457638824469,34.4449029564103],[-120.457522230332,34.4450076526375],[-120.457457985518,34.4450385860263],[-120.45733187373,34.4450028929127],[-120.457091549239,34.4449814789634],[-120.456715592614,34.4447292553266],[-120.456591861362,34.4443675772384],[-120.456572825163,34.4442938138737],[-120.456489544149,34.4442605021776],[-120.456358673986,34.4440820414624],[-120.456365811999,34.4439987612453],[-120.456668004362,34.4438726495202],[-120.456556169499,34.4435442841634],[-120.456448404004,34.4433924094802],[-120.456482406136,34.4433253741963],[-120.456364812174,34.4432746037505],[-120.455968443131,34.4431897440213],[-120.455985045794,34.4432428525744],[-120.455906091067,34.4432778411712],[-120.455825674781,34.4433134757555],[-120.455537759343,34.4433301325349],[-120.45524270679,34.4433182348357],[-120.454976207188,34.4432040205413],[-120.454955000659,34.4431753134064],[-120.454605010736,34.4431802265869],[-120.454524108461,34.4431588114295],[-120.454459864545,34.4430921871189],[-120.4542952851,34.4430509391675],[-120.454174327846,34.4431207394489],[-120.454083908819,34.4431516735364],[-120.453972073956,34.4430279408217],[-120.453984292841,34.443000593792],[-120.453795994279,34.442970833866],[-120.453748405129,34.4429375209015],[-120.453651898219,34.4427183107886],[-120.453585292633,34.4426757624892],[-120.453417658916,34.4424759060222],[-120.453285762876,34.4424977495575],[-120.453265377407,34.4424885735695],[-120.453204315324,34.4424733271734],[-120.453189231712,34.4423902461192],[-120.453011680594,34.4424048154061],[-120.452870383685,34.4423640716251],[-120.452784723034,34.4422736517272],[-120.452741182591,34.4423113870131],[-120.452677647446,34.4423664511922],[-120.452499188132,34.4422855495752],[-120.4525718286,34.4424192743059],[-120.452603884083,34.4424782855862],[-120.452556294034,34.4425234950662],[-120.452446960979,34.4425204013383],[-120.452304071357,34.4425163571188],[-120.452324066058,34.4425776738081],[-120.452339764118,34.4426258117523],[-120.452260576727,34.4426907014024],[-120.451997121516,34.4429065882164],[-120.452044710666,34.4431992621954],[-120.452116094392,34.4433206151165],[-120.452346902131,34.4435966324039],[-120.452555828707,34.4437517759735],[-120.452587227521,34.4437750919335],[-120.452679577027,34.444696906124],[-120.452718097685,34.4450814161127],[-120.452684785459,34.445445473553],[-120.452481662899,34.4459449782759],[-120.452306451892,34.4463758426022],[-120.451661617825,34.4470135387355],[-120.450854981006,34.4475108465262],[-120.449886539637,34.4480271895686],[-120.449778721142,34.4480469248564],[-120.448435068751,34.4484316972185],[-120.447371449081,34.4487957556138],[-120.446286414474,34.4490717725893],[-120.44589974005,34.449295990708],[-120.445704553206,34.4498390630463],[-120.445628413799,34.4503115716874],[-120.44532544619,34.4506855858901],[-120.44518710384,34.4508563685814],[-120.444608895122,34.4511823555093],[-120.443638074117,34.4514988231968],[-120.442767191585,34.4517058367218],[-120.441087291698,34.4517272519103],[-120.439890423126,34.4515844841301],[-120.438786353217,34.4515535516839],[-120.43768228241,34.4515559309893],[-120.43715642122,34.4516772836224],[-120.436996998104,34.4517105960646],[-120.436221293873,34.4517296312107],[-120.435888168023,34.4516630070691],[-120.434772200827,34.4513917476473],[-120.434462871349,34.4513489185743],[-120.433948908344,34.451184735566],[-120.433917974857,34.451291811381],[-120.433182720865,34.4511799761933],[-120.432376084046,34.4510919370081],[-120.431029308212,34.4508444726949],[-120.430727117646,34.4508492320867],[-120.430001380406,34.4506802901766],[-120.42951597125,34.4506779101055],[-120.428514217656,34.4505375220883],[-120.427774205288,34.4504328253845],[-120.42704371057,34.450228192492],[-120.426212520998,34.4500121964465],[-120.424604762116,34.4497951309102],[-120.42403369231,34.4497808532944],[-120.423836196797,34.449811787138],[-120.423165188517,34.4497737152264],[-120.422908988998,34.4497939264171],[-120.422213727104,34.4498778734759],[-120.421838389419,34.4499368483749],[-120.420878526063,34.4502424692906],[-120.420019540819,34.4506541160577],[-120.419586478292,34.4510610043794],[-120.419429433915,34.4515249992732],[-120.418996372287,34.452241217009],[-120.418544274459,34.4527694575337],[-120.418054105131,34.4530573725055],[-120.417711463427,34.453183484438],[-120.417092802674,34.4532548673622],[-120.416678604768,34.4533317413263],[-120.416679241673,34.4531064962633]]]},"properties":{"NAME":"Point Conception SMR","FULLNAME":"Point Conception State Marine Reserve","Type":"SMR","CCR":"Section 632 (b) (96)"}}],"region_id":"point-arguello-conception","checked_at":"2026-09-25T04:09:50.384759+00:00","source_url":"https://services2.arcgis.com/Uq9r85Potqm3MfRV/arcgis/rest/services/biosds582_fpu/FeatureServer/0/query?where=1%3D1&geometry=-121.25%2C34.45%2C-120.35%2C35.07&geometryType=esriGeometryEnvelope&inSR=4326&spatialRel=esriSpatialRelIntersects&outFields=NAME%2CFULLNAME%2CType%2CCCR&returnGeometry=true&outSR=4326&f=geojson","verification_sha256":"690dea308262ca3e1b180bd49279971670b652a3d9fcb55ed59e306be1ab4ed9","screening_policy":"Map overlay only. Exact CCR boundary, dynamic Vandenberg access, and legal method/date checks remain separate."}
