{"type":"FeatureCollection","schemaVersion":1,"countyId":"slo","regionId":"morro-bay","builtAt":"2026-10-08T17:49:41.873Z","sourceYear":2006,"sourceChecks":{"noaaUrl":"https://services2.arcgis.com/C8EMgrsFcRFL6LrL/arcgis/rest/services/Central_California_ESI_2006_test/FeatureServer","accessUrl":"https://services9.arcgis.com/wwVnNW92ZHUIr0V0/arcgis/rest/services/AccessPoints/FeatureServer","acquisitions":{"noaa":{"url":"https://services2.arcgis.com/C8EMgrsFcRFL6LrL/arcgis/rest/services/Central_California_ESI_2006_test/FeatureServer/3/query?where=1%3D1&geometry=-121.35%2C34.92%2C-120.51%2C35.82&geometryType=esriGeometryEnvelope&inSR=4326&outSR=4326&outFields=%2A&f=geojson","fetchedAt":"2026-10-08T17:49:41.227Z","responseSha256":"bf6d4aa9d87f7fed640e80d0273f894aadfcd4974c985929f8b2cc533557f169","bytes":1080079},"access":{"url":"https://services9.arcgis.com/wwVnNW92ZHUIr0V0/arcgis/rest/services/AccessPoints/FeatureServer/0/query?where=1%3D1&geometry=-121.35%2C34.92%2C-120.51%2C35.82&geometryType=esriGeometryEnvelope&inSR=4326&outSR=4326&outFields=%2A&f=geojson","fetchedAt":"2026-10-08T17:49:41.686Z","responseSha256":"4925eff242f1c841d8035ccbefe851b0251e75063e39826f02cd1031d17cacc3","bytes":325083},"terms":{"url":"https://www.arcgis.com/sharing/rest/content/items/e45f130ce101423ea1de943a69445ece?f=json","fetchedAt":"2026-10-08T17:49:41.873Z","responseSha256":"27c0da57445206974fb4ff866fff92c0c5aaf8932762bbd89e5989c9e502a2d8","bytes":4576}},"accessTermsUrl":"https://www.arcgis.com/home/item.html?id=e45f130ce101423ea1de943a69445ece","accessTerms":"The State of California and the California Coastal Commission make no representations or warranties regarding the accuracy or completeness of this dataset or the data sources from which it was derived. Neither the State nor the Commission shall be liable under any circumstances for any direct, special, incidental, or consequential damages with respect to any claim by any user or third p arty on account of or arising from the use of this dataset or the data sources from which it was derived. The data included are representational, may be revised at any time in the future, and are not binding on the Coastal Commission. The user of this data agrees to defend, indemnify, and hold harmless, the California Coastal Commission, its Commissioners, employees, and agents, from and against all claims and expenses, including attorney's fees, arising out of the use of this data by user."},"reviews":{"source":{"reviewedAt":"2026-10-03T02:48:10.509Z","expiresAt":"2026-11-02T02:48:10.509Z"},"access":{"reviewedAt":"2026-10-03T02:48:10.183Z","expiresAt":"2026-10-10T02:48:10.183Z"},"legal":{"reviewedAt":"2026-10-03T02:43:19.000Z","expiresAt":"2026-10-04T02:43:19.000Z"}},"limitations":["Historical shoreline classification; not today’s shoreline or surf channels.","Accuracy and current beach width unknown.","Access points are official inventory references, not real-time opening status or directions.","Each beach’s fishing line retains only source vertices. Display stroke width is a visual emphasis, not a mapped fish-bearing zone."],"features":[{"type":"Feature","id":"hearst-memorial-beach","geometry":{"type":"MultiLineString","coordinates":[[[-121.18295711882,35.6419755701862],[-121.183035498836,35.6420217571855],[-121.18318982087,35.6421231611852],[-121.1833457049,35.6421885341813],[-121.183532996934,35.6422364391738],[-121.183722069967,35.6422755941654],[-121.183911643,35.642314468157],[-121.184132186039,35.6423628731474],[-121.184301602069,35.642410372141],[-121.184476518103,35.6424851201368],[-121.184570430118,35.642486714131],[-121.18470337414,35.6424977441235],[-121.184926480171,35.6424648071061],[-121.185068175195,35.642485025099],[-121.185235247223,35.6425145550911],[-121.18539203725,35.6425441790838],[-121.185559639277,35.6425467100733],[-121.185754807313,35.642612521067],[-121.185968788355,35.642705987062],[-121.186150298386,35.6427359240533],[-121.18640671843,35.6427847970415],[-121.186588697459,35.6427964530309],[-121.186804771496,35.64282688902],[-121.18696565552,35.6428202020091],[-121.187120101545,35.6428315450002],[-121.187390084586,35.6428265439825],[-121.187512216608,35.6428545749773],[-121.187557656616,35.6428650739754],[-121.187664881643,35.6429748219788],[-121.187693633651,35.6430137589806]],[[-121.187693633651,35.6430137589806],[-121.187772764673,35.6431208819856],[-121.187859269695,35.6432032869877],[-121.187960775713,35.6432317859839],[-121.188075125732,35.6432427229777],[-121.188277292763,35.643245721965],[-121.188458395791,35.6432393779528],[-121.188701158828,35.6432430649377],[-121.188808102845,35.643244532931],[-121.189017394877,35.643238719917],[-121.189239718908,35.6432060638998],[-121.189448385942,35.6432272818884],[-121.189630395972,35.6432389368779],[-121.189818561998,35.6432147808636],[-121.189932943014,35.6431984368547],[-121.190074575033,35.6431646248424],[-121.190216051052,35.6431305628302],[-121.190377653073,35.6430968128167],[-121.190526817093,35.6430632188041],[-121.190760610124,35.6430124377844],[-121.191010654156,35.6429440637619],[-121.191245947187,35.6428845327413],[-121.191455082214,35.6428247207224],[-121.191615997235,35.6427910017089],[-121.191832320264,35.6427491266912],[-121.19201445529,35.6427247516773],[-121.192189401313,35.6426824396621],[-121.19239200534,35.6426314086444],[-121.19255332636,35.6425796906292],[-121.192700427379,35.6425458156167],[-121.1928901234,35.6424586285963],[-121.193125541428,35.6423718175731],[-121.193287018446,35.6423023495563],[-121.193449932465,35.6422415995402],[-121.193584313479,35.6421626005243],[-121.193724695494,35.6420925075087],[-121.193893641514,35.6420319764922],[-121.194022053529,35.6419797274791],[-121.194231688549,35.6418566034541],[-121.194372070564,35.6417865104386],[-121.194506045579,35.6417254804244],[-121.194595299586,35.641654793412],[-121.194674583592,35.6415929504011],[-121.194755806597,35.6415127643885],[-121.194823184603,35.64146876538],[-121.194924094612,35.6413982343669],[-121.195005630621,35.6413633603585],[-121.195107228628,35.6412657983429],[-121.19514666763,35.641230236337],[-121.195187981634,35.6412039243319],[-121.195214170636,35.6411772063277],[-121.195261422639,35.6411328313206],[-121.195322924641,35.6410615833099],[-121.195377395645,35.6410084273015],[-121.195389864643,35.6409725532973],[-121.195443491644,35.6408921162864],[-121.195505368646,35.6408118362749],[-121.195551433648,35.6407584932669],[-121.195600341647,35.6406690882554],[-121.195641217643,35.6405704652436],[-121.195641123643,35.6405690902435]]]},"properties":{"id":"hearst-memorial-beach","name":"Hearst Memorial Beach · San Simeon","areaId":"north","region":"morro-bay","substrate":"sand","shoreClass":"NOAA ESI 3A · fine to medium-grained sandy beach","sourceYear":2006,"sourceUrl":"https://services2.arcgis.com/C8EMgrsFcRFL6LrL/arcgis/rest/services/Central_California_ESI_2006_test/FeatureServer/3","sourceObjectIds":[2094,2100],"geometryMethod":"Contiguous original NOAA vertices selected within named beach latitude limits; no interpolation, buffers, coordinate simplification, or connections across gaps.","horizontalAccuracyM":null,"access":[{"id":"ccc-770","name":"William R. Hearst Memorial Beach","coordinates":[-121.188250803109,35.6432228411853],"sourceUrl":"https://services9.arcgis.com/wwVnNW92ZHUIr0V0/arcgis/rest/services/AccessPoints/FeatureServer/0/query?objectIds=770&outFields=OBJECTID%2CName%2CO_PUBLIC%2CAccessType%2CArchived%2CDate_Closd%2CClosureCom&outSR=4326&f=geojson","publicAccess":true,"checkedAt":"2026-10-03T02:48:10.183Z","note":"Public beach approach at the day-use area; State Parks lists dawn-to-dusk hours. Keep clear of resting seals, respect signed closures, and recheck access on arrival. The adjacent pier license exemption does not extend onto the beach."}],"accessUrl":"https://www.parks.ca.gov/?page_id=589","checkedAt":"2026-10-03T02:48:10.509Z","reviewExpiresAt":"2026-11-02T02:48:10.509Z","accessReviewedAt":"2026-10-03T02:48:10.183Z","accessReviewExpiresAt":"2026-10-10T02:48:10.183Z","legalReviewedAt":"2026-10-03T02:43:19.000Z","legalReviewExpiresAt":"2026-10-04T02:43:19.000Z","legalSourceUrl":"https://wildlife.ca.gov/Fishing/Ocean/Regulations/Fishing-Map/Central","license":"NOAA ESI: no use constraints beyond stated mapping limitations; CCC access: factual coordinates/names only, source terms retained in provenance.","attribution":"NOAA NOS Office of Response and Restoration, Central California ESI (2006); California Coastal Commission access inventory."}},{"type":"Feature","id":"morro-strand","geometry":{"type":"MultiLineString","coordinates":[[[-120.864250014099,35.3751433430948],[-120.864241763114,35.3753234981125],[-120.864223543124,35.375462808127],[-120.864219387127,35.3754944641303],[-120.864222105129,35.3755176521324],[-120.864244637151,35.3757112431495],[-120.864290796175,35.3758923981639],[-120.864296327188,35.3760186781757],[-120.864281826198,35.3761535821895],[-120.864274826205,35.3762346751978],[-120.864240324212,35.3763691422128],[-120.864231261223,35.3765042972263],[-120.86423779224,35.3766756082423],[-120.864210165246,35.3767832942543],[-120.864222885261,35.3769278242674],[-120.864186664277,35.3771526652912],[-120.864179351292,35.377323788308],[-120.864198008309,35.3774772873216],[-120.864196007323,35.3776303793364],[-120.864241696354,35.3778835633577],[-120.864260322368,35.3780103433687],[-120.864266416382,35.3781456233813],[-120.864284729405,35.3783621524009],[-120.864317324429,35.3785611504179],[-120.864321543449,35.3787684914375],[-120.864360826467,35.3788953964472],[-120.864386326488,35.3790761454629],[-120.864399046503,35.3792206744759],[-120.86443710953,35.3794466094952],[-120.864415108549,35.379680607519],[-120.864440609565,35.3798073245295],[-120.864446453579,35.379951635543],[-120.864457047602,35.3801772265639],[-120.864496517629,35.3804034435831],[-120.86453405066,35.3806744406067],[-120.864552675685,35.380909250628],[-120.864583770716,35.3811892786529],[-120.864622271749,35.3814782446781],[-120.864707244788,35.3817503036989],[-120.864779497816,35.3819318027117],[-120.864864375848,35.3821318007255],[-120.864910971876,35.3823489547434],[-120.864928315902,35.3826015137665],[-120.864926534923,35.3828269177882],[-120.864937784948,35.3830795398117],[-120.864956065979,35.3833773808391],[-120.86496631601,35.3836930028687],[-120.864944096027,35.3839089998907],[-120.864955847046,35.3840895609073],[-120.864987285076,35.3843605889313],[-120.86506582012,35.3846954289584],[-120.865110478146,35.3849035829755],[-120.865102008167,35.3851470489994],[-120.865113852198,35.385453671028],[-120.865118477227,35.3857513550562],[-120.865142446257,35.3860401340823],[-120.865145790293,35.3864098481176],[-120.865165009323,35.386698689144],[-120.865195791345,35.3868884061602],[-120.865234761369,35.387078341176],[-120.865313640407,35.387350401197],[-120.865358360436,35.3875855862168],[-120.865410644461,35.3877667092308],[-120.865457083484,35.3879388322444],[-120.865507710518,35.3882102672672],[-120.865558306553,35.3885084512926],[-120.865569525581,35.3887883543186],[-120.865555086601,35.389022289342],[-120.865552805618,35.3892116623603],[-120.865584962646,35.3894556603816],[-120.865609994669,35.3896544393991],[-120.865635714686,35.3897991564113],[-120.865680966711,35.3899890294266],[-120.865713529737,35.3902150264462],[-120.865758750765,35.3904321804642],[-120.865782595789,35.3906489594834],[-120.865801189811,35.3908567705022],[-120.865833909847,35.3911817975312],[-120.865885067876,35.3914082015497],[-120.865896192904,35.3916878235757],[-120.865920537926,35.3918865715932],[-120.865932662961,35.3922382246262],[-120.865970726988,35.3924644406454],[-120.866022510018,35.3926905946638],[-120.866087701048,35.3929081546805],[-120.866145578088,35.3932428697089],[-120.866191423118,35.3934870547294],[-120.866267427163,35.3938398947584],[-120.86629983419,35.3940748927789],[-120.866370806233,35.3944097638065],[-120.866415620271,35.3947440098357],[-120.866507249317,35.395079287862],[-120.866584721357,35.3953780968857],[-120.866670006397,35.3956681259081],[-120.866787761442,35.3959494979277],[-120.866853920469,35.3961310579409],[-120.8669197045,35.3963486189576],[-120.866998364534,35.3965753979743],[-120.867057148556,35.3967207089846],[-120.867096681574,35.3968386139934],[-120.867128651595,35.3970102990078],[-120.867147245617,35.3972180780265],[-120.867193591645,35.3974442630453],[-120.86723818667,35.3976344180606],[-120.867290063692,35.3977795100713],[-120.867409225734,35.3980341010882],[-120.867548137786,35.3983518791098],[-120.867665955831,35.3986335011294],[-120.867784961874,35.3988971231471],[-120.867863776912,35.3991689021682],[-120.867963125941,35.3993147751759],[-120.868075349978,35.3995241171889],[-120.868186980017,35.3997514892036],[-120.86829739105,35.3999248322133],[-120.868320517057,35.3999612372153],[-120.868472993099,35.4001531422241],[-120.86861190515,35.4004712012458],[-120.868650719175,35.4006701052624],[-120.868669376195,35.4008509162785],[-120.868654282207,35.4010038202941],[-120.868666282225,35.4011753503098],[-120.868625092235,35.4013549103295],[-120.868623342248,35.4014990023434],[-120.868675500274,35.4016893753584],[-120.868761223306,35.4018800613712],[-120.86883475833,35.4020168413797],[-120.868947107366,35.4022169013917],[-120.869006140393,35.4024072434063],[-120.869037610413,35.4025702104199],[-120.869050455421,35.4026334284251],[-120.869042485429,35.4027235214342],[-120.869042204437,35.4028135824429],[-120.869107895461,35.4029591124527],[-120.869154022485,35.4031402664671],[-120.869240619511,35.4032769214747],[-120.869320685537,35.4034226384836],[-120.869378001554,35.4035018564876]]]},"properties":{"id":"morro-strand","name":"Morro Strand","areaId":"central","region":"morro-bay","substrate":"sand","shoreClass":"NOAA ESI 3A · fine to medium-grained sandy beach","sourceYear":2006,"sourceUrl":"https://services2.arcgis.com/C8EMgrsFcRFL6LrL/arcgis/rest/services/Central_California_ESI_2006_test/FeatureServer/3","sourceObjectIds":[2294],"geometryMethod":"Contiguous original NOAA vertices selected within named beach latitude limits; no interpolation, buffers, coordinate simplification, or connections across gaps.","horizontalAccuracyM":null,"access":[{"id":"ccc-804","name":"Morro Strand State Beach (South)","coordinates":[-120.865350728449,35.3918058372938],"sourceUrl":"https://services9.arcgis.com/wwVnNW92ZHUIr0V0/arcgis/rest/services/AccessPoints/FeatureServer/0/query?objectIds=804&outFields=OBJECTID%2CName%2CO_PUBLIC%2CAccessType%2CArchived%2CDate_Closd%2CClosureCom&outSR=4326&f=geojson","publicAccess":true,"checkedAt":"2026-10-03T02:48:10.183Z","note":"Use signed public approaches; respect fenced restoration and snowy plover areas."},{"id":"ccc-805","name":"Morro Strand State Beach (Atascadero Creek Rd.)","coordinates":[-120.862362726612,35.3786218364282],"sourceUrl":"https://services9.arcgis.com/wwVnNW92ZHUIr0V0/arcgis/rest/services/AccessPoints/FeatureServer/0/query?objectIds=805&outFields=OBJECTID%2CName%2CO_PUBLIC%2CAccessType%2CArchived%2CDate_Closd%2CClosureCom&outSR=4326&f=geojson","publicAccess":true,"checkedAt":"2026-10-03T02:48:10.183Z","note":"Use signed public approaches; respect fenced restoration and snowy plover areas."}],"accessUrl":"https://www.parks.ca.gov/?page_id=593","checkedAt":"2026-10-03T02:48:10.509Z","reviewExpiresAt":"2026-11-02T02:48:10.509Z","accessReviewedAt":"2026-10-03T02:48:10.183Z","accessReviewExpiresAt":"2026-10-10T02:48:10.183Z","legalReviewedAt":"2026-10-03T02:43:19.000Z","legalReviewExpiresAt":"2026-10-04T02:43:19.000Z","legalSourceUrl":"https://wildlife.ca.gov/Fishing/Ocean/Regulations/Fishing-Map/Central","license":"NOAA ESI: no use constraints beyond stated mapping limitations; CCC access: factual coordinates/names only, source terms retained in provenance.","attribution":"NOAA NOS Office of Response and Restoration, Central California ESI (2006); California Coastal Commission access inventory."}},{"type":"Feature","id":"cayucos-beach","geometry":{"type":"MultiLineString","coordinates":[[[-120.901891057606,35.445942157496],[-120.901953623622,35.446003875498],[-120.902072473649,35.4460960624993],[-120.902186197674,35.4461703114992],[-120.902304797702,35.4462715285014],[-120.902450648735,35.4463821215027],[-120.902656096781,35.4465299325039],[-120.902787728811,35.4466316185053],[-120.902868482828,35.4466779615046],[-120.902987707853,35.4467521795042],[-120.903081024871,35.4467899915019],[-120.903127651879,35.4467997414999],[-120.903181748891,35.4468367725],[-120.903287190915,35.4469107715004],[-120.903387227937,35.4469845835011],[-120.903513139962,35.4470407074986],[-120.903626895984,35.4470879574959],[-120.903732839004,35.4471166754919],[-120.903832407025,35.4471814564918],[-120.90389869104,35.4472276434921],[-120.903964944057,35.4473011424949],[-120.904003915069,35.4473647044986],[-120.904082075092,35.4474833905049],[-120.904187331119,35.4475934205088],[-120.904299743146,35.4476944195113],[-120.90444537518,35.4478142615136],[-120.904611134214,35.4478982295112],[-120.904723764235,35.4479361975077],[-120.904870803264,35.4480020095047],[-120.904998122289,35.448058134502],[-120.905090345309,35.4481139775015],[-120.905237384338,35.4481795074985],[-120.905350921361,35.4482357574967],[-120.905485334386,35.4482831004927],[-120.905583933406,35.448329881491],[-120.905690782427,35.4483768804887],[-120.905817163453,35.448442036487],[-120.905943107478,35.4484984414844],[-120.905997079488,35.4485171604828],[-120.906137617514,35.4485647534785],[-120.906197495526,35.4485929724774],[-120.906346565553,35.4486326904717]],[[-120.894336363856,35.4398493803907],[-120.894336332856,35.4398494113907],[-120.894295205857,35.4399206294001],[-120.894366927877,35.4400210974052],[-120.894432024891,35.4400583154046],[-120.894578094923,35.4401601584051],[-120.894618971931,35.4401786894043],[-120.894684537946,35.4402249074046],[-120.89475172896,35.4402620944039],[-120.894777917967,35.4402897504049],[-120.894824419977,35.4403265314055],[-120.894843232982,35.440344937406],[-120.894856264989,35.4403991554104],[-120.894862202993,35.4404354054135],[-120.894876672996,35.4404355924126],[-120.894936519008,35.4404638114115],[-120.894969771012,35.4404554054086],[-120.89500858502,35.440473967408],[-120.895132967055,35.4406384344158],[-120.895166156069,35.4407383704232],[-120.895250379092,35.4408387134276],[-120.895276880099,35.4408753694294],[-120.895302131107,35.4409117744312],[-120.895321382112,35.4409391804327],[-120.89535294613,35.4410751484436],[-120.895419919142,35.4410943044413],[-120.895486422156,35.4411314914406],[-120.89555223817,35.44116870944],[-120.895605897181,35.4411967094393],[-120.895660056193,35.4412337084394],[-120.895704964204,35.4412795204409],[-120.895751716214,35.4413073014407],[-120.895837689235,35.4413899254431],[-120.89588953625,35.4414629564468],[-120.895975259272,35.4415545804502],[-120.896008698281,35.4415911734516],[-120.896127766307,35.441674391452],[-120.896232553333,35.4417754524551],[-120.896318682353,35.4418490774567],[-120.896424188379,35.4419501074596],[-120.896516411399,35.4420059504591],[-120.896662950429,35.4420895124579],[-120.896735828443,35.442117949456],[-120.896811332459,35.4421540114547]],[[-120.891000697027,35.4365596662868],[-120.891003791028,35.436563790287],[-120.891103202052,35.4366556022895],[-120.891154392065,35.4367016332907],[-120.891240366086,35.4367842572931],[-120.891319869107,35.4368756622968],[-120.891412062129,35.436958505299],[-120.891549100165,35.4371141913052],[-120.891702482199,35.4372250023061],[-120.891820582229,35.43734425131],[-120.891946369261,35.4374817183152],[-120.892057094291,35.4376187483213],[-120.892155661316,35.4377198403248],[-120.892261635341,35.437802871326],[-120.892354890361,35.4378674333263],[-120.892479177392,35.4379869313299],[-120.892597433421,35.438097149333],[-120.892749878458,35.4382439913374],[-120.892880541494,35.4384084273448],[-120.893011485529,35.4385641443515],[-120.893129991562,35.4387193923588],[-120.893240215594,35.4388747033667],[-120.893372722626,35.4389941393698],[-120.893497915658,35.439131606375],[-120.893609546683,35.439205574375],[-120.893755584715,35.4393071673755],[-120.893848964735,35.4393720103759],[-120.894044318776,35.4394836343742],[-120.894050380778,35.4394871963741]]]},"properties":{"id":"cayucos-beach","name":"Cayucos sandy shore","areaId":"central","region":"morro-bay","substrate":"sand","shoreClass":"NOAA ESI 3A · fine to medium-grained sandy beach","sourceYear":2006,"sourceUrl":"https://services2.arcgis.com/C8EMgrsFcRFL6LrL/arcgis/rest/services/Central_California_ESI_2006_test/FeatureServer/3","sourceObjectIds":[2283,2287,2289],"geometryMethod":"Contiguous original NOAA vertices selected within named beach latitude limits; no interpolation, buffers, coordinate simplification, or connections across gaps.","horizontalAccuracyM":null,"access":[{"id":"ccc-797","name":"Cayucos State Beach","coordinates":[-120.9061287409,35.4486948401621],"sourceUrl":"https://services9.arcgis.com/wwVnNW92ZHUIr0V0/arcgis/rest/services/AccessPoints/FeatureServer/0/query?objectIds=797&outFields=OBJECTID%2CName%2CO_PUBLIC%2CAccessType%2CArchived%2CDate_Closd%2CClosureCom&outSR=4326&f=geojson","publicAccess":true,"checkedAt":"2026-10-03T02:48:10.183Z","note":"Use public stairs and beach entrances during day use. Avoid private property and check wave run-up, posted closures and wildlife areas."},{"id":"ccc-798","name":"Cayucos Beach","coordinates":[-120.896142738704,35.4415868405399],"sourceUrl":"https://services9.arcgis.com/wwVnNW92ZHUIr0V0/arcgis/rest/services/AccessPoints/FeatureServer/0/query?objectIds=798&outFields=OBJECTID%2CName%2CO_PUBLIC%2CAccessType%2CArchived%2CDate_Closd%2CClosureCom&outSR=4326&f=geojson","publicAccess":true,"checkedAt":"2026-10-03T02:48:10.183Z","note":"Use public stairs and beach entrances during day use. Avoid private property and check wave run-up, posted closures and wildlife areas."}],"accessUrl":"https://slocountyparks.com/day-use-parks/cayucos-beach/","checkedAt":"2026-10-03T02:48:10.509Z","reviewExpiresAt":"2026-11-02T02:48:10.509Z","accessReviewedAt":"2026-10-03T02:48:10.183Z","accessReviewExpiresAt":"2026-10-10T02:48:10.183Z","legalReviewedAt":"2026-10-03T02:43:19.000Z","legalReviewExpiresAt":"2026-10-04T02:43:19.000Z","legalSourceUrl":"https://wildlife.ca.gov/Fishing/Ocean/Regulations/Fishing-Map/Central","license":"NOAA ESI: no use constraints beyond stated mapping limitations; CCC access: factual coordinates/names only, source terms retained in provenance.","attribution":"NOAA NOS Office of Response and Restoration, Central California ESI (2006); California Coastal Commission access inventory."}},{"type":"Feature","id":"pismo-beach","geometry":{"type":"MultiLineString","coordinates":[[[-120.643857664779,35.1387369879747],[-120.643915447796,35.1388258629798],[-120.644010918831,35.1390352989943],[-120.644091077856,35.1391808920035],[-120.644171485882,35.1393177970118],[-120.644311834915,35.1394467640158],[-120.64441318194,35.1395477950193],[-120.644479714962,35.1396662000268],[-120.64458715599,35.1397944800326],[-120.644667721017,35.1399493860428],[-120.644734722039,35.140076791051],[-120.64483488107,35.1402411650608],[-120.644942916101,35.1403964760693],[-120.645036356128,35.1405335690769],[-120.645143734163,35.1407339110898],[-120.645290488211,35.1409981911064],[-120.645405742244,35.1411627521154],[-120.645539152279,35.1413185011223],[-120.645659781315,35.1415103121335],[-120.645774222347,35.1416565921407],[-120.645881569378,35.1418119031492],[-120.646002604411,35.1419677141569],[-120.646135733447,35.1421324631647],[-120.646249924479,35.1422880241728],[-120.646384428515,35.1424527421806],[-120.646471431542,35.1425988971895],[-120.646538057568,35.1427623022012],[-120.646633185598,35.1429354262122],[-120.646740220626,35.1430547062172],[-120.646806347647,35.1431641122238],[-120.646901412673,35.1432921732304],[-120.647028354708,35.1434569532386],[-120.647129544738,35.1436122962475],[-120.647236360771,35.1437856382577],[-120.647370395806,35.1439413562647],[-120.647464960834,35.144087449273],[-120.647604371869,35.1442254162778],[-120.647738939903,35.144363415283],[-120.647893319942,35.1445286012895],[-120.648019948973,35.1446573502943],[-120.648160704008,35.144795318299],[-120.64829583304,35.1449150043023],[-120.648456808081,35.1450894403094],[-120.648609751116,35.1452095963116],[-120.648737724148,35.1453383443162],[-120.648925855195,35.1455221873225],[-120.649126706246,35.1457425603316],[-120.649293337283,35.145862903333],[-120.649448311319,35.1459830583352],[-120.649582503352,35.1461120573394],[-120.649716508383,35.1462227433419],[-120.649890358424,35.1463793673464],[-120.650051144464,35.1465358033517],[-120.650184399497,35.1466735213569],[-120.650298997524,35.1467657393588],[-120.650405594551,35.146876019363],[-120.650480127574,35.1470036433708],[-120.650534285589,35.1470767993745],[-120.650614382611,35.1471776733794],[-120.650735979643,35.1473151723853],[-120.650801919661,35.1474065463901],[-120.650903016687,35.1475168583946],[-120.651029489717,35.1476273263976],[-120.651113961734,35.1476718573967],[-120.651157244743,35.1476930133961],[-120.651223559759,35.1477483563974],[-120.65128471877,35.1477677313955],[-120.651344188784,35.1478228243972],[-120.651351407789,35.1478591054003],[-120.651418691804,35.1479054484006],[-120.651519257824,35.1479614483998],[-120.651599729843,35.1480262914012],[-120.651693295861,35.1480640413991],[-120.651759266873,35.1480833533969],[-120.651853645889,35.1480940713921],[-120.6519102729,35.1481169463908]],[[-120.64093267784,35.1334763076427],[-120.640950397845,35.1335034946443],[-120.641057744876,35.1336588376528],[-120.641159434908,35.1338411796642],[-120.641231967936,35.1340138666766],[-120.641393659981,35.134233333688],[-120.641533977021,35.134434362699],[-120.64168116906,35.1346085807068],[-120.641796485094,35.1347731417158],[-120.641895582127,35.1349732647291],[-120.64198286516,35.1351824517441],[-120.642023834182,35.1353544497584],[-120.642131743216,35.1355367927695],[-120.642238371247,35.135692134778],[-120.642311654272,35.1358377907877],[-120.642426939305,35.1360023517966],[-120.642513410333,35.1361662258072],[-120.64264763337,35.1363402558159],[-120.642755042405,35.1365405978288],[-120.642842263438,35.1367497838438],[-120.642976547486,35.1370408758638],[-120.643077331519,35.1372319678762],[-120.643211866566,35.1375140598954],[-120.643332276603,35.1377149019075],[-120.643426465635,35.1378970259195],[-120.643521155671,35.1381332119366],[-120.64364172171,35.1383517729505],[-120.643752849745,35.1385433649622]],[[-120.636541811389,35.1251328691004],[-120.636616063413,35.1252695241092],[-120.636669314433,35.1253969921183],[-120.636763035463,35.1255701161294],[-120.636890695502,35.125779927142],[-120.636998980533,35.1259262381496],[-120.637064606552,35.1260266431553],[-120.637118951573,35.1261628301652],[-120.637206453605,35.1263630161794],[-120.637286924634,35.1265446711921],[-120.637401240668,35.1267182632019],[-120.637528150703,35.1268830432102],[-120.637628747735,35.1270564172209],[-120.637857191801,35.1273852892388],[-120.637977038839,35.1276038502528],[-120.638064821871,35.127795036266],[-120.638185699913,35.1280499092834],[-120.638259638944,35.1282676273],[-120.638373829981,35.1284682193125],[-120.638474645014,35.128659311325],[-120.638575460051,35.1288957163417],[-120.638655618077,35.129041621351],[-120.638736589105,35.129205557362],[-120.638789808131,35.1294047753781],[-120.638884154164,35.1296049293919],[-120.639025158209,35.1298509594071],[-120.63910581624,35.1300509264216],[-120.639218850278,35.130269518436],[-120.639360698324,35.130533860453],[-120.63946782636,35.1307432024668],[-120.639508545383,35.1309242324819],[-120.639602109418,35.1311513874982],[-120.639763364463,35.1313618545088],[-120.639863149493,35.1315172285178],[-120.639890586508,35.1316350085275],[-120.639943337529,35.1317802265384],[-120.640031965556,35.1319170695463],[-120.640146125588,35.1320726305545],[-120.640279785626,35.1322643795649],[-120.640441477672,35.1324838775763],[-120.640514229698,35.1326475325877],[-120.640548573714,35.1327655625971],[-120.640628606743,35.132938467609],[-120.640743016781,35.1331570916233],[-120.640830018808,35.1333029336322],[-120.64093267784,35.1334763076427]]]},"properties":{"id":"pismo-beach","name":"Pismo Beach","areaId":"south","region":"morro-bay","substrate":"sand","shoreClass":"NOAA ESI 3A · fine to medium-grained sandy beach","sourceYear":2006,"sourceUrl":"https://services2.arcgis.com/C8EMgrsFcRFL6LrL/arcgis/rest/services/Central_California_ESI_2006_test/FeatureServer/3","sourceObjectIds":[2632,2636,2637],"geometryMethod":"Contiguous original NOAA vertices selected within named beach latitude limits; no interpolation, buffers, coordinate simplification, or connections across gaps.","horizontalAccuracyM":null,"access":[{"id":"ccc-868","name":"City of Pismo Beach","coordinates":[-120.643327671047,35.1389368267632],"sourceUrl":"https://services9.arcgis.com/wwVnNW92ZHUIr0V0/arcgis/rest/services/AccessPoints/FeatureServer/0/query?objectIds=868&outFields=OBJECTID%2CName%2CO_PUBLIC%2CAccessType%2CArchived%2CDate_Closd%2CClosureCom&outSR=4326&f=geojson","publicAccess":true,"checkedAt":"2026-10-03T02:48:10.183Z","note":"Use city beach approaches. Adjacent creek mouths, breakers and rip currents require local checks."},{"id":"ccc-870","name":"Pismo Beach (Addie Street)","coordinates":[-120.641104669614,35.1359638266716],"sourceUrl":"https://services9.arcgis.com/wwVnNW92ZHUIr0V0/arcgis/rest/services/AccessPoints/FeatureServer/0/query?objectIds=870&outFields=OBJECTID%2CName%2CO_PUBLIC%2CAccessType%2CArchived%2CDate_Closd%2CClosureCom&outSR=4326&f=geojson","publicAccess":true,"checkedAt":"2026-10-03T02:48:10.183Z","note":"Use city beach approaches. Adjacent creek mouths, breakers and rip currents require local checks."}],"accessUrl":"https://www.parks.ca.gov/?page_id=595","checkedAt":"2026-10-03T02:48:10.509Z","reviewExpiresAt":"2026-11-02T02:48:10.509Z","accessReviewedAt":"2026-10-03T02:48:10.183Z","accessReviewExpiresAt":"2026-10-10T02:48:10.183Z","legalReviewedAt":"2026-10-03T02:43:19.000Z","legalReviewExpiresAt":"2026-10-04T02:43:19.000Z","legalSourceUrl":"https://wildlife.ca.gov/Fishing/Ocean/Regulations/Fishing-Map/Central","license":"NOAA ESI: no use constraints beyond stated mapping limitations; CCC access: factual coordinates/names only, source terms retained in provenance.","attribution":"NOAA NOS Office of Response and Restoration, Central California ESI (2006); California Coastal Commission access inventory."}},{"type":"Feature","id":"oceano-beach","geometry":{"type":"MultiLineString","coordinates":[[[-120.630296660129,35.0891678519772],[-120.630297939149,35.0893842879982],[-120.630321469176,35.0896371930214],[-120.630311873202,35.0899434410519],[-120.630327184228,35.0901960960756],[-120.63035668226,35.0905032811038],[-120.630379774293,35.0908192171332],[-120.630402148318,35.0910631211556],[-120.630403927343,35.0913335571819],[-120.630407707364,35.0915589932037],[-120.630429081387,35.0917668672227],[-120.630465330416,35.092028959246],[-120.630500486441,35.0922370512642],[-120.630522423466,35.0924716442857],[-120.630573140508,35.0928513293196],[-120.630608608536,35.0930954213413],[-120.630624732563,35.0933663573667],[-120.630667888594,35.0936284493897],[-120.630702762623,35.0938905414131],[-120.630725199642,35.0940623834285],[-120.630726260656,35.0942157894434],[-120.630702632673,35.0944405064668],[-120.630696755693,35.0946656924891],[-120.630665408707,35.0948724415112],[-120.630648218724,35.0950886905334],[-120.63062318474,35.0953134085568],[-120.630612463755,35.0954935945751],[-120.630587179772,35.0957273115994],[-120.630603709796,35.0959622476213],[-120.630618989822,35.096214902645],[-120.630640519842,35.0963954646614],[-120.630655268858,35.0965490566754],[-120.630664174876,35.0967387116934],[-120.63066545489,35.0968827737073],[-120.630674077916,35.0971534907332],[-120.630677793943,35.097450957762],[-120.630686479963,35.0976496127809],[-120.630695259984,35.0978659868015],[-120.630697134,35.0980373918181],[-120.630698694019,35.0982447968382],[-120.63071322404,35.0984524208576],[-120.630716566071,35.0987859188899],[-120.630733657104,35.0991198849215],[-120.630776125135,35.0993822589444],[-120.630846064167,35.0996180069632],[-120.630881970189,35.0997987559786],[-120.63091796922,35.1000701600028],[-120.63092568724,35.1002775340226],[-120.630933560262,35.1005029390441],[-120.630949684289,35.1007738750695],[-120.631001245333,35.1011715601051],[-120.631030368369,35.1015144951368],[-120.631072930397,35.1017498061572],[-120.631109461426,35.1020029291796],[-120.63114583546,35.1023100522073],[-120.631175616485,35.1025361762276],[-120.631238428524,35.1028527362546],[-120.631287240557,35.1031333592789],[-120.631330271583,35.1033503892974],[-120.631386303615,35.1035949193179],[-120.631455710649,35.1038486983383],[-120.63151146068,35.1041022593597],[-120.63160705672,35.1043744443803],[-120.631662338747,35.1045739743964],[-120.631697369767,35.1047370044101],[-120.631705712784,35.1048993474254],[-120.631707210803,35.1051067834456],[-120.631736772829,35.1053416264667],[-120.631739989851,35.1055850624902],[-120.631741549871,35.1057924675103],[-120.631755829893,35.1060090905306],[-120.631785891917,35.10622621455],[-120.63180126594,35.106451837571],[-120.631836484962,35.1066328995865],[-120.631864171983,35.1068137106024],[-120.631906703011,35.1070487716228],[-120.631922639032,35.107256363642],[-120.631985921066,35.1075101746628],[-120.632013890086,35.1076819866779],[-120.632041420109,35.1078898286965],[-120.632063638129,35.1080706717127],[-120.632052512143,35.1082415457301],[-120.632053448159,35.1084219507476],[-120.632070134185,35.1086746057713],[-120.632092851214,35.1089545097972],[-120.632102568241,35.1092341958239],[-120.63209700326,35.1094503818453],[-120.632146909294,35.1097400048705],[-120.632196471325,35.1099933158921],[-120.632246471357,35.1102556269146],[-120.632282252388,35.1105359999397],[-120.632370878425,35.110789966959],[-120.632413191447,35.1109622469733],[-120.632516412489,35.1112346819935],[-120.632558725511,35.1114066810076],[-120.63261319454,35.1116332420264],[-120.63269738358,35.1119232090494],[-120.632752196606,35.1121137390647],[-120.632794133631,35.1123217690823],[-120.632849821659,35.1125302990993],[-120.632931573691,35.1127392351146],[-120.633020950726,35.1129664201313],[-120.633069357751,35.1131657001477],[-120.633131451779,35.1133651991634],[-120.633174888809,35.1136182601853],[-120.633189607826,35.1137718521994],[-120.633217388844,35.1139256332127]]]},"properties":{"id":"oceano-beach","name":"Oceano · Pier Avenue shore","areaId":"south","region":"morro-bay","substrate":"sand","shoreClass":"NOAA ESI 3A · fine to medium-grained sandy beach","sourceYear":2006,"sourceUrl":"https://services2.arcgis.com/C8EMgrsFcRFL6LrL/arcgis/rest/services/Central_California_ESI_2006_test/FeatureServer/3","sourceObjectIds":[2638],"geometryMethod":"Contiguous original NOAA vertices selected within named beach latitude limits; no interpolation, buffers, coordinate simplification, or connections across gaps.","horizontalAccuracyM":null,"access":[{"id":"ccc-875","name":"Pismo State Beach","coordinates":[-120.63006666456,35.0968828235314],"sourceUrl":"https://services9.arcgis.com/wwVnNW92ZHUIr0V0/arcgis/rest/services/AccessPoints/FeatureServer/0/query?objectIds=875&outFields=OBJECTID%2CName%2CO_PUBLIC%2CAccessType%2CArchived%2CDate_Closd%2CClosureCom&outSR=4326&f=geojson","publicAccess":true,"checkedAt":"2026-10-03T02:48:10.183Z","note":"Pier Avenue approach. Respect posted vehicle, creek-crossing, dune and wildlife restrictions; do not infer access from a habitat line."}],"accessUrl":"https://ohv.parks.ca.gov/?page_id=1207","checkedAt":"2026-10-03T02:48:10.509Z","reviewExpiresAt":"2026-11-02T02:48:10.509Z","accessReviewedAt":"2026-10-03T02:48:10.183Z","accessReviewExpiresAt":"2026-10-10T02:48:10.183Z","legalReviewedAt":"2026-10-03T02:43:19.000Z","legalReviewExpiresAt":"2026-10-04T02:43:19.000Z","legalSourceUrl":"https://wildlife.ca.gov/Fishing/Ocean/Regulations/Fishing-Map/Central","license":"NOAA ESI: no use constraints beyond stated mapping limitations; CCC access: factual coordinates/names only, source terms retained in provenance.","attribution":"NOAA NOS Office of Response and Restoration, Central California ESI (2006); California Coastal Commission access inventory."}}]}
