{"type":"FeatureCollection","crs":{"type":"name","properties":{"name":"EPSG:4326"}},"features":[{"type":"Feature","geometry":{"type":"Polygon","coordinates":[[[-121.350012833658,35.7141715036377],[-121.30835892591,35.6525097058193],[-121.3483589391,35.6525097014397],[-121.348566696069,35.6525097007097],[-121.348581261353,35.652563046991],[-121.348741457019,35.6530814419647],[-121.348927321147,35.6537115881712],[-121.349226667647,35.6548311131167],[-121.349546602635,35.6561769824186],[-121.349750003674,35.6571405840571],[-121.350081860204,35.6575064815699],[-121.351066490112,35.6586244928202],[-121.35208855731,35.659859641328],[-121.35300858757,35.6610454385579],[-121.35391439121,35.6622856724503],[-121.354754864871,35.6635187514269],[-121.3555383018,35.6647461011748],[-121.356284923074,35.6659970175875],[-121.356979396247,35.6672522684262],[-121.357622820857,35.6684975604484],[-121.358222633159,35.6697617059806],[-121.358802608863,35.6710841358793],[-121.359337898771,35.6724249542373],[-121.35981625705,35.6737449136031],[-121.359902609403,35.6739955529049],[-121.360270706667,35.6743403909166],[-121.360836657872,35.6748805585142],[-121.361938820657,35.6759826030603],[-121.363007210381,35.6771117034117],[-121.364066563053,35.6783011921039],[-121.365013540974,35.6794331280823],[-121.365938723072,35.6806023129986],[-121.366799301928,35.6817641096185],[-121.367621300837,35.6829399886031],[-121.368454662536,35.6842161416388],[-121.369266450295,35.6855531415168],[-121.369975860655,35.6868063125315],[-121.370641260752,35.6880784112632],[-121.371260240407,35.6893528587348],[-121.371839404034,35.6906210930608],[-121.372385862696,35.6919114551169],[-121.372898771977,35.6932396937626],[-121.373144249205,35.6938899514857],[-121.3735179816,35.6945250976986],[-121.374222794383,35.695781201338],[-121.3749128182,35.6971076706166],[-121.375518615078,35.6983739578284],[-121.37610323597,35.6996952095658],[-121.376641725677,35.7010374591554],[-121.37712867724,35.7023716997442],[-121.377572966013,35.7037246027278],[-121.377965673523,35.7050759049302],[-121.378310729898,35.7064147019086],[-121.378604555353,35.7077509912142],[-121.378858728273,35.7091023827218],[-121.379069333799,35.7104859453423],[-121.379231568641,35.7118577683479],[-121.379349062891,35.7132375574356],[-121.379391206454,35.7139762622066],[-121.379402081459,35.7141763758784],[-121.350012833658,35.7141715036377]]]},"properties":{"NAME":"Piedras Blancas SMCA","FULLNAME":"Piedras Blancas State Marine Conservation Area","Type":"SMCA","CCR":"Section 632 (b) (88)"}},{"type":"Feature","geometry":{"type":"Polygon","coordinates":[[[-121.316421725997,35.7135503131252],[-121.315974386545,35.7134051664952],[-121.31591252047,35.7135360369094],[-121.315927877169,35.7136089117379],[-121.315629365204,35.713726393293],[-121.315289102239,35.7137454294169],[-121.314936941986,35.7136788047867],[-121.314325420145,35.7133908895242],[-121.313983792639,35.7131023459485],[-121.313943561589,35.7130477921473],[-121.313943514876,35.7130476820097],[-121.313941748789,35.7130451204002],[-121.31394020728,35.7130424450062],[-121.313938891248,35.7130396944851],[-121.313938086357,35.7130376762693],[-121.313632530701,35.7126796861261],[-121.313460029912,35.7125869469217],[-121.313287974688,35.7125890111007],[-121.312726421634,35.7122701641102],[-121.312606805564,35.7120350098081],[-121.312517028833,35.7118585174402],[-121.312157731465,35.7114968392507],[-121.311982253659,35.7110945847891],[-121.311945959027,35.7108401079244],[-121.311993547279,35.71072113485],[-121.31191502554,35.710288072643],[-121.311761175573,35.7101854157339],[-121.311656864999,35.7101355931056],[-121.311630960281,35.7101406012641],[-121.311503378849,35.7102000324566],[-121.311382026336,35.7102190686934],[-121.311327887569,35.7101991936309],[-121.311194048473,35.7101500639547],[-121.311094110897,35.7102143092699],[-121.310818093645,35.7101881357181],[-121.310668187282,35.7102595197697],[-121.310132808441,35.7105046036759],[-121.309775889812,35.7105022243375],[-121.309728300661,35.7104403578652],[-121.30944276486,35.7103618359478],[-121.309366622758,35.7103808721459],[-121.309160408197,35.7103501799395],[-121.308855038492,35.7103047295144],[-121.308855038492,35.7102856932981],[-121.308233998102,35.7101096128228],[-121.308207824788,35.7101096135522],[-121.308145224789,35.7100919172241],[-121.308032645223,35.7100600935838],[-121.307997945998,35.7100504521758],[-121.307877080372,35.7100548855606],[-121.307908420795,35.7100214075914],[-121.308086472275,35.70983121596],[-121.30846480674,35.7098502515555],[-121.308624230753,35.7098431142107],[-121.308888350718,35.7098002835637],[-121.30891452493,35.7098216985254],[-121.308997805944,35.7098050422824],[-121.309050154369,35.7098193184371],[-121.309261926807,35.70981218036],[-121.309392796073,35.7097479354501],[-121.309435626847,35.709614685286],[-121.30943828047,35.7095906582183],[-121.309594926893,35.7092568154405],[-121.309597777247,35.7092564142583],[-121.30960139656,35.7092560779945],[-121.309605018567,35.7092559277335],[-121.309207198745,35.7090293381934],[-121.308598056541,35.708532030387],[-121.30767958396,35.7076540089754],[-121.307446396583,35.7073375406413],[-121.307432120557,35.7070282115661],[-121.307441637309,35.7068354750554],[-121.307487675967,35.7067832986026],[-121.307601061323,35.706680809329],[-121.307560610185,35.7064785556033],[-121.30742974092,35.706216814726],[-121.307398808331,35.7061501896382],[-121.307436878933,35.70603359633],[-121.307539196146,35.7059955247705],[-121.307541574884,35.7059645916151],[-121.307601061323,35.7058979670459],[-121.307484468982,35.7057647177405],[-121.30747733007,35.7056433649017],[-121.307332078777,35.7056423961848],[-121.307234624145,35.7054839408037],[-121.307206071194,35.7055196323908],[-121.307098217664,35.7054906291934],[-121.30692291503,35.7054434902217],[-121.306892119883,35.7053864276794],[-121.306842013654,35.70529358443],[-121.306877705516,35.7050889498731],[-121.306918156654,35.7048510038855],[-121.307044267543,35.704682062343],[-121.306875325879,35.7043965269283],[-121.306811080167,35.7044131835719],[-121.306708762954,35.7043989064491],[-121.306535062914,35.704229964678],[-121.306375639799,35.7041514424785],[-121.306161487724,35.7039896387821],[-121.30600206371,35.7039325321603],[-121.30584977771,35.7039634646453],[-121.305671318396,35.7038968398627],[-121.305338194342,35.7036826879296],[-121.305378644581,35.7036588939644],[-121.305335813807,35.7036017871057],[-121.305276327368,35.7036041666502],[-121.305100247691,35.703506608917],[-121.305047899266,35.7034994702747],[-121.30491940874,35.7033471841935],[-121.304729052138,35.7030307162693],[-121.304605319089,35.7028046678167],[-121.304514900062,35.7026666585733],[-121.304203190947,35.7024453682466],[-121.304081838433,35.7023478105545],[-121.30392241442,35.7023002210906],[-121.303801061907,35.7021503159539],[-121.303610704406,35.7020670347142],[-121.303313272216,35.7018766782063],[-121.303322789866,35.7018148116051],[-121.302904005162,35.7015149992245],[-121.30276361645,35.7012984685754],[-121.302692232724,35.7012960889621],[-121.30256136256,35.7011604596428],[-121.302509014135,35.7011414241608],[-121.302423353485,35.7010129334439],[-121.302271154621,35.701010420324],[-121.302268625863,35.7010083106164],[-121.302266784317,35.7010065605511],[-121.302231151743,35.7009708953939],[-121.302193836624,35.70094295488],[-121.302172793589,35.7009341534811],[-121.30208309052,35.7007607106477],[-121.302014086431,35.7007012235411],[-121.301934287288,35.7007218764307],[-121.301879831415,35.7006825497818],[-121.301873697718,35.7006060455373],[-121.301754724842,35.7003990324396],[-121.301633911318,35.7004071043942],[-121.301535814391,35.7004323452051],[-121.301290064075,35.7003542328941],[-121.301214587625,35.7002634030533],[-121.301001845006,35.7001713489989],[-121.300974972803,35.7001310861224],[-121.300738695222,35.6999802475152],[-121.300567409853,35.6999810404896],[-121.300306080055,35.6998531191078],[-121.300031994181,35.6997399219405],[-121.299899159401,35.6996123153205],[-121.299729802716,35.6994496269976],[-121.299577516716,35.6993068598967],[-121.299594174176,35.6992854450285],[-121.299539446114,35.6992188199842],[-121.299422851977,35.699168851894],[-121.299351469149,35.699242614545],[-121.299094486299,35.6991902660641],[-121.298747085321,35.6989142494163],[-121.298556728719,35.6986501280866],[-121.298506759931,35.698545432501],[-121.298321161705,35.6984978429562],[-121.298233122316,35.698371732057],[-121.298068939028,35.6983312807846],[-121.297942828139,35.6983693523564],[-121.297757229913,35.6983312815142],[-121.297581149337,35.6982004102108],[-121.297474073749,35.6979719822122],[-121.297509765612,35.6978934596858],[-121.297362238886,35.6978910799709],[-121.297083841996,35.69773641586],[-121.29669598988,35.6976602728235],[-121.296622226518,35.6977221390006],[-121.296355726017,35.697679308407],[-121.29635334638,35.6976459959504],[-121.296191543628,35.6976578931016],[-121.295879833614,35.697510366988],[-121.295691279032,35.6973889490589],[-121.29556574576,35.697308113343],[-121.295349214945,35.6971201346956],[-121.295172108494,35.6969647541453],[-121.29496924375,35.6968411920088],[-121.294823352856,35.6968060466069],[-121.294611580418,35.6966275865166],[-121.294418845077,35.6964062969382],[-121.294264180338,35.6961850067458],[-121.294197554988,35.6961683505719],[-121.294080961749,35.6960113062669],[-121.293981023275,35.695637730952],[-121.29398578255,35.6953736104426],[-121.294030992961,35.6952308433397],[-121.293724042222,35.6949262721309],[-121.293155351155,35.694597906008],[-121.29306493123,35.6946169423225],[-121.292815087292,35.6944979691121],[-121.292615212141,35.6943504429893],[-121.292577142438,35.6943028538592],[-121.292293986273,35.6940506309957],[-121.292041762698,35.6936722955695],[-121.291822852246,35.6932796850712],[-121.291775263096,35.6931369171382],[-121.291532558069,35.6930512568393],[-121.291318406892,35.692937042478],[-121.291118530843,35.6927490652004],[-121.291111393728,35.6926967168342],[-121.291054286029,35.6926205748224],[-121.290963866104,35.692603917904],[-121.290447523461,35.6921042306229],[-121.290028738757,35.6915878881878],[-121.289802689394,35.6912761786516],[-121.289650403394,35.6909501920143],[-121.289448149505,35.6906218270312],[-121.289303002416,35.6904505060462],[-121.289131681115,35.6899151271469],[-121.289022225889,35.6895367925324],[-121.288922288314,35.689258396062],[-121.288917529039,35.6889704808848],[-121.28904126119,35.6887420527149],[-121.288955600539,35.6886064239319],[-121.288896114101,35.6885231416803],[-121.288893735362,35.6884303430016],[-121.288972257101,35.6883708569116],[-121.288936565238,35.6882495045959],[-121.289169752615,35.6876617774936],[-121.289410078004,35.687461902976],[-121.289333935903,35.6873905182124],[-121.289326796991,35.6873310320766],[-121.289407698367,35.6873357914069],[-121.289467184805,35.6872001616921],[-121.289502876668,35.6870573938214],[-121.289452907881,35.6870169433769],[-121.289488600642,35.6869193857799],[-121.289574260394,35.6868670365063],[-121.289605193881,35.6866671621863],[-121.289350591566,35.6862436179896],[-121.28933869338,35.6860580210577],[-121.28945581932,35.6860768434387],[-121.289540948168,35.6860223287853],[-121.289545706544,35.685953324264],[-121.289233354235,35.6857880120285],[-121.289115023654,35.6856773063112],[-121.289014263222,35.6856632527512],[-121.289015087876,35.6855726097475],[-121.288950841265,35.6855392973415],[-121.288931009158,35.685566123986],[-121.288810452552,35.6855845072404],[-121.288770003212,35.6855464361323],[-121.288853735179,35.6854977254006],[-121.288789533484,35.6854976984039],[-121.28878667774,35.6854976546255],[-121.288783049445,35.6854974014405],[-121.288781277967,35.68549720006],[-121.288779508286,35.6854969607382],[-121.288775963534,35.6854963368962],[-121.288772461002,35.6854955269961],[-121.288770775763,35.6854950286522],[-121.288769090523,35.6854945317676],[-121.288765763164,35.6854933519401],[-121.288762523839,35.6854919860545],[-121.288761610252,35.6854915541077],[-121.288677202751,35.6855369179876],[-121.288624856123,35.6855178831541],[-121.288646270163,35.6854750518436],[-121.288543953849,35.6854821906402],[-121.288489226685,35.6855107443607],[-121.288486846149,35.6855369179876],[-121.288446395012,35.6855036062964],[-121.28847494976,35.6854464988399],[-121.288515399999,35.685432222699],[-121.288538215411,35.6853796287493],[-121.288488281657,35.6853513529751],[-121.288470189587,35.6853822539968],[-121.28844639591,35.6854298426123],[-121.288415462424,35.6854179458259],[-121.288410704048,35.6853536995006],[-121.288372632547,35.6853537002303],[-121.288356798842,35.6853088769105],[-121.288313886321,35.6852969377869],[-121.288311336902,35.6852961534222],[-121.288308008644,35.6852949743214],[-121.288306047622,35.68529418339],[-121.288251280034,35.6853013513884],[-121.288235658331,35.6852640324059],[-121.288199216375,35.6852484231765],[-121.288198578571,35.6852481721797],[-121.288197939869,35.685247883971],[-121.288195974355,35.6852469106287],[-121.288194879309,35.6852463699639],[-121.288192134057,35.6852448143671],[-121.28811584014,35.6851990103468],[-121.28811561107,35.6851988651479],[-121.288114604058,35.6851982493297],[-121.28805378452,35.6852109319737],[-121.287941949658,35.6851681019576],[-121.287787284918,35.6850610260872],[-121.287518405679,35.6846731742814],[-121.287275700652,35.6843043571769],[-121.28713531194,35.6837261485573],[-121.287121035913,35.6832050463085],[-121.287225731865,35.6827910204465],[-121.287270942276,35.6826482527116],[-121.287442262679,35.6824483780374],[-121.287492231467,35.6822128110748],[-121.287548541462,35.6821637736044],[-121.287553692402,35.6821270930754],[-121.287535062241,35.6818963424631],[-121.287589757066,35.6818479096973],[-121.287589725625,35.6818188876749],[-121.28753744098,35.6818249592866],[-121.28746129798,35.681784508378],[-121.287447021953,35.6817345395803],[-121.287473195268,35.6816940886258],[-121.287423227378,35.6816179463269],[-121.287399431905,35.6816179455972],[-121.287399432803,35.6815822535275],[-121.287281744518,35.6814631236958],[-121.287194798378,35.6814442455005],[-121.287147209227,35.6812515091743],[-121.287011580687,35.6810873254972],[-121.286847396501,35.680842241649],[-121.286787910063,35.6805519479713],[-121.286776012776,35.6802949649283],[-121.286878329988,35.6801307822018],[-121.286906883838,35.6801807512741],[-121.286958195607,35.6801600602292],[-121.286987703467,35.6801052627918],[-121.286994747157,35.6800140654764],[-121.286994860345,35.680012699497],[-121.286937816426,35.6797429305087],[-121.286866433599,35.6794645334263],[-121.286810575456,35.6790813879683],[-121.286802187886,35.6789981592572],[-121.286730942501,35.6789583103771],[-121.286661799174,35.6789196362938],[-121.286626106413,35.6788434942661],[-121.286554722687,35.6785674765263],[-121.286533602396,35.6785302667684],[-121.28648322218,35.6783931013796],[-121.28656900051,35.678203418802],[-121.286614209125,35.6779440581014],[-121.286699282277,35.6776461167198],[-121.2867902897,35.6774848211255],[-121.286933057152,35.6774086791882],[-121.28697112955,35.6772421167595],[-121.286840258488,35.677149317364],[-121.28685691505,35.6770684158938],[-121.287004440878,35.6769613400993],[-121.287087722789,35.6769280277465],[-121.287116275741,35.6769637197089],[-121.287194798378,35.6769518223899],[-121.287211454042,35.6768637826119],[-121.287268561741,35.6768161925358],[-121.287285217404,35.6767400499605],[-121.28725904409,35.6766948408877],[-121.287299494329,35.676661527694],[-121.287323288905,35.6766258363262],[-121.287356602029,35.6765330376736],[-121.287256663555,35.6765615909482],[-121.287097239541,35.6765306580511],[-121.286909262577,35.6765449343253],[-121.286892633862,35.6764983532647],[-121.28690569896,35.676420794724],[-121.286911642214,35.6763855111637],[-121.286938576401,35.6763944889457],[-121.28698302594,35.6764093052391],[-121.287056789302,35.6763736130288],[-121.287022123316,35.676342394737],[-121.286997302864,35.6762760548229],[-121.287011579789,35.6762308454873],[-121.287042512378,35.6762546403385],[-121.287064295625,35.6762849997796],[-121.28714482959,35.6762736759225],[-121.287109137727,35.6762403632826],[-121.28710675809,35.6761689794246],[-121.287178141816,35.6761142514893],[-121.287249525542,35.6761761183241],[-121.287254284816,35.6762046717265],[-121.287331901951,35.6762661787372],[-121.287489850931,35.6762332251187],[-121.287518404781,35.6762022920943],[-121.287580270856,35.676173738691],[-121.28753744098,35.676107113314],[-121.287501841644,35.6761114281812],[-121.287458918343,35.6761166311242],[-121.287425606117,35.6761404260095],[-121.287335186192,35.6760999751381],[-121.287306632343,35.6760404886111],[-121.287318530528,35.6760143147879],[-121.287351841856,35.6760000376891],[-121.287223966675,35.6759035582934],[-121.287205844961,35.6758980422835],[-121.287204797525,35.6758977219331],[-121.287203384475,35.67589722134],[-121.287201469267,35.6758965419638],[-121.287200328407,35.6758960384518],[-121.287198230841,35.6758951766436],[-121.28719517028,35.6758936609995],[-121.287111517364,35.6759310332565],[-121.287025855816,35.6759072390385],[-121.286999681603,35.6758263370389],[-121.286918196322,35.6757663292816],[-121.286787194106,35.6757345525096],[-121.286697491037,35.675743056041],[-121.286621348036,35.6757811274485],[-121.286547584673,35.6757216406839],[-121.286495236249,35.6756764317639],[-121.286467538493,35.6756292853854],[-121.286383402284,35.6754860750249],[-121.28631201766,35.6755098686387],[-121.286298773798,35.6755683164249],[-121.286233495921,35.6755574580343],[-121.286064554257,35.6755622173371],[-121.286047898593,35.6755146279444],[-121.28585992073,35.6754717978315],[-121.285641010279,35.6754099319102],[-121.28559341484,35.6753645834348],[-121.28526092859,35.6750477826335],[-121.285259434692,35.6750451431811],[-121.285258121355,35.6750423920789],[-121.285257033495,35.6750396023008],[-121.285256842154,35.6750390126746],[-121.285256653508,35.6750385733739],[-121.285010452238,35.6746413650295],[-121.284945799589,35.674475764461],[-121.2848748228,35.6742939647341],[-121.2847986798,35.6735253980527],[-121.284670189273,35.6729186355703],[-121.284651153972,35.672173864119],[-121.284582149884,35.6717883921954],[-121.284691604211,35.6715599637266],[-121.284841510574,35.6714124367813],[-121.2850271088,35.6713481915852],[-121.285177015163,35.6712839456077],[-121.285172255889,35.6710793120895],[-121.285046144999,35.6709079907367],[-121.284931930499,35.6708485047186],[-121.284827233649,35.6707485672619],[-121.284867683888,35.6706438708139],[-121.284958103813,35.6706176966804],[-121.285108009278,35.6706676658712],[-121.285241259079,35.6705724870587],[-121.285186531915,35.6704725499861],[-121.285307884429,35.6703773709409],[-121.285215085765,35.6703297813757],[-121.285053282114,35.6703488176431],[-121.2849890373,35.6703630942932],[-121.284917653574,35.6704654113062],[-121.284812956724,35.6703511974498],[-121.285012830977,35.6701227685169],[-121.284953344539,35.6700799384298],[-121.284974760375,35.6700252106978],[-121.285055661751,35.6699895192813],[-121.285041384827,35.6697825055402],[-121.284962862189,35.6696516355642],[-121.284858167136,35.6696040462962],[-121.284698742224,35.6692661631367],[-121.284709308209,35.6690997668919],[-121.284717777525,35.6689663510158],[-121.284810577087,35.6687379224988],[-121.284886720087,35.6686784363231],[-121.284827232751,35.668652262275],[-121.284789162149,35.6685808781983],[-121.284843889313,35.6685404271446],[-121.28484626895,35.6684928379439],[-121.284910514663,35.6684761818264],[-121.284924790689,35.6684309717216],[-121.284889098826,35.6683762450485],[-121.2849128943,35.6683167578735],[-121.284958103813,35.6682882038385],[-121.284891479362,35.6681430572872],[-121.284812956724,35.6679527000964],[-121.284831992025,35.6677766202942],[-121.285050902477,35.6675791247511],[-121.285046143203,35.6675386739195],[-121.2849128943,35.6674244595246],[-121.28488434045,35.6673721113273],[-121.284948585264,35.6672816920309],[-121.284965241826,35.6671769961445],[-121.284979518751,35.6669699831375],[-121.28515321969,35.6665059873975],[-121.285286469491,35.6663608412549],[-121.285369749606,35.6662466266345],[-121.285388785805,35.6660515101606],[-121.28547920573,35.6659063631917],[-121.28577663792,35.6656517611043],[-121.285850401283,35.6656945913779],[-121.285964615783,35.6656160684623],[-121.286050276434,35.6656803146226],[-121.28613117781,35.6656470026701],[-121.286181146598,35.6655565828795],[-121.286185905872,35.6654899573979],[-121.286250150686,35.6654804397802],[-121.286290601824,35.6655732396062],[-121.28634294935,35.6655732388763],[-121.286361985549,35.6656041716412],[-121.286326293686,35.6657207656659],[-121.286411955235,35.665730283255],[-121.286507132638,35.6656684170812],[-121.286604691474,35.665516131753],[-121.286607070213,35.6654614045413],[-121.286559481063,35.6654185741427],[-121.286590413651,35.6653662260897],[-121.28672604309,35.6653114980454],[-121.286833119576,35.6652068017648],[-121.286845015966,35.6651163822054],[-121.286711766165,35.6652210786048],[-121.286621347138,35.6652496322771],[-121.286709387426,35.665037859451],[-121.286649900988,35.6650473778513],[-121.286574775779,35.665031968289],[-121.286464302762,35.6650093064328],[-121.286208465264,35.6648521650285],[-121.286083179926,35.6648116573482],[-121.286079853465,35.6648104772149],[-121.286078028088,35.6648096868103],[-121.286076615038,35.6648091117052],[-121.28607355358,35.6648075980401],[-121.286070581953,35.6648058968089],[-121.286070260356,35.6648057158113],[-121.286042299394,35.6647884765209],[-121.285959856509,35.6647047358907],[-121.285902308635,35.6647021705389],[-121.285617214805,35.6644905838274],[-121.285543615834,35.6645073050017],[-121.285505379942,35.6644382358958],[-121.285431798937,35.6644558314199],[-121.285395924716,35.6644644105958],[-121.285269812929,35.6644977230416],[-121.285119907464,35.6644739276047],[-121.285003313326,35.6643620931895],[-121.284969824133,35.6642743876552],[-121.284884339552,35.6642978474281],[-121.284836750401,35.6643192629309],[-121.284758228662,35.6642811918951],[-121.284686844937,35.6643026066725],[-121.284646394698,35.6643335399296],[-121.284539318211,35.6642907096557],[-121.284579769348,35.664202669049],[-121.284575010074,35.664171736471],[-121.284472692861,35.664121767593],[-121.284384652573,35.6641479423967],[-121.284237126746,35.6641051112934],[-121.284260921321,35.664036106795],[-121.284151466095,35.6640051734226],[-121.284130051157,35.6640646608911],[-121.284125291883,35.6641479416668],[-121.284008697746,35.6642288430963],[-121.283958729856,35.6643145036875],[-121.283732680493,35.6644144419009],[-121.283667023527,35.6643914178724],[-121.283505508236,35.6644546330356],[-121.283431611024,35.6644915858865],[-121.283425995655,35.6644943767631],[-121.283392842431,35.6645109680265],[-121.283368622953,35.6646309726861],[-121.283311516152,35.6647594636211],[-121.283161609789,35.6648879543493],[-121.283090226961,35.6648736774498],[-121.28299504866,35.6648736774498],[-121.282935113963,35.6649293253771],[-121.282939804965,35.6649558509631],[-121.282940215496,35.6649587228344],[-121.282940353836,35.6649616720673],[-121.282940339463,35.6649634418989],[-121.282940312514,35.6649646227597],[-121.282939999002,35.6649675391501],[-121.282939501335,35.6649703103048],[-121.282983151373,35.665052137051],[-121.283106881727,35.6651021060766],[-121.283064052749,35.6651782480771],[-121.282966493913,35.6652305962534],[-121.282966493913,35.6652829443953],[-121.282966494811,35.6653495693198],[-121.282899868563,35.6654114357407],[-121.282802310625,35.6655042349171],[-121.282799931886,35.6656160699219],[-121.282597735488,35.665659522752],[-121.282596410473,35.6656615662511],[-121.282594550961,35.6656640936214],[-121.282535811921,35.6656612787016],[-121.282514396085,35.6656184484101],[-121.282483463496,35.6656232075758],[-121.282476325483,35.6656945913779],[-121.282388284297,35.6656945921077],[-121.282352593332,35.6657255248255],[-121.282293106894,35.6657588367451],[-121.282312142195,35.6658920872041],[-121.282371629531,35.6659872657587],[-121.282634886215,35.6661151575206],[-121.282635394662,35.666115742104],[-121.282635714462,35.6661161442331],[-121.282733307434,35.6661181359034],[-121.282818968085,35.6661133767673],[-121.282937940961,35.6662537649618],[-121.282928422412,35.6663465638889],[-121.28288083416,35.6663822562044],[-121.282792793873,35.6663632204507],[-121.28271903051,35.6663917737146],[-121.282638129133,35.6664583984436],[-121.282512017346,35.6664726757896],[-121.28244063362,35.6665131257016],[-121.282327715389,35.6665069536704],[-121.282278829969,35.6664869516734],[-121.282212205518,35.6665107465103],[-121.28218240301,35.6665511920242],[-121.282145580168,35.6666011666798],[-121.282133682881,35.6666463763613],[-121.281962361579,35.6667558313119],[-121.281893357491,35.6668581478398],[-121.281900495504,35.6669223937304],[-121.281786281902,35.6670389872896],[-121.281553094526,35.6671650988262],[-121.280924916122,35.6672816927607],[-121.280239631816,35.6673173846581],[-121.279670940749,35.6673173846581],[-121.278878579956,35.6672055498471],[-121.278264678478,35.6671936525331],[-121.277655536273,35.6670937148794],[-121.276406319276,35.6665821317082],[-121.275961359462,35.6662252116486],[-121.275763864847,35.6659444356421],[-121.275949363359,35.6658754517087],[-121.275987533674,35.6658349803088],[-121.275958980723,35.6657326631994],[-121.27578052051,35.6657136272909],[-121.275699620032,35.6657326631994],[-121.275566370231,35.6656232083056],[-121.275547334032,35.6655708603868],[-121.275223727629,35.6655542036597],[-121.275147583731,35.6655851364318],[-121.275150204116,35.6656306065051],[-121.275038129403,35.6656517618341],[-121.274976263328,35.6656898336761],[-121.27497273744,35.6657274406043],[-121.274969124416,35.6657659758459],[-121.274909637978,35.6657921493807],[-121.27484566176,35.6657701693922],[-121.274781147452,35.6658254627323],[-121.274690727527,35.665827841944],[-121.274583489343,35.6657858794978],[-121.274526545137,35.6657635966323],[-121.274517027487,35.6657088688604],[-121.274486094,35.6656874537303],[-121.274464678163,35.6657612166887],[-121.274376637876,35.665787390955],[-121.274375447608,35.665841370608],[-121.274261474755,35.6658347993136],[-121.274238629699,35.6657516991034],[-121.274174383986,35.6657445607311],[-121.274128723519,35.6657859079608],[-121.274103001159,35.6658064275757],[-121.274092556447,35.6657678310487],[-121.274065468648,35.665754290695],[-121.274064325991,35.6657537134072],[-121.274061353466,35.6657520129261],[-121.274060026654,35.6657511780117],[-121.274039841509,35.6657381229858],[-121.274012581234,35.665773114946],[-121.274041134185,35.6658183243666],[-121.273984027384,35.6658516369774],[-121.273938817871,35.6658516362475],[-121.27380556807,35.665942055704],[-121.273722287056,35.66595871308],[-121.27369135357,35.6659872664884],[-121.273681835919,35.6660538908253],[-121.273632844499,35.6660844709022],[-121.273627107857,35.6661371717155],[-121.273548586118,35.6662252123784],[-121.273458167092,35.6662609040183],[-121.273400806067,35.6662414259674],[-121.273301121817,35.6662466273643],[-121.273224979715,35.6663037339651],[-121.273129801414,35.6662846981928],[-121.273089528143,35.6662464398016],[-121.272984653427,35.666244248165],[-121.272965618126,35.6662632839469],[-121.272787158812,35.6665012290143],[-121.272428061769,35.6667400381987],[-121.272325542435,35.6666773101699],[-121.272203099367,35.6667354119253],[-121.272197948427,35.6667389354539],[-121.272194005722,35.666741633566],[-121.272185923579,35.6667569150814],[-121.272184326374,35.6667617259958],[-121.272184198814,35.6667621697209],[-121.27218410988,35.6667623186023],[-121.272182599812,35.6667668704335],[-121.272192510925,35.6668212646865],[-121.272192557637,35.6668213376675],[-121.272192557637,35.6668213748878],[-121.272192969066,35.6668243196731],[-121.272193108305,35.6668272681072],[-121.272193119983,35.6668280066754],[-121.272193027456,35.6668534179402],[-121.271823476718,35.6668700459336],[-121.271230991076,35.6668248363789],[-121.270617089597,35.6666725503373],[-121.270138817557,35.6662347299073],[-121.270017465043,35.6660776857913],[-121.269593921065,35.6657564582611],[-121.269355975312,35.665454266873],[-121.269246715021,35.6651863279748],[-121.269213206963,35.6650473793109],[-121.269262544235,35.6650525559715],[-121.269358354051,35.6649522003657],[-121.269303626888,35.6649307850327],[-121.269141823237,35.6649165081407],[-121.269120328349,35.6649378081649],[-121.269082336799,35.6648831958696],[-121.269082336799,35.6648356066783],[-121.269113270286,35.6648308481954],[-121.269115649923,35.6647975358886],[-121.268970502834,35.6648189512573],[-121.268901497847,35.6649093696939],[-121.268911015498,35.6648641612182],[-121.268877703272,35.6648570220368],[-121.268837253033,35.6649046112154],[-121.268839921928,35.6649528754562],[-121.268800202019,35.6648919428601],[-121.268834873396,35.6648475043437],[-121.268853908697,35.6647190128205],[-121.268765868409,35.6647190135504],[-121.268666528213,35.6647461960527],[-121.26865879282,35.6647713612978],[-121.268535061568,35.6647451874284],[-121.268542199581,35.664685700467],[-121.268539415702,35.6646591879282],[-121.268575511807,35.6645833840742],[-121.268537441205,35.6645476924142],[-121.268509486532,35.6645882257725],[-121.268489851156,35.6646166964704],[-121.268466056581,35.6646999781299],[-121.26836136063,35.6647309105033],[-121.268373257917,35.6646285934386],[-121.268318529855,35.6645476924142],[-121.268320908594,35.6644834468021],[-121.268346765701,35.6644535536139],[-121.268330158547,35.664442868141],[-121.268329471336,35.6644424338909],[-121.268328967381,35.6644420711643],[-121.268254665927,35.6643914375779],[-121.267942575027,35.6643145044174],[-121.267897365514,35.6643359206455],[-121.267891388124,35.6643800915981],[-121.267649901213,35.6642573978533],[-121.267571379474,35.66411938979],[-121.267657039226,35.6640408667849],[-121.267668937412,35.6639790007617],[-121.267547295641,35.6640073694998],[-121.267469062261,35.6639028583472],[-121.267568998938,35.6638576485719],[-121.267573758213,35.6638243358589],[-121.267583980142,35.6637527876307],[-121.267588035138,35.6637243983666],[-121.267547584899,35.6637172605429],[-121.26753806635,35.6636815684958],[-121.267409575823,35.6636720506625],[-121.267371504323,35.6637243983666],[-121.267383401611,35.663798161679],[-121.267271566748,35.663912376153],[-121.267247773071,35.6638481307596],[-121.267202562659,35.663898099079],[-121.267202562659,35.6639314117611],[-121.267292981686,35.6640075548782],[-121.267245393434,35.6641027334899],[-121.267088348159,35.6641812557044],[-121.266997929133,35.6641883934866],[-121.266939167635,35.6642832040465],[-121.266721232754,35.6643973827947],[-121.26669518161,35.6644110306638],[-121.266689356036,35.6644203856564],[-121.266433996442,35.664452513603],[-121.266225403141,35.6644374958459],[-121.266136563353,35.6644310988658],[-121.266191291415,35.6643620946492],[-121.266129425339,35.664278813367],[-121.266129426238,35.6642431215709],[-121.266175668814,35.6641919536194],[-121.266159683293,35.6641691170942],[-121.266031867401,35.6641431838729],[-121.265992701753,35.6641289418722],[-121.265968017846,35.6640593761508],[-121.265984499236,35.6639973043281],[-121.265977139339,35.6638743041933],[-121.265940582399,35.663860725567],[-121.265893858326,35.6638433722179],[-121.265916167088,35.6637903918221],[-121.265901164324,35.6637547946866],[-121.26588836962,35.6637259120522],[-121.265873520468,35.663707361738],[-121.265822475498,35.6637148812683],[-121.265801686686,35.6636313117541],[-121.265772506711,35.6635578358447],[-121.265647407324,35.6634472423362],[-121.265682472163,35.6633484400064],[-121.26568443588,35.6633466489736],[-121.265722625958,35.6633138936471],[-121.265772505812,35.6632532648745],[-121.265810578211,35.6632413677014],[-121.265824854237,35.6631723639162],[-121.265732573003,35.6632603523805],[-121.265630652846,35.6632654430355],[-121.265567873184,35.6632889571132],[-121.265527421148,35.6633222700495],[-121.265284716122,35.66324374772],[-121.265284716122,35.6632270912372],[-121.265241886246,35.663210434751],[-121.265194297095,35.6632128147705],[-121.26488258798,35.6631104979499],[-121.264734374043,35.6630058761466],[-121.264680333192,35.66296773077],[-121.264604897166,35.6629851499955],[-121.264494734966,35.6629415563093],[-121.264335311851,35.6629201411667],[-121.264268686501,35.662962971446],[-121.264178267474,35.6630343547072],[-121.264104504111,35.6631533281271],[-121.263945797852,35.6634585577952],[-121.263785656085,35.6635126273336],[-121.263619094058,35.6635269037467],[-121.263554848345,35.6636078058055],[-121.263495361907,35.6637339169235],[-121.263338317531,35.663833853674],[-121.263143200756,35.6638695456532],[-121.262907634641,35.663867166383],[-121.262855287114,35.6639456888292],[-121.262864804765,35.664019452667],[-121.262847572383,35.6640555569203],[-121.262814835977,35.6641241483152],[-121.262617339565,35.6642336038045],[-121.262546882003,35.6642308406524],[-121.262374635437,35.664224086037],[-121.262193796485,35.6641931527375],[-121.261989162959,35.6642383630527],[-121.26155610133,35.6642550193246],[-121.261396677316,35.6642145675386],[-121.261277703542,35.664274054851],[-121.261101623865,35.6643597153937],[-121.260913646001,35.6643549561527],[-121.260601936886,35.6643549568825],[-121.260394923722,35.6642716748631],[-121.260107009182,35.6640979742336],[-121.259731053456,35.6640218319326],[-121.259383652478,35.6638790641928],[-121.258869689473,35.6634697973492],[-121.258676951437,35.6631913997008],[-121.258343827383,35.6628558957048],[-121.257851279316,35.6627488198198],[-121.257506257975,35.6627155073741],[-121.257144579174,35.6626131906461],[-121.256521160045,35.6623109990384],[-121.256191144162,35.662160422461],[-121.255885844527,35.6620706738368],[-121.255471818199,35.6617637229699],[-121.254650903556,35.661057022947],[-121.254201072177,35.6603997448851],[-121.254065555927,35.6597126277593],[-121.253938301482,35.6595090053851],[-121.253801435962,35.6589964101699],[-121.253739569887,35.6590035484156],[-121.253684841825,35.6589321644704],[-121.253584904249,35.6589036107285],[-121.253531604509,35.6589419383276],[-121.253474291095,35.6589507691754],[-121.253337440846,35.6588702981383],[-121.253187535382,35.658853642203],[-121.253168498284,35.6588036736462],[-121.253135186059,35.6588036743761],[-121.25307569962,35.6588465046738],[-121.252818717669,35.6588012942251],[-121.252799682368,35.6587632234778],[-121.252652155642,35.65888695553],[-121.252482534852,35.6589339585218],[-121.252298975802,35.658912813091],[-121.252219093115,35.6589036114584],[-121.251969250075,35.6587227725589],[-121.252038614388,35.6586308289551],[-121.2520215985,35.6584063042294],[-121.251982030406,35.6584348610687],[-121.251924040562,35.6584253389606],[-121.251813477713,35.6581705838274],[-121.25175271926,35.6580446259584],[-121.251774134199,35.6579185138836],[-121.251743200712,35.6576282200377],[-121.251786032384,35.6575877692738],[-121.25172511493,35.6573694822341],[-121.251700370836,35.6572808186922],[-121.251626607473,35.6573284080069],[-121.251613221677,35.6573598030711],[-121.251479081645,35.6572879578211],[-121.251405317384,35.6572950954896],[-121.251364867145,35.6573403053312],[-121.251012706892,35.6573926535368],[-121.250874697817,35.6573997919259],[-121.250459183879,35.6571389249968],[-121.250401185949,35.6569024848208],[-121.250448774201,35.6568406191061],[-121.250548711777,35.6568691721258],[-121.250477328051,35.6565931543081],[-121.25052729594,35.6565455652851],[-121.250572506352,35.6565455652851],[-121.250562987803,35.6563718646361],[-121.25042022125,35.6563195157614],[-121.250265555613,35.6562600298218],[-121.250175136586,35.6561838873458],[-121.250289350188,35.6561434365803],[-121.250158480024,35.6557865173018],[-121.24998953836,35.6556580265259],[-121.249918154634,35.6556842004545],[-121.249849149648,35.6556770619121],[-121.249589788957,35.6557436868228],[-121.249485092107,35.6557984148558],[-121.249044892465,35.6558079328977],[-121.248835499664,35.6557841377909],[-121.248576137177,35.6555866425099],[-121.248507133987,35.6553915269933],[-121.248407196411,35.6552892103697],[-121.24827394661,35.6553582143979],[-121.248247772398,35.6554010443537],[-121.248105004048,35.6554629104537],[-121.247783777282,35.6554129419651],[-121.247664804406,35.6553201427391],[-121.24755534918,35.6553796293787],[-121.247602939229,35.6554295978882],[-121.247550590804,35.6554867049263],[-121.247298367229,35.6555509512079],[-121.246984279374,35.6555866432398],[-121.246762988387,35.6555557102438],[-121.246651154423,35.6555866425099],[-121.246596426361,35.6555009820445],[-121.246439381086,35.6555937810603],[-121.246239506834,35.6556270935574],[-121.245953971931,35.6555747456543],[-121.245406695802,35.6550917153248],[-121.245144955474,35.6546919646827],[-121.244811829624,35.6546182017174],[-121.244231242168,35.6542779383552],[-121.243636376888,35.653882948615],[-121.243350841087,35.6537544576963],[-121.242960608436,35.6532928428473],[-121.242741698883,35.6531239008742],[-121.242435958174,35.6528309019677],[-121.242118279753,35.6526075573086],[-121.241996145706,35.6525048378407],[-121.242154030007,35.6525097153086],[-121.30835892591,35.6525097058193],[-121.350012833658,35.7141715036377],[-121.31584616192,35.7141715065552],[-121.315867529247,35.7141381812964],[-121.316041011895,35.7140714154952],[-121.316290855833,35.7139191306464],[-121.316459797497,35.7138644023531],[-121.316499920749,35.7136864647548],[-121.316514524661,35.7136216978124],[-121.316424104736,35.7135907639695],[-121.316421725997,35.7135503131252]]]},"properties":{"NAME":"Piedras Blancas SMR","FULLNAME":"Piedras Blancas State Marine Reserve","Type":"SMR","CCR":"Section 632 (b) (87)"}}],"region_id":"south-big-sur-san-simeon","checked_at":"2026-09-25T08:06:08Z","source_url":"https://services2.arcgis.com/Uq9r85Potqm3MfRV/arcgis/rest/services/biosds582_fpu/FeatureServer/0/query?where=1%3D1&geometry=-122.0%2C35.66%2C-121.2%2C35.9&geometryType=esriGeometryEnvelope&inSR=4326&spatialRel=esriSpatialRelIntersects&outFields=NAME%2CFULLNAME%2CType%2CCCR&returnGeometry=true&outSR=4326&f=geojson","verification_sha256":"8689075200150a194efe74c285a2fdeb038e34bc378299cbe787e1d72cd634f9","screening_policy":"Conservatively exclude every mapped CDFW MPA from fishing targets and exports; exceptions require separate legal review."}
