{"type":"FeatureCollection","crs":{"type":"name","properties":{"name":"EPSG:4326"}},"features":[{"type":"Feature","geometry":{"type":"Polygon","coordinates":[[[-121.933346315847,36.3066715190918],[-121.875012967808,36.2500048516049],[-121.91834630742,36.2500048487071],[-121.93259989939,36.2500090997296],[-121.932600502159,36.2500097350647],[-121.932907150166,36.2503334039558],[-121.932912717026,36.2503393313107],[-121.932940742666,36.2503699707011],[-121.933047974562,36.2504872339568],[-121.933075998405,36.2505178740136],[-121.933115601533,36.2505611815527],[-121.933183230301,36.2506351312519],[-121.933211256839,36.2506657777706],[-121.933346513477,36.2508136747278],[-121.933386123791,36.2508569828273],[-121.933521381326,36.2510048859425],[-121.933583241114,36.2510740713601],[-121.933688197576,36.2511931214536],[-121.933858971804,36.2513868223255],[-121.933951467735,36.2514917412574],[-121.933990609129,36.2515361348977],[-121.934056425096,36.251610791439],[-121.934095561998,36.2516551799407],[-121.93419552293,36.2517695558826],[-121.934259495554,36.2518448692538],[-121.934323475366,36.2519201767571],[-121.934362095736,36.2519656430248],[-121.934426070158,36.2520409518605],[-121.93446468963,36.252086418058],[-121.934503311797,36.2521318798824],[-121.934528663153,36.2521617267773],[-121.93456729071,36.2522071885579],[-121.934605910182,36.2522526546587],[-121.934631264233,36.2522825015073],[-121.9346698864,36.2523279632177],[-121.934708505873,36.2523734292482],[-121.93474712804,36.2524188909057],[-121.934783890695,36.252462172761],[-121.934821460935,36.2525080856794],[-121.934859515367,36.2525546070819],[-121.934897576087,36.2526011248345],[-121.934935635909,36.252647646906],[-121.934973695731,36.25269416243],[-121.934997742733,36.2527235556255],[-121.935035803453,36.252770077624],[-121.935121958177,36.252875381536],[-121.935222124823,36.252997813346],[-121.935246170927,36.2530272057028],[-121.935370388167,36.2531790302989],[-121.935451338053,36.2532813671965],[-121.935511548533,36.2533578280253],[-121.935594521424,36.2534631941688],[-121.935677488027,36.253568557997],[-121.935714941486,36.2536161168447],[-121.935775152865,36.2536925787948],[-121.936278486105,36.2543477169517],[-121.936336781377,36.254424675849],[-121.936431885118,36.2545502136288],[-121.936490181288,36.2546271672558],[-121.936524344218,36.2546722596077],[-121.936556474261,36.2547163805161],[-121.936592575756,36.2547659669777],[-121.936628684437,36.2548155534077],[-121.936664788627,36.2548651340111],[-121.936700896409,36.2549147203783],[-121.936737004192,36.2549643067139],[-121.936773107484,36.2550138915693],[-121.936809216165,36.2550634734957],[-121.936845324846,36.2551130597369],[-121.936881428137,36.2551626452223],[-121.936917536818,36.2552122314005],[-121.93695364011,36.2552618124767],[-121.936989747892,36.2553113978676],[-121.937025856574,36.2553609839515],[-121.937061961661,36.2554105700039],[-121.937115477896,36.2554864912512],[-121.937169888853,36.2555642741069],[-121.937188921459,36.2555914908804],[-121.937243331517,36.2556692736315],[-121.937297737084,36.2557470563052],[-121.937333105554,36.2557976222092],[-121.937387515612,36.2558754040307],[-121.937422886776,36.2559259698517],[-121.937477290547,36.2560037522698],[-121.937512659016,36.256054322354],[-121.93754803018,36.2561048880591],[-121.937602441137,36.2561826710235],[-121.937634678978,36.2562305868498],[-121.937652526706,36.256257173902],[-121.937721707762,36.256360228977],[-121.93777413973,36.256438343454],[-121.937843320787,36.2565413990144],[-121.937930348674,36.2566710406258],[-121.937948193707,36.2566976275281],[-121.938035224288,36.2568272696045],[-121.938119953386,36.2569535068938],[-121.938153722854,36.2570059756787],[-121.938204173138,36.2570843604265],[-121.938237942607,36.257136828399],[-121.938271712075,36.2571892963363],[-121.938305481543,36.2572417584433],[-121.938339251909,36.2572942270345],[-121.938406791744,36.2573991568674],[-121.938440561212,36.257451623904],[-121.93847433068,36.2575040909055],[-121.938558550433,36.2576349442403],[-121.938592321698,36.257687411843],[-121.938626487323,36.257741044197],[-121.938756319933,36.2579516457228],[-121.938804784042,36.2580302540757],[-121.938870596417,36.2581370141174],[-121.938903507096,36.2581903940835],[-121.938951972103,36.2582690014717],[-121.939099160164,36.258507753933],[-121.939161121461,36.2586127082128],[-121.939225135408,36.2587212486614],[-121.939271596275,36.2588000184964],[-121.939318058938,36.258878788252],[-121.9394750045,36.2591448746283],[-121.939507012371,36.2591991448639],[-121.939571486256,36.2593089166258],[-121.93964700852,36.2594429272938],[-121.939691466144,36.2595218050541],[-121.93976698751,36.2596558197029],[-121.939811444235,36.2597346957995],[-121.939842514265,36.2597898305001],[-121.939886965601,36.2598687108075],[-121.939931422326,36.2599475881378],[-121.939975872763,36.2600264639397],[-121.940018991896,36.2601034418708],[-121.940061437293,36.2601823696684],[-121.940091536245,36.2602383392246],[-121.940103880894,36.2602612973862],[-121.940133979846,36.2603172683346],[-121.940146322698,36.2603402250243],[-121.940176424345,36.2603961966404],[-121.940206520602,36.2604521711139],[-121.940236619554,36.2605081412011],[-121.940248964202,36.2605310949374],[-121.940291407803,36.2606100230272],[-121.940303750655,36.2606329810796],[-121.940333852302,36.2606889503129],[-121.940346194255,36.2607119083421],[-121.940358538904,36.2607348663645],[-121.940400982505,36.2608137949727],[-121.940431083253,36.2608697655252],[-121.940443427902,36.2608927235012],[-121.940468558272,36.2609416867317],[-121.940497652009,36.2609984662798],[-121.940538081587,36.2610773866539],[-121.940567169934,36.2611341704494],[-121.940607606698,36.2612130899622],[-121.940636695045,36.261269869313],[-121.940677130911,36.2613487944833],[-121.940717562285,36.2614277137792],[-121.940746650633,36.2614844922496],[-121.940757998151,36.2615066337196],[-121.9407870856,36.261563417203],[-121.940827516076,36.2616423362821],[-121.940918663636,36.261826339245],[-121.940957083683,36.2619052001119],[-121.940967462818,36.2619264990657],[-121.941023550929,36.2620416176197],[-121.941061978162,36.2621204782692],[-121.941156489015,36.262314456991],[-121.941166867251,36.2623357558333],[-121.941222958057,36.2624508745085],[-121.941255592055,36.2625180187816],[-121.941318978978,36.2626550675542],[-121.941372915624,36.2627716916265],[-121.941399888439,36.2628300032351],[-121.941426858559,36.2628883104544],[-121.941453825984,36.2629466227003],[-121.94150776802,36.2630632463372],[-121.941588679278,36.2632381774823],[-121.941615644008,36.2632964887427],[-121.941664542902,36.2634060620782],[-121.941690401805,36.263465093184],[-121.941716269692,36.2635241235209],[-121.941923158889,36.2639963638855],[-121.941957577839,36.2640749255939],[-121.941983438539,36.2641339561942],[-121.942006773177,36.2641890008723],[-121.942031500204,36.2642487180317],[-121.942056217349,36.2643084358697],[-121.942105664215,36.2644278706844],[-121.942130388547,36.2644875891098],[-121.942155108387,36.2645473067651],[-121.942179835413,36.2646070236505],[-121.942204554355,36.2646667462848],[-121.942229281381,36.2647264638031],[-121.942254000323,36.2647861805516],[-121.942286430403,36.2648645089639],[-121.942311154735,36.2649242314012],[-121.942342394547,36.2650005700165],[-121.942365948374,36.2650609420484],[-121.94239640216,36.2651389855349],[-121.942419955987,36.2651993581843],[-121.942443512509,36.2652597351327],[-121.942467069929,36.2653201076887],[-121.942490625552,36.265380480198],[-121.942514181176,36.2654408526606],[-121.942521071254,36.2654585240895],[-121.942568182501,36.2655792688474],[-121.942591738124,36.2656396411563],[-121.942615300934,36.2657000141429],[-121.942638856557,36.2657603870828],[-121.942662317857,36.2658206230843],[-121.942684974267,36.2658814717924],[-121.942707627982,36.2659423146586],[-121.942730289782,36.2660031596503],[-121.942752942598,36.2660640082161],[-121.942775599008,36.2661248516644],[-121.942798253621,36.2661856994111],[-121.942819695509,36.2662432733156],[-121.942854272562,36.2662692456585],[-121.942895896001,36.2663005125555],[-121.942937511355,36.2663317743699],[-121.942979135692,36.2663630405176],[-121.94302179399,36.266395090334],[-121.943817783976,36.2671304058397],[-121.94477243351,36.2677621095901],[-121.944814078509,36.2677963939496],[-121.944894927783,36.267862955655],[-121.944934123973,36.2678952286569],[-121.944975774361,36.2679295165794],[-121.945014975942,36.2679617910024],[-121.94509826504,36.2680303667737],[-121.945137465723,36.2680626404307],[-121.945179110721,36.268096923934],[-121.945257512984,36.2681614748011],[-121.945299157982,36.268195758261],[-121.94538000546,36.2682623203503],[-121.945460850242,36.2683288816585],[-121.945500443488,36.2683625443445],[-121.94554305687,36.2683988759542],[-121.947064489449,36.2697260041932],[-121.948256323863,36.2708358327923],[-121.949764980602,36.2721907512731],[-121.951609021556,36.2739388397676],[-121.952310598606,36.2746485542865],[-121.952320554635,36.2746586795069],[-121.95235131295,36.2746899618742],[-121.952399382699,36.2747393350491],[-121.952428763897,36.2747703095941],[-121.952468814386,36.2748125246129],[-121.952498199177,36.2748434984046],[-121.952567629965,36.2749166907676],[-121.952637060754,36.2749898794409],[-121.95270649244,36.2750630687699],[-121.952735877232,36.2750940468075],[-121.952775929517,36.2751362616512],[-121.952805308918,36.2751672345903],[-121.952845360305,36.2752094508429],[-121.952874745096,36.2752404237529],[-121.952904134379,36.2752714017202],[-121.952973565168,36.2753445893367],[-121.953002951755,36.2753755679868],[-121.953032331157,36.275406540831],[-121.953103149842,36.2754835173625],[-121.953170796576,36.2755574637466],[-121.953238450497,36.2756314100606],[-121.953266470747,36.2756620460486],[-121.953334124668,36.2757359915393],[-121.953441394293,36.2758532522034],[-121.953509042824,36.2759271989614],[-121.953537067565,36.2759578304881],[-121.953616317838,36.2760444593382],[-121.953712239046,36.2761503778592],[-121.953751392118,36.276194773418],[-121.953778072081,36.2762250318776],[-121.953856381818,36.2763138279543],[-121.953922220244,36.276388476747],[-121.953988055076,36.2764631305376],[-121.954027209944,36.2765075266427],[-121.954119731927,36.2766124328354],[-121.954198040765,36.2767012291957],[-121.954224719831,36.2767314860106],[-121.954330471302,36.2768521358487],[-121.954394461893,36.2769274409686],[-121.954458454281,36.2770027474642],[-121.95452244577,36.2770780582323],[-121.954586442649,36.2771533631342],[-121.954650435935,36.2772286694119],[-121.954714427425,36.2773039748928],[-121.954753067558,36.2773494437661],[-121.954778419812,36.2773792803009],[-121.955545440029,36.2783110499926],[-121.95614422915,36.2790733170409],[-121.956165725835,36.2791016835726],[-121.956202542388,36.27915026968],[-121.95626085383,36.2792272222433],[-121.956297673977,36.2792758082725],[-121.956334488734,36.2793243957198],[-121.956355987215,36.2793527563669],[-121.956429623916,36.279449933308],[-121.956451114312,36.279478296082],[-121.956487934459,36.2795268812308],[-121.95656157116,36.2796240586793],[-121.956619884398,36.2797010064304],[-121.956656699155,36.2797495936131],[-121.956692063133,36.2797976448833],[-121.956712314752,36.2798254477515],[-121.95674843601,36.2798750399969],[-121.956784557268,36.2799246285901],[-121.956804808887,36.2799524314131],[-121.956840931043,36.280002019957],[-121.956861187155,36.2800298198558],[-121.956881435181,36.2800576219172],[-121.956917559134,36.2801072147393],[-121.956937815245,36.2801350167731],[-121.956973936503,36.280184605201],[-121.956994187224,36.2802124072073],[-121.957030308482,36.2802619955861],[-121.957050560101,36.2802897975647],[-121.957086683156,36.2803393895151],[-121.957106938369,36.2803671921904],[-121.957143061423,36.2804167797467],[-121.957163310348,36.2804445816703],[-121.957199433402,36.2804941691774],[-121.95721584113,36.2805167911678],[-121.957251230261,36.2805673649323],[-121.957270260172,36.2805945686479],[-121.957305649303,36.280645142362],[-121.95732468101,36.2806723460505],[-121.957360062056,36.28072291899],[-121.957414483793,36.2808006962647],[-121.957468902834,36.2808784727377],[-121.957504284778,36.2809290477162],[-121.957523321876,36.2809562513057],[-121.957558705617,36.2810068240613],[-121.957577742714,36.2810340283479],[-121.957613125556,36.2810846010531],[-121.957632162654,36.2811118060367],[-121.957686582594,36.2811895829239],[-121.957721966335,36.2812401555283],[-121.957741003432,36.2812673604577],[-121.957770044169,36.2813102961143],[-121.957787888303,36.2813368695597],[-121.957822491408,36.2813884015679],[-121.957840336441,36.2814149793316],[-121.957874945834,36.2814665112883],[-121.957909549837,36.2815180453834],[-121.95794415384,36.2815695750997],[-121.957961998873,36.2815961506292],[-121.95799660108,36.2816476860871],[-121.958031205083,36.2816992164418],[-121.958065815374,36.2817507518316],[-121.958100420276,36.2818022813942],[-121.95813502338,36.28185381744],[-121.958187471518,36.2819319216256],[-121.958689984597,36.2827076476299],[-121.958723768438,36.2827601179397],[-121.958757552279,36.2828125889384],[-121.958766503092,36.2828268863018],[-121.958799425449,36.2828802740125],[-121.958832348704,36.282933658066],[-121.958880820899,36.2830122622727],[-121.958913744154,36.2830656447876],[-121.958946666511,36.283119032335],[-121.9589951414,36.2831976320102],[-121.959028063757,36.2832510201914],[-121.959076535952,36.2833296233543],[-121.959109460105,36.2833830071004],[-121.959142382462,36.2834363944307],[-121.959190856453,36.2835149937862],[-121.959250373434,36.2836120540294],[-121.95926482014,36.2836365462669],[-121.959296841487,36.2836908204818],[-121.959328862833,36.2837450990038],[-121.959343312235,36.2837695868548],[-121.959375338971,36.2838238609772],[-121.959389785678,36.2838483488035],[-121.959421806126,36.2839026264918],[-121.959453827473,36.2839569005217],[-121.959468276874,36.2839813883062],[-121.959500297322,36.284035665902],[-121.959532325855,36.2840899405634],[-121.959564346304,36.2841442188078],[-121.959610816153,36.2842229803785],[-121.959642836602,36.2842772578062],[-121.959657286003,36.2843017462144],[-121.959689313638,36.2843560192426],[-121.959728286148,36.2844236754615],[-121.95975937145,36.2844788122822],[-121.959772750958,36.2845025439201],[-121.959803835362,36.2845576857539],[-121.959834920664,36.284612823204],[-121.959866005966,36.2846679606151],[-121.95989709037,36.2847231030561],[-121.960021431578,36.2849436550517],[-121.960052517778,36.2849987972979],[-121.960083602182,36.2850539344364],[-121.960096980792,36.2850776658994],[-121.960128066992,36.2851328073269],[-121.960156263312,36.285182816911],[-121.960184789314,36.2852358452974],[-121.960214897249,36.285291822965],[-121.960245010574,36.2853477969718],[-121.960257353426,36.2853707441307],[-121.960287461361,36.2854267173568],[-121.960299802417,36.2854496637683],[-121.960329917538,36.2855056376619],[-121.960360026372,36.2855616165841],[-121.960372367427,36.2855845578872],[-121.960402480752,36.285640537477],[-121.960444932437,36.2857194582899],[-121.96049972967,36.2858213195325],[-121.960529838503,36.2858772924354],[-121.960542180457,36.2859002394386],[-121.96057229468,36.2859562130091],[-121.960584636634,36.285979159989],[-121.96060789761,36.2860243066498],[-121.960636994042,36.2860810904069],[-121.960677434399,36.2861600028092],[-121.960717874757,36.2862389165799],[-121.960746977477,36.2862957038013],[-121.960758317809,36.286317831719],[-121.960787419631,36.2863746145384],[-121.960798758166,36.286396743882],[-121.960827859988,36.286453527368],[-121.960839201219,36.2864756566892],[-121.960850538856,36.2864977867282],[-121.960879641576,36.2865545686925],[-121.960908744297,36.2866113564084],[-121.960937840729,36.2866681404623],[-121.960978281984,36.2867470515469],[-121.961000896173,36.2867911731616],[-121.96102835318,36.2868475045224],[-121.961066784905,36.2869263546013],[-121.961094839291,36.2869839197283],[-121.961133276405,36.2870627674971],[-121.961161330792,36.2871203339717],[-121.961189386076,36.2871778982315],[-121.961227823191,36.2872567479766],[-121.961255879373,36.2873143121358],[-121.96128393376,36.2873718784248],[-121.961311995333,36.2874294424991],[-121.961340049719,36.2874870043586],[-121.961350426159,36.2875082927141],[-121.961378482342,36.2875658566877],[-121.961399978128,36.2876102689248],[-121.961436403915,36.2876890002059],[-121.961463387509,36.2877473149291],[-121.961490365714,36.2878056259882],[-121.961517345715,36.2878639427964],[-121.96154432392,36.2879222595611],[-121.961571307514,36.2879805755581],[-121.961598286617,36.2880388864429],[-121.96162526572,36.2880972023528],[-121.961652245721,36.2881555189431],[-121.961679224824,36.2882138304213],[-121.961706210215,36.2882721447522],[-121.96173318842,36.2883304604878],[-121.961760166625,36.2883887740075],[-121.961782502336,36.2884378662617],[-121.961808376511,36.2884969008892],[-121.961834242601,36.2885559318517],[-121.961860115878,36.288614967114],[-121.961885990053,36.2886740016075],[-121.961894546506,36.2886935228776],[-121.961920411698,36.2887525573117],[-121.961928968151,36.2887720749416],[-121.961954841428,36.2888311093163],[-121.961980709315,36.2888901436464],[-121.962006582592,36.2889491793799],[-121.962032455869,36.2890082100002],[-121.962058323756,36.2890672434722],[-121.962084197032,36.2891262797958],[-121.962110072106,36.2891853139025],[-121.962135939993,36.2892443494127],[-121.962157785224,36.2892970035877],[-121.962182515844,36.289356726162],[-121.96220724826,36.289416443622],[-121.962231982473,36.2894761661049],[-121.962256713093,36.289535887818],[-121.962264418841,36.2895544871254],[-121.962289150359,36.2896142095026],[-121.962313884572,36.2896739318341],[-121.962321586728,36.2896925318326],[-121.962346320941,36.2897522541042],[-121.962371054255,36.2898119748819],[-121.962395785773,36.2898716927176],[-121.962420519088,36.289931414852],[-121.962445252403,36.2899911369408],[-121.962469984819,36.2900508589837],[-121.962492131884,36.290106152572],[-121.962515693796,36.2901665276371],[-121.962539255708,36.2902269041037],[-121.962562824806,36.2902872819718],[-121.962586386717,36.290347659069],[-121.962609954917,36.2904080317751],[-121.962687540611,36.2906068189701],[-121.96271110971,36.2906671972682],[-121.962734670723,36.2907275740714],[-121.962741563496,36.2907452289159],[-121.962765125408,36.2908056063828],[-121.962788694506,36.290865983803],[-121.962810847859,36.2909236980768],[-121.96283321591,36.290984694478],[-121.96286170508,36.2910623818794],[-121.96290644747,36.2911843794858],[-121.962934937539,36.2912620710327],[-121.962957303793,36.2913230671694],[-121.962985798354,36.2914007593022],[-121.963008167303,36.2914617560546],[-121.963030535353,36.2915227520353],[-121.963036655575,36.2915394473253],[-121.963059029914,36.2916004439693],[-121.963081399761,36.2916614398415],[-121.963109888932,36.2917391323614],[-121.963129595275,36.2917960763201],[-121.963150740718,36.2918576599706],[-121.963171886162,36.2919192479169],[-121.963193037893,36.2919808321942],[-121.96321418154,36.2920424200432],[-121.963235333272,36.2921040078437],[-121.963256478715,36.2921655912512],[-121.96327762865,36.2922271796784],[-121.963298774094,36.2922887637127],[-121.963319925825,36.2923503520427],[-121.963341072167,36.2924119352557],[-121.963362215814,36.2924735242125],[-121.963383367546,36.2925351066043],[-121.963404065628,36.2925959562125],[-121.9634239696,36.2926580952989],[-121.963443867283,36.2927202336117],[-121.963463771255,36.2927823733232],[-121.963468475732,36.292797073601],[-121.963493091368,36.2928739084462],[-121.963517698918,36.2929507482841],[-121.963547012743,36.2930422832096],[-121.963571628378,36.2931191228816],[-121.963576331957,36.29313382382],[-121.96359623503,36.2931959617539],[-121.963616133612,36.2932581010865],[-121.963620845276,36.2932727969304],[-121.963645452826,36.2933496363754],[-121.963650163592,36.2933643365463],[-121.963672283707,36.2934334062429],[-121.963675727848,36.2934449756555],[-121.96367979542,36.29345865057],[-121.963683855805,36.2934723247582],[-121.963687923376,36.2934859996679],[-121.963706556232,36.2935486564563],[-121.963710623804,36.2935623313527],[-121.963729258456,36.2936249888038],[-121.963747890413,36.2936876425845],[-121.963766523269,36.2937502999349],[-121.963785162413,36.2938129579591],[-121.96380379437,36.2938756159331],[-121.963822427226,36.2939382695124],[-121.963826494797,36.2939519428924],[-121.963845128551,36.2940146007547],[-121.963882395161,36.2941399163283],[-121.963901028016,36.2942025689713],[-121.96391966177,36.2942652280803],[-121.964055024409,36.294756598805],[-121.964072361894,36.2948197353261],[-121.964089705667,36.2948828739682],[-121.964107044949,36.2949460154552],[-121.964124388722,36.2950091554431],[-121.964141728902,36.2950722910357],[-121.964159072675,36.2951354309214],[-121.964172445895,36.2951884199633],[-121.964188476331,36.2952520014083],[-121.964204513055,36.2953155885936],[-121.964220545288,36.2953791684868],[-121.964236574826,36.2954427548445],[-121.964252606161,36.2955063375302],[-121.964268643783,36.2955699223362],[-121.96428467422,36.2956335041943],[-121.964300706453,36.2956970860005],[-121.964316737787,36.295760671375],[-121.964332769122,36.2958242530776],[-121.964348805846,36.2958878397964],[-121.964364838977,36.2959514206714],[-121.964378580506,36.2960072617772],[-121.964393286826,36.2960712566909],[-121.964407986857,36.296135247208],[-121.964422687787,36.2961992383966],[-121.964437393208,36.2962632288088],[-121.964452094138,36.2963272198924],[-121.964466799559,36.2963912152677],[-121.964481500488,36.2964552055223],[-121.964496206808,36.2965191964485],[-121.964510907737,36.2965831880462],[-121.964525613159,36.2966471774194],[-121.964542725167,36.2967216720986],[-121.964557430588,36.2967856620822],[-121.964559841666,36.2967961667067],[-121.964572757643,36.2968524915684],[-121.964586114693,36.2969168506879],[-121.964588069427,36.2969262642174],[-121.964601426477,36.2969906283441],[-121.964614783527,36.2970549909696],[-121.964628140577,36.2971193549901],[-121.964641497627,36.2971837131654],[-121.964654854677,36.2972480778037],[-121.964668211727,36.2973124394927],[-121.964681568777,36.2973767996808],[-121.964694925827,36.2974411627117],[-121.964708282877,36.2975055256895],[-121.964721640825,36.2975698893382],[-121.964734997875,36.2976342485899],[-121.964748354925,36.2976986121324],[-121.964759423966,36.2977565617191],[-121.964772957984,36.2978295725914],[-121.964784953188,36.2978942675634],[-121.964796948392,36.2979589624819],[-121.964808944494,36.2980236566226],[-121.9648104878,36.2980319724407],[-121.964822484801,36.2980966672449],[-121.964836018819,36.2981696763508],[-121.964848014023,36.2982343724888],[-121.964860009227,36.2982990671252],[-121.964872005329,36.2983637624318],[-121.964884000533,36.2984284576849],[-121.964895997534,36.2984931521603],[-121.964907992737,36.298557842238],[-121.964917693644,36.2986145850182],[-121.964928315324,36.2986795747271],[-121.964938943292,36.298744560038],[-121.964949564972,36.2988095496386],[-121.964960186652,36.298874539185],[-121.964970808332,36.2989395250574],[-121.964981430012,36.2990045137716],[-121.964992051692,36.2990695038796],[-121.96500267427,36.2991344888655],[-121.96501329595,36.2991994788653],[-121.96502392302,36.2992644680868],[-121.96504516638,36.2993944434716],[-121.965046344969,36.2994016500012],[-121.965055396394,36.2994590799512],[-121.965064631974,36.2995243230742],[-121.965074726342,36.2995956541029],[-121.965083961922,36.2996608971116],[-121.965093196603,36.2997261407898],[-121.965102432182,36.2997913844134],[-121.965103290074,36.2997974716339],[-121.965112525653,36.2998627151978],[-121.965130996812,36.299993200714],[-121.965140232391,36.3000584441143],[-121.96515032676,36.3001297746544],[-121.965159561441,36.3001950186644],[-121.965168797021,36.3002602662396],[-121.965176580923,36.3003158885164],[-121.9651850179,36.3003863066138],[-121.965193450385,36.3004567246476],[-121.965201287288,36.300522184852],[-121.965209128682,36.3005876450014],[-121.965216966483,36.3006531050959],[-121.965224802487,36.3007185658594],[-121.965232643881,36.3007840215001],[-121.965240480784,36.3008494814298],[-121.965248323076,36.3009149420285],[-121.965256159979,36.3009804018482],[-121.965263995983,36.3010458623371],[-121.965271838275,36.3011113227709],[-121.965279675178,36.3011767831499],[-121.965285153104,36.3012315816234],[-121.965291590432,36.3012972171011],[-121.965298021471,36.3013628532475],[-121.9653044579,36.3014284936825],[-121.965310888041,36.3014941297184],[-121.965317325368,36.3015597656991],[-121.965323756407,36.3016254009006],[-121.965330192836,36.3016910367709],[-121.965336251973,36.3017528493457],[-121.965336623875,36.3017566740338],[-121.965342683012,36.3018184851087],[-121.965349118543,36.3018841208164],[-121.965355176781,36.3019459332382],[-121.965355549582,36.3019497571929],[-121.965361608718,36.3020115702866],[-121.965366936626,36.3020696151275],[-121.965371548577,36.3021300185802],[-121.965376567464,36.3021957937495],[-121.965381385129,36.3022588793642],[-121.965386409407,36.3023246551488],[-121.965391427396,36.3023904243624],[-121.965401470561,36.3025219734823],[-121.965406494838,36.3025877483211],[-121.965411512827,36.3026535194847],[-121.965416537105,36.3027192942125],[-121.965421561382,36.3027850681609],[-121.96542658027,36.3028508369862],[-121.965431605445,36.3029166115476],[-121.965435196011,36.3029788987863],[-121.965438802747,36.3030447659052],[-121.965442407687,36.3031106380362],[-121.965446012626,36.3031765101115],[-121.965449617565,36.3032423821312],[-121.965453222504,36.3033082497516],[-121.965456828342,36.3033741231079],[-121.965460433281,36.3034399942367],[-121.96546404361,36.3035058653099],[-121.965467648549,36.3035717334317],[-121.965471254387,36.3036376051175],[-121.965474859326,36.3037034781957],[-121.965478464265,36.3037693439787],[-121.965481164601,36.3038320287045],[-121.965483349304,36.3038979566379],[-121.965485534007,36.3039638845157],[-121.965487719608,36.3040298137855],[-121.965489903412,36.3040957401039],[-121.965492088115,36.3041616685383],[-121.965494273716,36.304227597641],[-121.965496458419,36.304293525964],[-121.965498642223,36.3043594535074],[-121.965500827824,36.3044253817189],[-121.965503012527,36.3044913098746],[-121.96550519723,36.3045572365268],[-121.965507382831,36.3046231696387],[-121.965509331277,36.3046874745669],[-121.965511959747,36.3047568846215],[-121.965514995155,36.3048227842636],[-121.965517895815,36.3048868436141],[-121.965520081416,36.3049527699319],[-121.965522266119,36.3050186983658],[-121.965524450821,36.3050846274679],[-121.965526636423,36.3051505550663],[-121.965528826515,36.3052164876765],[-121.96553101032,36.3052824158875],[-121.965533195921,36.3053483433187],[-121.965535381522,36.3054142714182],[-121.965537565326,36.3054801987379],[-121.965539750927,36.3055461267259],[-121.96554193563,36.3056120553821],[-121.965544125723,36.3056779825347],[-121.965546311324,36.3057439103555],[-121.965547312047,36.3058068635177],[-121.965548074717,36.3058728064318],[-121.965548839183,36.3059387536338],[-121.965549602751,36.30600470078],[-121.965550364522,36.3060706471465],[-121.965551128989,36.3061365898377],[-121.965551891658,36.3062025368166],[-121.965552650735,36.3062684844636],[-121.965554177871,36.3064003730751],[-121.96555494054,36.3064663212788],[-121.965555704108,36.3065322687027],[-121.965555712193,36.3065330201286],[-121.965556475761,36.3065989617049],[-121.965553927241,36.3066715176439],[-121.933346315847,36.3066715190918]]]},"properties":{"NAME":"Point Sur SMCA","FULLNAME":"Point Sur State Marine Conservation Area","Type":"SMCA","CCR":"Section 632 (b) (84)"}},{"type":"Feature","geometry":{"type":"Polygon","coordinates":[[[-121.933346315847,36.3066715190918],[-121.902512977718,36.3066715212635],[-121.902545429358,36.3066208015368],[-121.902583501756,36.3065922481035],[-121.902626330734,36.3065327609663],[-121.902564464659,36.3064256855976],[-121.902535837147,36.3064196589797],[-121.90247404653,36.3064066501703],[-121.90246690672,36.3063566816989],[-121.902553221345,36.3063354810134],[-121.902602537057,36.3063233684016],[-121.902549982918,36.3062747246495],[-121.902602537057,36.3062115336953],[-121.902593019407,36.3061687036786],[-121.902534765457,36.3061639482451],[-121.902476425269,36.3061591855721],[-121.902409800818,36.3061496681885],[-121.902352305945,36.3059944435292],[-121.902233719344,36.3059783471207],[-121.902114747366,36.3059402753191],[-121.90205526003,36.3058974451534],[-121.902055260928,36.3057784719453],[-121.902012430154,36.3057142272786],[-121.90204854153,36.3056284103075],[-121.90201609528,36.3055917369597],[-121.901964892207,36.305592953155],[-121.901931172146,36.3056121777255],[-121.90188155999,36.3056404636653],[-121.901757827839,36.3056190477791],[-121.90174593145,36.3055357666173],[-121.901645992976,36.3055095930572],[-121.901593644551,36.3055524234359],[-121.901541297025,36.305445348169],[-121.901755448202,36.3053834820543],[-121.901741330279,36.30534655956],[-121.901724515613,36.3053025801938],[-121.901688892921,36.3053100793684],[-121.901634095689,36.3053216158906],[-121.901496087511,36.3053287538233],[-121.901519881188,36.3052787853851],[-121.901417564874,36.3052311964701],[-121.901396149936,36.3052050228078],[-121.901260520498,36.305238335135],[-121.901162961661,36.3052549912932],[-121.90106778336,36.3051669506286],[-121.900994020896,36.3050955667808],[-121.900951190121,36.3051788484128],[-121.900825079232,36.3051479156179],[-121.900758453882,36.3050337011126],[-121.900737038944,36.3050075266601],[-121.900856012719,36.3049813529228],[-121.900879806396,36.3049099689051],[-121.900915498258,36.3048742768717],[-121.900751315869,36.304843343956],[-121.900722762918,36.3048219285749],[-121.900713244369,36.304712474182],[-121.900641859745,36.3047362684394],[-121.900594270594,36.3047362677155],[-121.900594270594,36.3046363314958],[-121.90042532893,36.3046339511986],[-121.90042532893,36.3046268132024],[-121.900273043828,36.3044602508421],[-121.900218316665,36.3043936262327],[-121.900142173665,36.3043817290527],[-121.900063651027,36.3044174198636],[-121.900001784952,36.3043983846699],[-121.899973232001,36.3042389605781],[-121.90007792885,36.3041390237212],[-121.900080307589,36.3040700192469],[-121.900044615726,36.3039224924598],[-121.900018441514,36.3039367693045],[-121.899928022487,36.3038725245685],[-121.899859018399,36.3038867999745],[-121.899859017501,36.3038058987331],[-121.899954195802,36.3037511715668],[-121.899904227014,36.3037083416467],[-121.900001784952,36.3036488552054],[-121.899894709363,36.3035536760809],[-121.899809048713,36.3034680152764],[-121.899723388062,36.3034489805749],[-121.899502098872,36.3032276896133],[-121.899354571248,36.3032586231699],[-121.899185630482,36.3032895567142],[-121.89909283092,36.3033514223181],[-121.898959581119,36.303432323307],[-121.898826331318,36.3034228055906],[-121.898778742167,36.3034442206319],[-121.898666908203,36.3034394628605],[-121.898552692804,36.3034680152764],[-121.89850347411,36.3034559615828],[-121.898436099565,36.3034394628605],[-121.898386130778,36.3034584982882],[-121.898372234738,36.3034963258841],[-121.898343300901,36.3035750918103],[-121.898264779162,36.3036131625948],[-121.898238604052,36.3036631313763],[-121.898176041782,36.3036753638519],[-121.898174187659,36.3036778911389],[-121.898172488945,36.3036799000822],[-121.898141957904,36.3037142099307],[-121.898141579713,36.3037146218543],[-121.89813933123,36.3037169341289],[-121.898136885117,36.3037191211613],[-121.898134275511,36.3037211815035],[-121.898131502412,36.3037230883697],[-121.898128577497,36.3037248497234],[-121.898125522327,36.3037264568771],[-121.898122336003,36.3037278996957],[-121.898120177351,36.3037287553964],[-121.898089672361,36.30374019804],[-121.898088530602,36.3037406121353],[-121.898085153835,36.3037416994976],[-121.898081682745,36.3037426167334],[-121.898078148772,36.3037433428482],[-121.898074565393,36.3037438792899],[-121.89807094069,36.3037442238867],[-121.898067289937,36.3037443751908],[-121.898066182314,36.3037443838781],[-121.898025700634,36.3037443925654],[-121.897993520286,36.303805899457],[-121.89792636493,36.3038468470744],[-121.897895962348,36.3038653857786],[-121.897779369109,36.3039795998231],[-121.897717502135,36.3040747784278],[-121.897691327923,36.3041009524694],[-121.897657092229,36.3041922144172],[-121.897665154609,36.3042556176737],[-121.897624703471,36.3043079656268],[-121.897622323834,36.3043864882145],[-121.897627083109,36.3044079029912],[-121.897586631971,36.3045387732764],[-121.897517627883,36.3046244336288],[-121.897474453054,36.3046485138673],[-121.897426579137,36.3047264757872],[-121.897360582608,36.304852862223],[-121.897372921867,36.3049259497049],[-121.897391516993,36.3050360806737],[-121.897420069945,36.3050646339528],[-121.897415311569,36.3051978841399],[-121.89720353913,36.3053049597466],[-121.897023085556,36.3053218779527],[-121.896746682926,36.3053477902377],[-121.896330276961,36.3053073392994],[-121.896009049297,36.3052311971941],[-121.89587104112,36.3052121607512],[-121.895349938305,36.3049551799006],[-121.895026331902,36.3045911210394],[-121.894766970313,36.3044007649743],[-121.894650377074,36.3043365198965],[-121.8945885101,36.3043460367775],[-121.8945314033,36.3044079029912],[-121.89430059556,36.3042722740419],[-121.894200658883,36.30429368885],[-121.893962712233,36.3040866763787],[-121.893758077807,36.3040224303182],[-121.893510615303,36.3039153551224],[-121.893453507604,36.3039391488991],[-121.893389261891,36.3039486665525],[-121.893327396714,36.303874904165],[-121.893308360515,36.3039034571454],[-121.893313119789,36.3039320108392],[-121.893165593063,36.3039367700285],[-121.893084690789,36.3038511089208],[-121.893027583988,36.3038891810184],[-121.892975235563,36.3038201770471],[-121.892903851837,36.3038534892419],[-121.892906231475,36.3038891802945],[-121.892803914262,36.3039462876822],[-121.892744427824,36.3038891802945],[-121.892656387536,36.3039034578693],[-121.892684941386,36.3039938766575],[-121.892577865797,36.3040390867361],[-121.892342299682,36.304015291542],[-121.892068661168,36.3039058367409],[-121.891940169743,36.3038130382524],[-121.891802161566,36.3038368327843],[-121.891795022655,36.3037583103671],[-121.89167367104,36.3038154178507],[-121.891627354802,36.3038340875959],[-121.891575443857,36.3038494199642],[-121.891521384141,36.3038653865026],[-121.891417677235,36.3038280882874],[-121.891250126163,36.3037678287666],[-121.891131153287,36.3037821049157],[-121.891078804862,36.3037107212482],[-121.89099314511,36.3037273770087],[-121.890664779432,36.3036036456244],[-121.890472043193,36.3036084048337],[-121.890441108808,36.3035417794967],[-121.890314997918,36.3036012667436],[-121.890276927317,36.3036298198241],[-121.890298341356,36.3036869274018],[-121.890015185192,36.3036298198241],[-121.889955699653,36.3035536768049],[-121.8896796824,36.3035298821866],[-121.889263275537,36.3034918113614],[-121.889137163749,36.3033823558256],[-121.889018191771,36.3033871143245],[-121.888977741532,36.3034156682074],[-121.888787384032,36.3032467265406],[-121.88864461658,36.30321103447],[-121.888387634629,36.3030849233699],[-121.88806164769,36.302935017266],[-121.887826081575,36.302766075282],[-121.887595273836,36.3026114107433],[-121.887500094636,36.3025995132914],[-121.887511992822,36.3025138528867],[-121.887438229459,36.3025138528867],[-121.887295462008,36.3025138528867],[-121.887250251596,36.3025590616515],[-121.886914747906,36.3024662637324],[-121.886629213003,36.302397258502],[-121.886369850516,36.3023496700005],[-121.886217565414,36.3022140403675],[-121.886031968086,36.3022116607203],[-121.885546558032,36.3019713348056],[-121.885176295828,36.3016657704931],[-121.884818442054,36.3010052745093],[-121.884656639301,36.3004841719244],[-121.88459239269,36.3002605029795],[-121.88451624969,36.3001462885564],[-121.884444865965,36.3000511102253],[-121.884249750088,36.2999654491937],[-121.884210933885,36.3000008603983],[-121.883997527411,36.2999368962196],[-121.883741000007,36.2997831621763],[-121.88348856892,36.2996318814021],[-121.88332652003,36.2995347672394],[-121.88315604045,36.2993455593789],[-121.882804176641,36.2988972666174],[-121.882728366916,36.2988006800519],[-121.8826079226,36.2986472282975],[-121.88221531121,36.2981737155171],[-121.882045315822,36.2978376234469],[-121.88189884282,36.2973361455076],[-121.88188932517,36.2972576230617],[-121.882010676785,36.2972790383479],[-121.882174860073,36.2972790383479],[-121.882236725249,36.2972433464423],[-121.882272418011,36.2971838594141],[-121.882379493599,36.2971148560264],[-121.882546056524,36.2971172343811],[-121.882477051537,36.296962570225],[-121.882355699024,36.2967864896228],[-121.882229587236,36.2966794139051],[-121.882260520723,36.2966175480771],[-121.882174860073,36.2966151689831],[-121.882091578161,36.2965842349638],[-121.88211061436,36.2965152310456],[-121.882215310311,36.2965199899634],[-121.882236726148,36.2964747805943],[-121.882160583148,36.2964248115516],[-121.882110615258,36.2964057758553],[-121.882089199422,36.296279664612],[-121.882122511648,36.2961940045067],[-121.882170100798,36.2962249365088],[-121.882189136997,36.2962820437162],[-121.882227208497,36.2963486687385],[-121.882310489511,36.2962772855078],[-121.882431841126,36.2963201151645],[-121.882469912626,36.2962415931439],[-121.882410426188,36.2962035216572],[-121.882422323475,36.2961749680301],[-121.882217690847,36.2959346430637],[-121.881972605285,36.2956895583888],[-121.88183221747,36.2953730896098],[-121.881682311107,36.2952588759946],[-121.881660896169,36.2952041486233],[-121.881520508355,36.2951137283336],[-121.881470539567,36.29512324634],[-121.881361083443,36.2950970721817],[-121.881342049041,36.2951256262035],[-121.881451504266,36.2951684564924],[-121.881694209293,36.2953611925018],[-121.881701347306,36.2954420938142],[-121.881841736019,36.2955563086093],[-121.881858391683,36.2956348305956],[-121.881810802532,36.2957157323483],[-121.881684690744,36.2957371473338],[-121.881501472156,36.2954682685808],[-121.881408672594,36.2953588133696],[-121.881396775306,36.2953873665715],[-121.881318254465,36.2953826075845],[-121.881313494293,36.2953136026035],[-121.881213557616,36.2951470413509],[-121.881115998779,36.2950970721817],[-121.880966093314,36.2949067153899],[-121.88081618785,36.2948115364578],[-121.880761459788,36.2946045241602],[-121.880697214075,36.2945450372919],[-121.880699593712,36.2944736538588],[-121.880506856575,36.2943261262972],[-121.880454509048,36.2943404034505],[-121.880335536172,36.2942690198302],[-121.880421196823,36.2941357697964],[-121.880349813097,36.2940501095091],[-121.880197527995,36.2939121007488],[-121.879857264132,36.2938526140765],[-121.879702599393,36.2937003284231],[-121.87953127899,36.293607529377],[-121.879305229627,36.293559940581],[-121.879202912414,36.2934956952622],[-121.879129149051,36.2935123517561],[-121.878727020011,36.2933909985642],[-121.878615185148,36.293448106398],[-121.878491453896,36.2934314498905],[-121.878308234409,36.2934600030737],[-121.878317752059,36.2934956952622],[-121.878155949307,36.2935432840974],[-121.878053683298,36.2935515011999],[-121.878047329514,36.2935520109223],[-121.8780389653,36.2935526835532],[-121.878035309157,36.2935526487993],[-121.878031678167,36.2935524120391],[-121.878028064244,36.2935519819608],[-121.878024498831,36.2935513846298],[-121.878024133217,36.2935513165703],[-121.877580119328,36.2933100972968],[-121.877401660014,36.2930412181434],[-121.877073295235,36.2926509858925],[-121.876973356761,36.2926271915684],[-121.876785379796,36.2925581870464],[-121.87656171007,36.2923559337338],[-121.876530777482,36.2922774113434],[-121.876482272948,36.2922677105295],[-121.876395148043,36.2922702722164],[-121.876270567883,36.2921154826027],[-121.876240482406,36.2920894334202],[-121.876204737543,36.2920258066787],[-121.876190596263,36.2919204237784],[-121.876176236694,36.2918134166834],[-121.876240483304,36.2918062775139],[-121.876291517494,36.2918242897967],[-121.876321384681,36.291834831292],[-121.87639990642,36.2918062775139],[-121.876430839906,36.2918110359949],[-121.876397526782,36.291753929135],[-121.876345163984,36.2917087242444],[-121.876409424968,36.2916992022012],[-121.876490326344,36.2917372729898],[-121.87648556707,36.2916992014772],[-121.876371353468,36.2915635728747],[-121.876328522694,36.2914802911859],[-121.876297590105,36.2914208048316],[-121.876304728119,36.2913399029694],[-121.876388009132,36.2913494207122],[-121.876449876106,36.291313729714],[-121.876407045331,36.2911471671624],[-121.876509361645,36.290921118244],[-121.876583125008,36.2907212435818],[-121.876537915495,36.2906022703945],[-121.876380871119,36.2905737168894],[-121.876223826742,36.2905047119993],[-121.876088197304,36.2905380248124],[-121.875762211264,36.2904309492073],[-121.87530535506,36.2900145432429],[-121.874960331922,36.2896790394486],[-121.874553444506,36.2892174238616],[-121.87423221774,36.2889937551957],[-121.874065654815,36.2889985138483],[-121.873606418974,36.2889033349493],[-121.87340892346,36.2889794777881],[-121.872916375393,36.28895806312],[-121.872664152716,36.28893902705],[-121.872323888853,36.2889033356733],[-121.871805167472,36.2887105989163],[-121.871369725307,36.2884345810879],[-121.870767721116,36.2879277568506],[-121.870367971713,36.2877040873842],[-121.869846869797,36.2876350828528],[-121.869351941194,36.2874875561181],[-121.868697589477,36.2871282570431],[-121.867905229582,36.2865548069222],[-121.867407921342,36.2862050269915],[-121.866227709332,36.2854650149565],[-121.865823199757,36.285091439312],[-121.865271164353,36.2847131044139],[-121.865382999216,36.2846512385106],[-121.865475798778,36.2846655152619],[-121.865518629553,36.2846012698607],[-121.865390139026,36.2844418458589],[-121.865237853026,36.2844727796237],[-121.865183125862,36.2844228101355],[-121.865285442176,36.2843871181414],[-121.865190263875,36.2843347705781],[-121.865211678813,36.2841491718216],[-121.865109361601,36.2840325789534],[-121.865142673827,36.2840111636519],[-121.865133157074,36.2839635747961],[-121.865180746225,36.2839255031111],[-121.865106982862,36.2838945698535],[-121.865045115888,36.2839302620728],[-121.864973732163,36.2839302613486],[-121.864961834875,36.2838874321318],[-121.864888071512,36.2838493604097],[-121.864859518561,36.2838993295411],[-121.864795272848,36.283915985187],[-121.864512116684,36.283820806606],[-121.864202787206,36.2835376503835],[-121.864119506193,36.2832997043703],[-121.864057640117,36.2831022092439],[-121.864031465905,36.2830379640041],[-121.863910113391,36.2829427858006],[-121.863812555453,36.2829047143419],[-121.863741171728,36.2829142323893],[-121.86376734594,36.2828238130641],[-121.863665028727,36.2826501119348],[-121.863553193864,36.2825263797052],[-121.863424703338,36.2822003937128],[-121.863022574298,36.2815912510405],[-121.862894082873,36.2813699617998],[-121.862834596434,36.2812057793115],[-121.862958328585,36.2809678327065],[-121.862991640811,36.2808441014307],[-121.862908359797,36.2807322656785],[-121.862618064722,36.2807703374727],[-121.862223074593,36.280760819888],[-121.861804289889,36.2807750959026],[-121.861502098424,36.2807679578956],[-121.861059518246,36.2805990164248],[-121.860693081069,36.2803967625294],[-121.860655009569,36.2803325165109],[-121.860505103206,36.2803134812335],[-121.860409925803,36.2803253791877],[-121.860257638905,36.2802444766846],[-121.860248122153,36.2801635748218],[-121.860257638905,36.2801302626492],[-121.860124390002,36.2800279464461],[-121.859924514851,36.2799993919684],[-121.859881684975,36.2800089103702],[-121.859729398975,36.2800041511695],[-121.859677051448,36.2800660171355],[-121.859691328373,36.280139781035],[-121.859636600311,36.2802420978156],[-121.859505729249,36.2802183033285],[-121.859472417922,36.2802611331104],[-121.859529524723,36.2803206192821],[-121.859922135214,36.2803920033524],[-121.86028143348,36.2804039005703],[-121.860350438467,36.2804586281843],[-121.860336161542,36.2805561861041],[-121.860210050653,36.2805990164248],[-121.860205292276,36.2808250655539],[-121.860219240418,36.2809798942197],[-121.860057765551,36.2811581894692],[-121.859943550152,36.2812319530606],[-121.859941171413,36.2813271311779],[-121.859955445643,36.2814182698699],[-121.8599721049,36.2815246271753],[-121.859796023426,36.2815698365174],[-121.859562656387,36.28159393039],[-121.859520710453,36.281598261522],[-121.859103601107,36.28139375666],[-121.858827582956,36.2812462304373],[-121.858437352102,36.2812628859253],[-121.857849624836,36.281210538439],[-121.857609299446,36.281155810628],[-121.856900219666,36.2808774140229],[-121.856286318188,36.2806727798206],[-121.85575807736,36.2804562485977],[-121.855443989505,36.2803753476786],[-121.854913369938,36.2800802947255],[-121.854206669796,36.2796519912351],[-121.853699843906,36.2793474199632],[-121.853364340215,36.2790380904158],[-121.853140670489,36.2787144839778],[-121.852750439635,36.2782742826942],[-121.852517252258,36.2781576897401],[-121.851870037656,36.2778459808811],[-121.851337038452,36.2774034000895],[-121.850849249659,36.276791878665],[-121.850575611146,36.2762517410308],[-121.850178240481,36.275821059256],[-121.849914120516,36.2755973891305],[-121.849535786051,36.2753332692645],[-121.848900470533,36.274854997428],[-121.848353193506,36.2743434130889],[-121.847946305191,36.2736962005049],[-121.847598905111,36.2729823615387],[-121.846989762008,36.2724826749418],[-121.846570977304,36.2721019613704],[-121.846199781751,36.2717450422955],[-121.84616408899,36.2716926942204],[-121.845914339375,36.2713885764137],[-121.845851562407,36.2713093586553],[-121.845771628517,36.2712084902442],[-121.845637987949,36.2710398518232],[-121.845585879374,36.27097409674],[-121.845638227799,36.2708289495362],[-121.845564464436,36.2707147354858],[-121.845471665772,36.2706171775791],[-121.845462147223,36.270448235868],[-121.84541693771,36.2703673347167],[-121.845364589285,36.2702888119297],[-121.845245617307,36.2702126689627],[-121.845174232683,36.2701912542151],[-121.845124264794,36.2701960132899],[-121.845126644431,36.2701579421325],[-121.845202785635,36.2701008346375],[-121.845259894232,36.270079419135],[-121.845321760307,36.2701032138154],[-121.84538361201,36.2700688508007],[-121.845471664874,36.270019932402],[-121.845357451272,36.2699913793334],[-121.845307482484,36.269989000152],[-121.845212305082,36.2699556879831],[-121.84512902317,36.2699913793334],[-121.844955322232,36.2699342724408],[-121.844869662479,36.2698652681326],[-121.845043362519,36.2698081611478],[-121.845109987869,36.2698509915714],[-121.84513854082,36.2697843656531],[-121.845112366608,36.2697439151062],[-121.845081434019,36.2697439151062],[-121.845010049395,36.2697010846238],[-121.844955322232,36.269701085348],[-121.844776862917,36.2696201834226],[-121.844719755218,36.2694821749144],[-121.844691690052,36.2694508049977],[-121.84463885474,36.2694488625293],[-121.844586243109,36.2693329495138],[-121.844384251527,36.2689634524974],[-121.844177239262,36.2687516798265],[-121.844053506213,36.2686374656347],[-121.844136788125,36.268635086412],[-121.844136788125,36.2685851176491],[-121.844160581802,36.2685637031795],[-121.844143926138,36.2685303904025],[-121.844058265487,36.268489939206],[-121.844013055974,36.2684970776113],[-121.843972604837,36.2684494887127],[-121.843984502124,36.2683947606468],[-121.844060644226,36.2683733454007],[-121.844060714295,36.2683109581084],[-121.844010454453,36.2682324470147],[-121.843949954715,36.2681425915505],[-121.843898841474,36.2681235018773],[-121.843870287624,36.2680735342356],[-121.84389112764,36.2680552209674],[-121.843948810261,36.2680045290073],[-121.843925015686,36.2678998328767],[-121.843896461837,36.2678688997868],[-121.843860769974,36.2678712797572],[-121.843784795857,36.2678972928423],[-121.843591890734,36.2677998951021],[-121.843563336885,36.2677427887796],[-121.843630985416,36.2676691978573],[-121.843591890734,36.2676166775686],[-121.843457940248,36.2675226720014],[-121.843394396119,36.2675524318968],[-121.843344426433,36.2675262571825],[-121.843211176632,36.2675262579068],[-121.843158828207,36.2674905654298],[-121.843211176632,36.2674786684167],[-121.842930401004,36.2672407227034],[-121.842868534928,36.267214548609],[-121.84272338784,36.2669718435443],[-121.842473543901,36.2665221248124],[-121.842599655689,36.2664626382666],[-121.842668659778,36.2663698401498],[-121.842606793702,36.2663341478685],[-121.8424545086,36.2664055316905],[-121.842333156087,36.2662413488747],[-121.842254634348,36.2658249435028],[-121.842207044299,36.2654370913793],[-121.8421499366,36.2653395326734],[-121.842161833888,36.2651634524235],[-121.84230730976,36.2649131980909],[-121.842116624374,36.264680421896],[-121.842002409874,36.2646590063556],[-121.841759704847,36.2644353382968],[-121.84165976817,36.2643972665039],[-121.841526518369,36.2642283243737],[-121.84140278532,36.2641283876952],[-121.840895960329,36.2633598209296],[-121.840638978377,36.2628934473458],[-121.840677049877,36.2625983942374],[-121.840610425426,36.26233427386],[-121.840581975781,36.2623194802009],[-121.840491452549,36.2622724076052],[-121.840519799786,36.2621842163094],[-121.840481660015,36.2621286327662],[-121.840439104125,36.2621201218993],[-121.840408171536,36.2620439796594],[-121.840362961124,36.2619963904501],[-121.840365659664,36.2618305758619],[-121.840341983666,36.2618114853701],[-121.840301095049,36.2618179297517],[-121.840163085974,36.2617179928862],[-121.840185156682,36.26167998351],[-121.840205916748,36.26164422969],[-121.840141671036,36.2616037792726],[-121.839963211721,36.2613801097076],[-121.839818064633,36.2613467974881],[-121.839749060544,36.2613396584292],[-121.839432592154,36.2608399719367],[-121.8389281468,36.2603117314347],[-121.838721133636,36.259961950534],[-121.838674956637,36.2598358550084],[-121.838659266662,36.2597930089511],[-121.838754444963,36.2595336482284],[-121.838933966985,36.2594085574152],[-121.838768721888,36.2593385318827],[-121.838702097437,36.2593385318827],[-121.838452253498,36.2590101666167],[-121.838116749808,36.2586199351688],[-121.837788383232,36.2580393463305],[-121.83750046959,36.2574397217398],[-121.837336286302,36.2570090397914],[-121.837095960014,36.2565521828716],[-121.836969848227,36.2563451697868],[-121.836572478461,36.2551720956613],[-121.836206041283,36.2544392218095],[-121.836048997805,36.2540156775368],[-121.835963336256,36.253380360807],[-121.835930024031,36.2527878750701],[-121.836020443057,36.2525808621529],[-121.836034719982,36.252328639826],[-121.835999028119,36.2520526215831],[-121.835937162942,36.2516814258964],[-121.835849121756,36.2516243186554],[-121.835837224469,36.2515814883784],[-121.835863399579,36.2515196223007],[-121.83583484573,36.2513911319515],[-121.835725389606,36.2512555021349],[-121.83565067313,36.251074643661],[-121.835674845896,36.2507955044728],[-121.835688366439,36.2507431133784],[-121.835706497137,36.2506894878113],[-121.835801533504,36.2504084137229],[-121.836072790584,36.2500443568371],[-121.83633453181,36.2498968300628],[-121.836629585262,36.2499801112004],[-121.836769973076,36.2499063477874],[-121.83690084324,36.2498849325432],[-121.837072165439,36.2497635796234],[-121.837402910754,36.2498206867754],[-121.837494151739,36.2499843173088],[-121.837512961562,36.2500048545027],[-121.875012967808,36.2500048516049],[-121.933346315847,36.3066715190918]]]},"properties":{"NAME":"Point Sur SMR","FULLNAME":"Point Sur State Marine Reserve","Type":"SMR","CCR":"Section 632 (b) (83)"}},{"type":"Feature","geometry":{"type":"Polygon","coordinates":[[[-121.650012920453,36.1200048546992],[-121.633346247917,36.08667151987],[-121.687046255502,36.0866715155143],[-121.687095854184,36.0867105993497],[-121.687471664383,36.0869802219669],[-121.688728994065,36.0879176812394],[-121.689961524856,36.088886394517],[-121.691246563971,36.0899606399617],[-121.692426272925,36.0910039294255],[-121.693606924211,36.092043180634],[-121.694804232958,36.0930442578673],[-121.696126442563,36.094214761069],[-121.698202648611,36.0962149696506],[-121.699281330333,36.097341089012],[-121.700305655895,36.0984802327444],[-121.701320737793,36.0996769794824],[-121.702252153301,36.1008428482304],[-121.703118631393,36.1019997765565],[-121.703959267649,36.1031882108075],[-121.704841874094,36.1045301567559],[-121.705655132395,36.1058600645686],[-121.706391226312,36.1071528706144],[-121.707076254598,36.108456755754],[-121.707801573223,36.10996028154],[-121.708482019203,36.1115177164928],[-121.70902361259,36.1128849330855],[-121.709162050162,36.1132125900194],[-121.709360743129,36.1134287743839],[-121.710347300822,36.1145290321448],[-121.711302633974,36.115658284479],[-121.712302352884,36.1169123198076],[-121.713252707573,36.1181910105097],[-121.714137548127,36.119463656044],[-121.714302109606,36.1197092453107],[-121.714447946601,36.1199275415597],[-121.714497918982,36.1200048503454],[-121.650012920453,36.1200048546992]]]},"properties":{"NAME":"Big Creek SMCA","FULLNAME":"Big Creek State Marine Conservation Area","Type":"SMCA","CCR":"Section 632 (b) (86)"}},{"type":"Feature","geometry":{"type":"Polygon","coordinates":[[[-121.631553435188,36.1134531646193],[-121.6314273234,36.1134341293653],[-121.631407235274,36.1134584463028],[-121.631382113887,36.1134888569782],[-121.631244104812,36.1134198525588],[-121.63124410571,36.1133698840788],[-121.631284493965,36.1133329884446],[-121.631244469528,36.1132498935577],[-121.631125131936,36.1132128396629],[-121.631101756873,36.1131833882664],[-121.630892207765,36.1129193702239],[-121.630861164684,36.1128060570105],[-121.630834837758,36.1127559829118],[-121.630861011072,36.1127226698299],[-121.630887185285,36.1127345678791],[-121.63088004817,36.1127083943456],[-121.630839597033,36.1126869785743],[-121.630827699745,36.1127155324509],[-121.630780109696,36.1127536033027],[-121.630648247792,36.1127678591846],[-121.630604030019,36.1127726394474],[-121.630394637218,36.1126536661888],[-121.630207793927,36.1123727277653],[-121.630196842565,36.1120917542282],[-121.630365481497,36.1116393969643],[-121.630368352513,36.1116222271027],[-121.630368741483,36.1116202306407],[-121.630369501458,36.1116173400887],[-121.630370501283,36.111614519206],[-121.630371728381,36.1116117462208],[-121.630373174669,36.1116090450821],[-121.630374827569,36.111606423047],[-121.63037669876,36.11160389463],[-121.630394636319,36.1114710742457],[-121.630342288793,36.1112949931631],[-121.630411292882,36.1111189138629],[-121.630335149881,36.1108881055067],[-121.63025900778,36.1108595524171],[-121.630239972479,36.1108119634275],[-121.630308976567,36.1108000665384],[-121.630187624054,36.1106620572687],[-121.630039598763,36.1104907286477],[-121.629935930484,36.11040340263],[-121.6298164285,36.1102551692362],[-121.629761700438,36.1102147189388],[-121.629708517479,36.1102118399468],[-121.629554624392,36.1100822068204],[-121.629450560855,36.10999834647],[-121.62885687686,36.1096675989874],[-121.62878762304,36.1096050807862],[-121.628767085756,36.1095865410064],[-121.628595763556,36.1095056389763],[-121.628548175304,36.1094390143955],[-121.628491225708,36.1094709920531],[-121.628483929592,36.1095175367871],[-121.628262639503,36.1094747064014],[-121.628175280138,36.1094154792899],[-121.627841474263,36.1091891706257],[-121.627697077268,36.1090802732738],[-121.627458381422,36.108853666813],[-121.627274134263,36.1087536216802],[-121.627193602094,36.1086995918415],[-121.626951555532,36.1085371987385],[-121.626893978014,36.108469607361],[-121.626842100306,36.1084087073591],[-121.626513975378,36.1081334059278],[-121.626487690672,36.1080973540637],[-121.626421070713,36.1080296628793],[-121.626334977074,36.1079481989618],[-121.626334129064,36.1079473723255],[-121.626273720057,36.1078873740343],[-121.62599501235,36.1075711379385],[-121.625895074774,36.10735698555],[-121.625886479694,36.1072008733287],[-121.625919637409,36.1071129898956],[-121.625919629324,36.1071077868937],[-121.625919696698,36.1071056154077],[-121.62591999943,36.1071026753377],[-121.625920529436,36.1070997693784],[-121.625921077409,36.1070976370835],[-121.625945043562,36.1069072682062],[-121.626028324575,36.10681684789],[-121.626159191146,36.1067705432362],[-121.626328137301,36.1067169112055],[-121.626368142874,36.1065754226829],[-121.62624485539,36.1062957464078],[-121.626159194739,36.1062267414749],[-121.626294825076,36.1057508497918],[-121.626347172602,36.1057389521362],[-121.626304342726,36.1056556713995],[-121.626256753576,36.1055319393172],[-121.626016428186,36.105346341554],[-121.625823691049,36.1053035103455],[-121.625635714084,36.1051202926087],[-121.625431079659,36.1047538558535],[-121.625309727145,36.1046824718899],[-121.625297829858,36.1046039497454],[-121.625304968769,36.1044849764517],[-121.625219308119,36.1043850389779],[-121.625264517632,36.1043374489688],[-121.625214548844,36.1042874812426],[-121.62513364657,36.1043207928217],[-121.62488380353,36.104270825085],[-121.624865017062,36.1042513905982],[-121.624762451016,36.1039448379144],[-121.624532225385,36.1038556886827],[-121.624407912025,36.1036069550416],[-121.624274661326,36.1035355707617],[-121.624253732376,36.1035530116616],[-121.624217554525,36.1035831605308],[-121.624193759949,36.1035688833853],[-121.62422949583,36.1035484471252],[-121.624208035976,36.1034832233614],[-121.624122306155,36.1035059908994],[-121.624074786175,36.103511776955],[-121.623884430471,36.1033951833515],[-121.623863909357,36.103337939619],[-121.62383922006,36.1032690714414],[-121.62383922006,36.1032119647932],[-121.623789251272,36.1032333795189],[-121.623594135396,36.103209584895],[-121.623575100095,36.1032262405519],[-121.623508474745,36.1032167231377],[-121.623403574876,36.1031749359206],[-121.62315869413,36.1030001927642],[-121.623089690041,36.1029716389846],[-121.623094449315,36.1029145313944],[-121.623130141178,36.1029073931241],[-121.623075413116,36.1028122156417],[-121.623106346603,36.1027479696508],[-121.623230077855,36.1025552335404],[-121.623208662019,36.102452916594],[-121.62305399728,36.1021745197606],[-121.623011167404,36.1019936804681],[-121.623044479629,36.1017771489011],[-121.622994276381,36.1015976463708],[-121.623011168302,36.1014939934019],[-121.622830328452,36.1012608058394],[-121.622797941491,36.1012351198615],[-121.622580484514,36.1011894223311],[-121.622454373624,36.100956236042],[-121.622392507549,36.1008610569217],[-121.622394887186,36.1006992536767],[-121.62244961435,36.100661182063],[-121.622504341514,36.1006350081354],[-121.622597141076,36.1006016949936],[-121.622585243788,36.1005826602542],[-121.622663765527,36.1006112134504],[-121.622601899452,36.1005350708451],[-121.622488818625,36.1003980901814],[-121.622428198514,36.100199567088],[-121.622254498474,36.1002304996861],[-121.622093488934,36.1001971798403],[-121.621819057208,36.0998402677056],[-121.62185474907,36.0997046387821],[-121.621747673482,36.0996403938793],[-121.621802401544,36.0995785274806],[-121.621796201372,36.0995232392675],[-121.621707222345,36.0995119024645],[-121.621642976632,36.0994762110127],[-121.621576352181,36.0993762737],[-121.621528762132,36.0992430232683],[-121.621545418694,36.0990717024042],[-121.621435964366,36.0989908004326],[-121.621519244481,36.0988075824907],[-121.621526383393,36.0986909884387],[-121.621621561694,36.0986386399882],[-121.621771468057,36.0986291220183],[-121.621767449893,36.0984641357069],[-121.621751495813,36.0984347150727],[-121.621412168893,36.0981127793182],[-121.621247986503,36.0979033866692],[-121.621114735804,36.0978391410194],[-121.621140910016,36.0976701993381],[-121.621247986503,36.0975155340898],[-121.621371717756,36.0974703250727],[-121.621528762132,36.0974869812204],[-121.621476413707,36.0974536681956],[-121.621576351282,36.0974322533462],[-121.621543039057,36.0973561098379],[-121.62156683453,36.0972014454231],[-121.621493071167,36.0971348205689],[-121.621571592906,36.0969872938015],[-121.621502588818,36.0967969374438],[-121.62144310238,36.0967541066553],[-121.621438343105,36.0966898615177],[-121.621547798331,36.096630375071],[-121.621552556707,36.0965708885793],[-121.621435963468,36.0964852281843],[-121.621469275694,36.0962496608909],[-121.621550177968,36.0962829737003],[-121.621524003756,36.0961449650573],[-121.621450240393,36.0961235498512],[-121.621297954393,36.0957238002028],[-121.621280393227,36.0955231631773],[-121.62116626766,36.0953189920904],[-121.621221812291,36.0952978771707],[-121.621169337204,36.0951541004514],[-121.621010039853,36.0951408321917],[-121.620905343901,36.0950646893665],[-121.620855374215,36.0948648150069],[-121.62102193714,36.0948933681032],[-121.621060007742,36.0948552965799],[-121.620971968353,36.0947410826254],[-121.620798267414,36.0946530422562],[-121.620707848388,36.0942913649271],[-121.6206959511,36.0942128425599],[-121.620781334171,36.0941728079181],[-121.620674535264,36.0940082085835],[-121.620517490887,36.0938511646567],[-121.620341410312,36.0937274321311],[-121.62023648529,36.0937219814409],[-121.620158192621,36.0937179142923],[-121.619827447307,36.0935513526523],[-121.619803651833,36.0934490355954],[-121.619853621519,36.0934418971911],[-121.619782237794,36.0933800309934],[-121.619741787555,36.0933633747011],[-121.619739407019,36.0932753342402],[-121.619608536855,36.0932229865372],[-121.619539532767,36.0931444645544],[-121.619446733205,36.093006455481],[-121.61951811693,36.0930040759995],[-121.619506219643,36.0929660050128],[-121.619411041342,36.0929422101831],[-121.619389626404,36.0928970007126],[-121.619441974829,36.0928541707022],[-121.619380108753,36.0928065809678],[-121.619325380691,36.0927447149959],[-121.619358692917,36.0926661925353],[-121.619494323253,36.0926899874486],[-121.61953715313,36.092625741892],[-121.619534773492,36.0925424610476],[-121.619439595191,36.0923949336439],[-121.619453871218,36.0923425853545],[-121.619370590205,36.0922854794757],[-121.61940390243,36.0922426484062],[-121.619327760328,36.0921450908383],[-121.619513358554,36.0920879833642],[-121.619534774391,36.0921593671559],[-121.619575223731,36.0920475331493],[-121.619706094793,36.0919523548525],[-121.619687059493,36.0917738947818],[-121.619506220541,36.0915954350317],[-121.619372969842,36.0912408960285],[-121.61922068474,36.0909886721896],[-121.619096951691,36.0909077706074],[-121.619051742178,36.0907840385293],[-121.618823314076,36.0906460303924],[-121.618740033961,36.0905008833417],[-121.618774192399,36.0904243527364],[-121.618739118577,36.0902693944744],[-121.618602024885,36.0901772759567],[-121.618533019898,36.0900559237512],[-121.618459256535,36.0900249907776],[-121.618430703584,36.089853669417],[-121.61832124746,36.0897394554531],[-121.618340283659,36.0896490364313],[-121.618530640261,36.0895205446498],[-121.61863771585,36.0893944337009],[-121.618706719938,36.0892159736296],[-121.618661511323,36.0890541703623],[-121.618756688726,36.0888661932701],[-121.618747171075,36.0888043271002],[-121.618654372412,36.08871628734],[-121.618690064275,36.0885854173223],[-121.618525880987,36.0884569259799],[-121.618535398637,36.0883474699574],[-121.618618680549,36.0882903640797],[-121.618585367425,36.088119042568],[-121.618513983699,36.0880500376422],[-121.61854015881,36.0878691992375],[-121.618704341199,36.0875170383189],[-121.61877595669,36.0875098296851],[-121.618989876102,36.086972141418],[-121.619032706877,36.0867984417197],[-121.618999393753,36.0866651910136],[-121.619030326341,36.0865985666647],[-121.618997015014,36.0865533571752],[-121.618920872014,36.0864986289466],[-121.618844729014,36.0865200445974],[-121.618732895049,36.0863273078857],[-121.618590127597,36.0862487862735],[-121.618440220336,36.0862487855475],[-121.618299832522,36.086267821581],[-121.618211792234,36.0861702638568],[-121.618223689522,36.0860941210525],[-121.618183239283,36.0860489112728],[-121.618240345185,36.0860489112728],[-121.618240345185,36.0860322548789],[-121.618428757833,36.0859862472346],[-121.618429750472,36.0859834087345],[-121.618430379292,36.0859818972876],[-121.618445642567,36.0859475833696],[-121.618446236354,36.0859463209261],[-121.618447681743,36.0859436239866],[-121.618390252447,36.0859061434152],[-121.618154685433,36.0859275592275],[-121.618052368221,36.0858062062688],[-121.618019055995,36.0857990678963],[-121.618040470933,36.0857776520491],[-121.617964328831,36.085656299585],[-121.617797765906,36.0856301257415],[-121.617697828331,36.0855397063486],[-121.61776445368,36.085542086056],[-121.617802524282,36.0855016353762],[-121.617759694406,36.0854921165413],[-121.617624065866,36.0854135948207],[-121.617643101167,36.0853898006085],[-121.617515168494,36.0853007987496],[-121.617500333716,36.085237515592],[-121.617369462653,36.0852256177342],[-121.617314734591,36.0852565504185],[-121.617245730503,36.0852494119961],[-121.617176726414,36.0852208583001],[-121.617136276175,36.0852208590261],[-121.617050615525,36.0851661313218],[-121.616891190613,36.0851589928912],[-121.616860258923,36.0851209210085],[-121.616599083635,36.0851141441055],[-121.616498307034,36.0850366405404],[-121.616482526329,36.085028098802],[-121.616381986882,36.0850209843158],[-121.616274911294,36.0849448411242],[-121.616212626604,36.084864397216],[-121.61613690132,36.0848425244792],[-121.616108348369,36.0848401454766],[-121.616032205369,36.0847877965115],[-121.61602982663,36.0847640021099],[-121.61587754063,36.0846450285416],[-121.61581091528,36.0845998193805],[-121.615753808479,36.0846069578619],[-121.615627697589,36.0844070830428],[-121.61560866139,36.0843499764805],[-121.615473031952,36.0843618737449],[-121.615396888952,36.0843356994705],[-121.615365957262,36.0843547345153],[-121.615308849563,36.0843452169935],[-121.615308849563,36.0842881103863],[-121.615389750939,36.0842286239905],[-121.615392130576,36.0842000699238],[-121.615256500239,36.0841382037116],[-121.615020934124,36.0839668825884],[-121.615080420562,36.083919293281],[-121.615106594775,36.0838479099918],[-121.615099455863,36.0837836644679],[-121.615028072137,36.0838169767532],[-121.614768711447,36.0836313785182],[-121.614673533146,36.0836028249605],[-121.614502211845,36.0834957492084],[-121.614371340783,36.0834196067175],[-121.614283300495,36.0834005714462],[-121.61420953803,36.0833030130678],[-121.614316614517,36.0831531074187],[-121.614257127181,36.0829936830723],[-121.614257127181,36.0829104021864],[-121.614038216729,36.0826248671545],[-121.614073908592,36.0825273085396],[-121.614192881468,36.0823131568639],[-121.614228573331,36.0822346348723],[-121.614302336694,36.0821989435599],[-121.614484868072,36.0822282040194],[-121.614614045809,36.0822489122638],[-121.614673532248,36.0821727685654],[-121.614811541323,36.082170389482],[-121.614856750836,36.0821346974145],[-121.614849612823,36.0820871077241],[-121.614737220106,36.0820727852914],[-121.614739992307,36.0820708897178],[-121.614750736158,36.0820654643551],[-121.614780535971,36.0820504166491],[-121.614811542221,36.0820347605559],[-121.614742537234,36.0819895506198],[-121.614696678239,36.0819995824319],[-121.614514109132,36.0820395194568],[-121.614504591482,36.0820252420271],[-121.614269024468,36.0820300009287],[-121.614283301393,36.0820133458612],[-121.614188123092,36.0819871708049],[-121.614038216729,36.0820157242233],[-121.61377885514,36.0820656937696],[-121.613619431127,36.082063313957],[-121.613576601251,36.0818229888105],[-121.613607533839,36.0816469080739],[-121.613721036874,36.081586966656],[-121.613734436144,36.0814936248166],[-121.613619431127,36.0814256181347],[-121.613588498538,36.0813042662129],[-121.613643225702,36.0811591186111],[-121.613793132065,36.0811377036779],[-121.613809787729,36.0811495999764],[-121.613824064654,36.0811805342645],[-121.613878792716,36.0811924312825],[-121.613904966928,36.0811924312825],[-121.613938726515,36.0812253707741],[-121.613969211742,36.0812447797375],[-121.61401918053,36.0812447797375],[-121.61402869818,36.0812186051513],[-121.613985650912,36.0812003773888],[-121.613764578216,36.081106770099],[-121.613821685016,36.0810996320259],[-121.613636087689,36.0809663818245],[-121.61359563745,36.0808997577282],[-121.613657502627,36.0808640650839],[-121.613650364614,36.0808307529994],[-121.613543288127,36.0807784042687],[-121.613524252826,36.0807427122953],[-121.613538509089,36.0807198082069],[-121.613502109354,36.0806797369263],[-121.613405279051,36.0806475341046],[-121.613450489463,36.0805951867039],[-121.613412417963,36.0805261817078],[-121.613362449175,36.0805047666023],[-121.613398141936,36.0804809716303],[-121.613355311162,36.0804214852581],[-121.613319618401,36.0804214859841],[-121.613293445087,36.0803667585689],[-121.61336720845,36.0802763382047],[-121.613488560963,36.0802882353595],[-121.613514735175,36.080264441048],[-121.613451438084,36.0802256930557],[-121.613445730189,36.0801859191884],[-121.613347396106,36.0801685427996],[-121.613243476299,36.080204954512],[-121.61313640071,36.0801930573445],[-121.613105009083,36.0801688368348],[-121.612912730984,36.0802596827657],[-121.612846106533,36.080271579923],[-121.612779481183,36.0802430258712],[-121.61274378932,36.0802430258712],[-121.612715235471,36.0802168524036],[-121.612679544506,36.0802192315461],[-121.612677163971,36.0801978163569],[-121.612565329108,36.0801573658315],[-121.612548673444,36.0800717042464],[-121.612496325019,36.0799812849948],[-121.612472531342,36.0799598704669],[-121.612524879767,36.079940835084],[-121.612503463931,36.07989562467],[-121.612527258506,36.0798623121752],[-121.612555812356,36.0798408968889],[-121.612555812356,36.0797671343707],[-121.612641473006,36.0797480982152],[-121.61263671463,36.079669576566],[-121.612581986568,36.0796267451563],[-121.612622436807,36.0796100895798],[-121.612603400608,36.0795815352877],[-121.612636713732,36.0795767769641],[-121.612650990657,36.0795434643342],[-121.612579606033,36.079500634308],[-121.612692621282,36.0794445957867],[-121.612649604556,36.0794231774825],[-121.612581907516,36.0793894676547],[-121.612510601944,36.0794316298034],[-121.61237021413,36.0794435270861],[-121.61215130278,36.079445906978],[-121.611994259302,36.0794030761725],[-121.611770589576,36.0794221124116],[-121.611485053775,36.0790889877269],[-121.611485054673,36.0790128445985],[-121.611542161474,36.0789747733697],[-121.611615924837,36.0789914290808],[-121.611615924837,36.0789390813036],[-121.611504090872,36.078836764103],[-121.611563576412,36.0786702028752],[-121.611592130262,36.0786226132659],[-121.6115754737,36.07858692104],[-121.611592129363,36.0785631262137],[-121.611649237063,36.0785583671024],[-121.611668272363,36.0785179171856],[-121.611727758802,36.0785202963795],[-121.611753933014,36.0785036405686],[-121.6116896882,36.0784750858748],[-121.611625441589,36.0785083989572],[-121.611532643824,36.0784869840282],[-121.611587370987,36.0784370151116],[-121.611456499925,36.0783680103996],[-121.611380357823,36.0783584928791],[-121.611380357823,36.0783394571086],[-121.611175724297,36.0783013855537],[-121.611118616597,36.0782395197822],[-121.611082924734,36.0781324447123],[-121.611123375872,36.0781276848489],[-121.61108530527,36.0780753372228],[-121.611063890332,36.0780919931244],[-121.610956813845,36.0780491637597],[-121.610909224694,36.0780872339846],[-121.610823563146,36.078096752264],[-121.61070221153,36.0779872977897],[-121.610573721004,36.077934948618],[-121.610433332291,36.0778112171759],[-121.610449987955,36.0777802844664],[-121.610411917353,36.0777207967771],[-121.610404778442,36.0776613112208],[-121.610380984765,36.0776303784523],[-121.610421226594,36.0776263801706],[-121.610392966494,36.0775932220863],[-121.610391044099,36.0775908203572],[-121.610390205073,36.0775896013417],[-121.610389270825,36.0775882501876],[-121.610388615055,36.077587129913],[-121.610388591698,36.0775870885289],[-121.610387717638,36.077585584907],[-121.610386379148,36.0775828513789],[-121.610385267932,36.0775800466991],[-121.610385146659,36.0775796706121],[-121.610384383091,36.0775771919227],[-121.610321497428,36.0776208601165],[-121.61026201099,36.0776851055939],[-121.610173971601,36.0776565520549],[-121.610143038114,36.0776755872647],[-121.610057377463,36.0776065833366],[-121.61010972499,36.0775875481101],[-121.610135899202,36.077528061001],[-121.610028823614,36.077485230603],[-121.609997891025,36.0774400209552],[-121.610002649401,36.0774138465546],[-121.609962199162,36.0773614984532],[-121.609943163861,36.0773115302735],[-121.609962198264,36.0773115302735],[-121.6099074711,36.0772092131333],[-121.609914609114,36.0770997581498],[-121.609833708636,36.077116414258],[-121.609686181012,36.0770902397497],[-121.609681422635,36.0771045166233],[-121.609764703649,36.0771568648957],[-121.609679042998,36.0772163515596],[-121.609591002711,36.077235386876],[-121.609498203148,36.077273458221],[-121.609407784122,36.0772163522857],[-121.609286432507,36.0772401460674],[-121.60907465917,36.0770878605125],[-121.609077039706,36.0770402713976],[-121.60897710213,36.0769879230476],[-121.608884302568,36.07699268298],[-121.608572593453,36.0768427761905],[-121.608389373966,36.0767119060105],[-121.608301335475,36.0767023875635],[-121.60815380785,36.0764668212429],[-121.608146669837,36.0762907408547],[-121.608208535912,36.0762836030704],[-121.608141910563,36.0762074601297],[-121.608127633638,36.0761360763735],[-121.608203777536,36.0760789696122],[-121.608303714213,36.076012344279],[-121.608275161262,36.0759695145076],[-121.608225191576,36.0759504781588],[-121.608151428213,36.0758790948953],[-121.608130013275,36.0758505414266],[-121.607834959823,36.0755935590154],[-121.607754058447,36.0756102154427],[-121.607651742133,36.0755316925658],[-121.607551803659,36.0755078982671],[-121.607508973783,36.0754555503491],[-121.607354309044,36.0754246174391],[-121.607292442969,36.075436515328],[-121.607168711717,36.0753960638054],[-121.60709970673,36.0752937470772],[-121.607037840654,36.0752556754999],[-121.60698549223,36.0751652557929],[-121.606987871867,36.0750248685275],[-121.607085429805,36.0748963768039],[-121.607254371469,36.0747774042776],[-121.607413795482,36.0748440284789],[-121.607423313133,36.0747964394583],[-121.607318617181,36.074765506289],[-121.607318617181,36.0747036406401],[-121.607428071509,36.0746084624002],[-121.607456626257,36.0744442795204],[-121.607511352522,36.0744466588376],[-121.607566081483,36.0745013860166],[-121.607618429009,36.0745013867426],[-121.607611290996,36.0744466588376],[-121.607573219496,36.0744181055748],[-121.607625567022,36.0743062710155],[-121.607556562934,36.0741397081785],[-121.607494696858,36.074037391994],[-121.607309098633,36.073775650792],[-121.60731147827,36.0737185437688],[-121.607249612194,36.0736328831564],[-121.607368585969,36.0736090882833],[-121.607428824297,36.0736329848067],[-121.60738479517,36.0735583916455],[-121.607383966923,36.0735569097288],[-121.607382622145,36.0735541709781],[-121.607382372414,36.0735536133534],[-121.607371356373,36.0735276612901],[-121.607297201345,36.0734877359157],[-121.607223437982,36.073347347834],[-121.607085429805,36.0732283751427],[-121.606992631141,36.073066571645],[-121.606992630243,36.0729333216267],[-121.60698549223,36.072773897616],[-121.606909350128,36.0725740232122],[-121.606880796278,36.0723717689207],[-121.60677372069,36.0722147238824],[-121.606771341052,36.0721433401325],[-121.606723751902,36.0720862333764],[-121.606638091251,36.072060058646],[-121.606607157765,36.0720029525555],[-121.606435836463,36.0719720190136],[-121.606100332773,36.0717888012609],[-121.606014672122,36.0717626271576],[-121.605926572546,36.0716275183138],[-121.60586686063,36.0716207366173],[-121.605764828184,36.0715627516362],[-121.605572091945,36.0715960647424],[-121.605491212128,36.0716399126977],[-121.605438572649,36.0716384931887],[-121.605277039391,36.071634135913],[-121.604777351514,36.0713866718856],[-121.604503713899,36.0713462211844],[-121.604258629235,36.0711154136303],[-121.603996888907,36.0710559267082],[-121.603554309628,36.0708489140177],[-121.603321121354,36.0708156013212],[-121.603349675203,36.0707656326128],[-121.603192629929,36.0706847312769],[-121.603054621751,36.0706728333953],[-121.602640596322,36.0704396466052],[-121.602188497596,36.0701683887145],[-121.601945792569,36.0699827894867],[-121.601898203418,36.0699209237061],[-121.601943412931,36.0698471605966],[-121.602004950223,36.0698022311924],[-121.602033832856,36.0697924330834],[-121.60204097087,36.0698233660303],[-121.60211711387,36.0698328838577],[-121.602100458206,36.0697710179593],[-121.601988623343,36.0696639422509],[-121.601888684869,36.0696020762196],[-121.60176257398,36.0695925583643],[-121.601712605192,36.0695711431857],[-121.601660256767,36.0696234913898],[-121.601619806528,36.0695949378283],[-121.60155080244,36.0695711431857],[-121.601466855775,36.0695952231896],[-121.601210539475,36.0695568663967],[-121.60120555652,36.069493264149],[-121.601194657261,36.0694736736617],[-121.601133326581,36.069484192113],[-121.601074910037,36.0695045181483],[-121.601058254373,36.0695449690706],[-121.600996388298,36.0695878001624],[-121.600991628125,36.0696639422509],[-121.600863137598,36.0696924957874],[-121.600601397271,36.0697091527383],[-121.600477085707,36.0697119562466],[-121.600284928881,36.0697162903932],[-121.600031418918,36.0696558199863],[-121.600016049642,36.0695877994362],[-121.599928010252,36.0695568663967],[-121.599766206602,36.0695616253267],[-121.599634103051,36.0696282989651],[-121.599617732153,36.0696222308625],[-121.599197515535,36.0694807242046],[-121.598809523282,36.0691477607201],[-121.598483676481,36.0688406485143],[-121.598366034908,36.0687977095503],[-121.598021643286,36.0686720046636],[-121.597979433247,36.0686654115032],[-121.597436713373,36.0682410250175],[-121.597229700209,36.0677984445841],[-121.596877539956,36.0674843562635],[-121.596237354671,36.0672276180899],[-121.595623562787,36.0668228658293],[-121.595493756228,36.0668055583753],[-121.59540941161,36.0667943119773],[-121.595044181768,36.0665913188643],[-121.594907345892,36.0664873619521],[-121.594556821472,36.0663361723808],[-121.594552121486,36.0663321960353],[-121.594527115084,36.066325221455],[-121.594246522711,36.0661878427919],[-121.594208627281,36.0661666873714],[-121.594207083077,36.0661657956689],[-121.594205756265,36.0661649700453],[-121.593512981806,36.0658234922703],[-121.593110851868,36.0656045816843],[-121.592753932341,36.0652357648134],[-121.592651771435,36.0649849025931],[-121.592539782062,36.0647099050716],[-121.592580232301,36.0645742758041],[-121.592489813274,36.0643410883634],[-121.592396201635,36.0641304635055],[-121.592347044925,36.0640198611389],[-121.592166205973,36.0634416518795],[-121.592140031761,36.0632489152416],[-121.592192380185,36.0630633178424],[-121.592087684234,36.0628325092227],[-121.592118616822,36.0626992600222],[-121.592278039938,36.0625517332618],[-121.592273281562,36.0624922471254],[-121.592173343986,36.0624779697779],[-121.592123376097,36.0623352026959],[-121.592230450787,36.062130568531],[-121.592149549411,36.0619925594803],[-121.592270901924,36.0620496670286],[-121.592387496062,36.0619830414305],[-121.592413669376,36.0618950021387],[-121.592347044925,36.0617784085283],[-121.592206656212,36.0617189225334],[-121.592259004637,36.0616261228102],[-121.592354183836,36.0615357034113],[-121.592339906013,36.0615023904018],[-121.592254246261,36.0614357657927],[-121.592199518199,36.061292998272],[-121.592197138562,36.0612287532025],[-121.592040094185,36.0610931230173],[-121.591963952083,36.0609146640697],[-121.591966330822,36.0606719584671],[-121.591963951185,36.0605410882501],[-121.591878290535,36.0604482893163],[-121.591878290535,36.0603602490335],[-121.591956813172,36.060315039709],[-121.591887809083,36.0600770939391],[-121.591885429446,36.0599771559203],[-121.591954434433,36.0599295673457],[-121.591868772884,36.0597558660084],[-121.591916362035,36.0593061478977],[-121.591894947097,36.0590491666261],[-121.591954433535,36.058894501648],[-121.592071027672,36.0587374565737],[-121.592161446699,36.0587326977152],[-121.59220665711,36.0586755913906],[-121.592306593787,36.0586898679756],[-121.592328008725,36.0586398988273],[-121.592225691513,36.0585613771646],[-121.592256624101,36.0584947522439],[-121.592392254438,36.0583924345914],[-121.592351803301,36.0582734625206],[-121.592468397438,36.0582068373561],[-121.592504088402,36.0582496673586],[-121.592504089301,36.0583757788754],[-121.592596887965,36.0583948143941],[-121.592692066266,36.0583353280198],[-121.592711102465,36.058268703634],[-121.592584990677,36.058178283282],[-121.592611163991,36.0581068991406],[-121.592670651328,36.058011721153],[-121.592751552704,36.0581021409702],[-121.592815797518,36.0580212396832],[-121.592725378491,36.0579236810489],[-121.592756311978,36.057885609779],[-121.592680168978,36.0577476012714],[-121.592623061279,36.0574501679568],[-121.592577851765,36.0572288789271],[-121.592406530464,36.0570980080674],[-121.592297076137,36.0569790347659],[-121.592308972526,36.0569005128984],[-121.592406531363,36.0568172319781],[-121.592111477013,36.0565197987783],[-121.592206656212,36.0564341383195],[-121.592254245362,36.0563484784938],[-121.592361320951,36.0562961294451],[-121.592366080225,36.056222366633],[-121.592360921201,36.0561205202573],[-121.592071026774,36.0560010763296],[-121.59203771365,36.0560105936505],[-121.591966787166,36.0559212084961],[-121.591899705473,36.05591779591],[-121.591928870177,36.0558895975876],[-121.591809285548,36.0558154785381],[-121.591784916949,36.0558368008715],[-121.591733143446,36.0558821035484],[-121.591402398131,36.0558226174535],[-121.591264389056,36.0557417152755],[-121.590883675852,36.0556560546961],[-121.590750425153,36.0555323230675],[-121.590809912489,36.0555204250731],[-121.590786117015,36.055472835982],[-121.590819430139,36.0554490414257],[-121.590793255029,36.0554062113515],[-121.590800394839,36.0553990731245],[-121.590693318352,36.0553610020858],[-121.590700457263,36.0552777209889],[-121.590636211551,36.0552467881329],[-121.590671903414,36.0552301310249],[-121.590781358639,36.0552467874066],[-121.590812292126,36.0551754035111],[-121.590624313365,36.055032636252],[-121.590610037338,36.0549683904289],[-121.590457751338,36.0548732115505],[-121.590477450494,36.0548495235711],[-121.590562448188,36.0548946270986],[-121.590571966737,36.0548613149088],[-121.590552929639,36.0548042079536],[-121.590326882073,36.0547161671661],[-121.590367332311,36.0546923731073],[-121.590253117811,36.0546090913028],[-121.590093694696,36.0546043321947],[-121.590117488373,36.0546566809162],[-121.590088934523,36.0546733374193],[-121.589867645333,36.0545258108628],[-121.589781984682,36.0544877394016],[-121.589732015895,36.0544306321754],[-121.589506205484,36.0543709220243],[-121.589420306779,36.0543782840298],[-121.589170462841,36.0540879894001],[-121.589053869602,36.05363589236],[-121.588987244252,36.0533265618834],[-121.588877789026,36.0531219289842],[-121.588989623889,36.0525413402802],[-121.589099079115,36.0522486668757],[-121.589289435717,36.0518750913142],[-121.589494070142,36.0519012654975],[-121.589570212244,36.0517751537734],[-121.589439341182,36.0517037696342],[-121.589439341182,36.0515776583199],[-121.589513105443,36.051401577417],[-121.589617802293,36.0510755925189],[-121.589620181032,36.0509518602259],[-121.589760568846,36.0508566815742],[-121.589879542621,36.0508019539245],[-121.590093693798,36.050849543661],[-121.590079416873,36.0507852973284],[-121.590122247647,36.0507139144704],[-121.590174595174,36.0506282527765],[-121.590117488373,36.0504735886798],[-121.590079417771,36.0503046461755],[-121.590386367612,36.0500666999162],[-121.590702835104,36.0498834819902],[-121.590878916578,36.0497169190108],[-121.590931265002,36.0497335758331],[-121.59096457633,36.0497764053628],[-121.591038339693,36.0497883034993],[-121.591126379082,36.0498454097361],[-121.591166830219,36.0498477897972],[-121.591295321644,36.0499596242643],[-121.59131911622,36.0499429689425],[-121.591411915782,36.0500072137837],[-121.591461884569,36.0499905570194],[-121.591561821246,36.0500548032743],[-121.591595773073,36.0500644498677],[-121.59155706287,36.050019111159],[-121.591671232455,36.0500858921445],[-121.591703902385,36.050092759947],[-121.591795008623,36.0501119093178],[-121.591768835309,36.0500571826029],[-121.591659644188,36.0499930765241],[-121.591687933034,36.0499715216468],[-121.591702209061,36.0499715223731],[-121.59168317376,36.0499382088259],[-121.591629043078,36.0499198597866],[-121.591402397233,36.0498430304012],[-121.591302459658,36.049764508677],[-121.591152554193,36.0496931248933],[-121.591226317556,36.0496193617032],[-121.591228696295,36.0495527364754],[-121.591135897631,36.0494932499546],[-121.591109723418,36.0495122861691],[-121.591019304392,36.0494409021566],[-121.59104071933,36.0494242459988],[-121.591119241967,36.0494527988913],[-121.591183486781,36.049405209763],[-121.591133518892,36.0493623800313],[-121.591162071843,36.0493362057301],[-121.591202522082,36.0493623800313],[-121.591259629782,36.0493504825567],[-121.591335772782,36.0493647593808],[-121.591419052897,36.0493338263798],[-121.591392879583,36.0492695802627],[-121.591369085007,36.0492553034213],[-121.591390499945,36.0492338885176],[-121.59131911622,36.0491601256235],[-121.59123107683,36.0491315718986],[-121.591228696295,36.0491101569612],[-121.591259628883,36.0491030188895],[-121.591233725064,36.049042312571],[-121.591206620197,36.0490258589665],[-121.59116382266,36.0489998683074],[-121.591059755529,36.0490482914732],[-121.590993129281,36.0489959426531],[-121.590976473617,36.0490030807344],[-121.59089014462,36.0488927708679],[-121.590847983091,36.0488388981628],[-121.59085987948,36.0488151037798],[-121.590757563166,36.0487270635561],[-121.590690938714,36.0487342023882],[-121.590457751338,36.0486223669064],[-121.590422059475,36.0486223669064],[-121.590241220524,36.048536706568],[-121.590200769386,36.0485105327184],[-121.590172215537,36.0485176715701],[-121.590100831811,36.0485105327184],[-121.590050863922,36.0484320103915],[-121.590070059123,36.0483618957092],[-121.590075352895,36.0483425556204],[-121.590076538671,36.0483406875599],[-121.590077018371,36.04833993438],[-121.590078894054,36.0483374017489],[-121.590080678108,36.048335294007],[-121.590050863922,36.0482630685897],[-121.590084175249,36.0482249977308],[-121.590124626386,36.0482368946493],[-121.590098452174,36.0481797872456],[-121.590157657439,36.0481112745758],[-121.58993902816,36.0479013906921],[-121.589748671558,36.0478514219571],[-121.589689346817,36.0478535580381],[-121.589429823532,36.047863318932],[-121.589375096368,36.0478490425619],[-121.589339372166,36.0477833091993],[-121.589315609031,36.0477395874003],[-121.589322747943,36.0477086537606],[-121.589436962443,36.0476824803621],[-121.589396511306,36.0476467886238],[-121.589310850655,36.0476515474264],[-121.589208534341,36.0477038956878],[-121.589104091715,36.0477014668989],[-121.589003899916,36.0476991361622],[-121.588758815252,36.0475825425825],[-121.588749297602,36.0475230560254],[-121.588775209506,36.0475037135515],[-121.588753143289,36.0474863197746],[-121.588675535137,36.0473660122283],[-121.588612371894,36.0473576414409],[-121.588478038725,36.0473398379896],[-121.588428070836,36.0473017666842],[-121.588447106137,36.0472470387419],[-121.588428442738,36.047189950957],[-121.588406655898,36.0471233069678],[-121.588361712286,36.0471342685555],[-121.588309097061,36.0471471018621],[-121.588250556549,36.0470066021349],[-121.58821391876,36.0469186731945],[-121.588171235309,36.0469221377393],[-121.588107164768,36.0468564936665],[-121.587930762596,36.0465546162229],[-121.587875004166,36.0465314436085],[-121.587773719118,36.0464237450459],[-121.587307155719,36.0461909359838],[-121.587128885051,36.0461762816207],[-121.586828450691,36.0459217495114],[-121.586760067338,36.045762255513],[-121.586783861913,36.045719425252],[-121.586769584988,36.045681353163],[-121.586484398632,36.0456541230047],[-121.586174719709,36.0452958810317],[-121.586027193881,36.0448818546521],[-121.586012916957,36.0448461623704],[-121.585969990961,36.0448253919826],[-121.585939153594,36.0448104707989],[-121.585848510887,36.044524830872],[-121.585848733669,36.0444083415426],[-121.585696448567,36.0442822308885],[-121.585641720505,36.044171527265],[-121.660917780791,36.044176415567],[-121.660936111813,36.0441945800008],[-121.661287777992,36.044609665368],[-121.661628457775,36.0450244522014],[-121.662588000433,36.0462345475151],[-121.663506500861,36.0474728248507],[-121.664467461958,36.0488617367254],[-121.665254215467,36.0500795995635],[-121.665989742547,36.0513006304731],[-121.666330983778,36.051897647928],[-121.666750205961,36.0526593790486],[-121.667442541144,36.0539944079429],[-121.668352177895,36.0553086654527],[-121.6693284382,36.0566985443865],[-121.67016334051,36.057974738526],[-121.670912579474,36.0592067216014],[-121.672671670345,36.0615558238116],[-121.673564454702,36.062805780974],[-121.674364190664,36.0639983413282],[-121.675178561978,36.0652969952665],[-121.6759445132,36.0666166559991],[-121.67683156361,36.0682797491439],[-121.677663373021,36.0696857741911],[-121.678553576518,36.0709433997533],[-121.679387792515,36.0722108327861],[-121.680202324627,36.0735372273161],[-121.68098790314,36.0749158686484],[-121.6817074977,36.0762886476565],[-121.682370201953,36.0776660522355],[-121.683127965929,36.0794063134952],[-121.683648263854,36.0807354580279],[-121.684161114744,36.0821888079561],[-121.684575369244,36.0835143895224],[-121.684979334441,36.0849681715773],[-121.685080188298,36.0853322635368],[-121.685395764661,36.0855417521129],[-121.686183817134,36.0860725085509],[-121.686867003874,36.0865463960033],[-121.687046255502,36.0866715155143],[-121.633346247917,36.08667151987],[-121.650012920453,36.1200048546992],[-121.632812917234,36.1200048561505],[-121.632802875866,36.1198923288767],[-121.632794532313,36.119725440311],[-121.632769340858,36.1194208535778],[-121.632783617783,36.1190782109575],[-121.632781238146,36.1188497836484],[-121.632747924123,36.1184619307141],[-121.632659884734,36.1182406413922],[-121.632524810454,36.1180462691916],[-121.632408362742,36.1179617656992],[-121.632195890516,36.1178075787017],[-121.63192463164,36.1174411423569],[-121.631748551065,36.1170842222139],[-121.631749440397,36.1170228528506],[-121.631750930702,36.1169200395209],[-121.631829452441,36.1165179116966],[-121.632153059742,36.1160253626639],[-121.632312482857,36.1157088937338],[-121.63244409503,36.1154033059364],[-121.632504466308,36.1152317140737],[-121.632507450512,36.1152202496392],[-121.632540392631,36.1149418661234],[-121.632550429508,36.1148570472424],[-121.632527081395,36.1147545438508],[-121.632471582579,36.1145108926599],[-121.632371932464,36.1143721634883],[-121.632331062712,36.1143218857415],[-121.631937524261,36.1138824261524],[-121.631887079366,36.1138260950125],[-121.631774725277,36.1137006290332],[-121.631762960042,36.1136818071959],[-121.631684305352,36.1136197268867],[-121.631675066179,36.1135411933565],[-121.631670028427,36.1134983753248],[-121.631553435188,36.1134531646193]]]},"properties":{"NAME":"Big Creek SMR","FULLNAME":"Big Creek State Marine Reserve","Type":"SMR","CCR":"Section 632 (b) (85)"}}],"region_id":"big-sur-coast","checked_at":"2026-09-25T07:21:41.873994+00:00","source_url":"https://services2.arcgis.com/Uq9r85Potqm3MfRV/arcgis/rest/services/biosds582_fpu/FeatureServer/0/query?where=1%3D1&geometry=-122.2%2C35.9%2C-121.45%2C36.3&geometryType=esriGeometryEnvelope&inSR=4326&spatialRel=esriSpatialRelIntersects&outFields=NAME%2CFULLNAME%2CType%2CCCR&returnGeometry=true&outSR=4326&f=geojson","verification_sha256":"d877e2b4daf2a46bac49fac3b603994b8621e264c7f722bbbbb2d462d0b0af3b","screening_policy":"Conservatively exclude every mapped CDFW MPA from fishing targets and exports; exceptions require separate legal review."}
