{"type":"FeatureCollection","schema_version":1,"region_id":"cambria-san-simeon","created_at":"2026-09-26T04:06:36+00:00","source_kind":"USGS original seafloor-character class 3","source_sha256":"3eddd1f56df2ed1e4d173cbf084f585858f989685ee5b73db8fab69094f7f263","protected_areas_sha256":"508354c45c1875718ed5badeb9450140dd8fbdbdf71a8e35e29a21889c67ed72","mpa_margin_m":102,"depth_qualified":false,"fishing_targets":0,"features":[{"type":"Feature","geometry":{"type":"Polygon","coordinates":[[[-121.11742825151742,35.540084455167445],[-121.1178651175661,35.54027149878826],[-121.1176277353014,35.54098868166398],[-121.11718665409337,35.54098179359991],[-121.1174156175263,35.54062492478454],[-121.11675399883855,35.540614591011376],[-121.11674557303505,35.54097490392374],[-121.1169661135455,35.54097834896334],[-121.11696190108034,35.541158505433536],[-121.11740298319882,35.541165394349164],[-121.11717401806371,35.5415222630613],[-121.11761510222766,35.541529151261926],[-121.11761089112834,35.541709307782895],[-121.11716980597905,35.54170241953679],[-121.11716559385702,35.54188257600645],[-121.11782722311507,35.541892907839355],[-121.11783564436574,35.541532594757676],[-121.11805618654124,35.54153603785039],[-121.1182851478847,35.54117916734409],[-121.11850568914967,35.54118260958525],[-121.11849727100444,35.54154292282672],[-121.11893414747388,35.54172996284838],[-121.11892993929322,35.541910119500045],[-121.1187093959828,35.54190667797399],[-121.1187009785241,35.54226699121432],[-121.11495173122009,35.54220842283219],[-121.11495594834365,35.54202826660194],[-121.11429431906778,35.54201791898213],[-121.1142901004662,35.54219807514401],[-121.11164358082476,35.54215664811749],[-121.11164780533842,35.54197649222936],[-121.10895464544518,35.541934256410094],[-121.10565667573759,35.53737694827788],[-121.10579910238758,35.537379186170526],[-121.10580333922556,35.53719903074804],[-121.10552476399093,35.53719465346929],[-121.10526094225231,35.53683006345866],[-121.10603234058566,35.536842184572535],[-121.10604081301341,35.536481873640966],[-121.10647763153996,35.5366689572289],[-121.10648186674999,35.53648880171441],[-121.1067023936747,35.5364922651467],[-121.10669815895723,35.53667242068408],[-121.1069186864121,35.5366758837363],[-121.1069313889742,35.53613541703803],[-121.1078134932595,35.53614926494284],[-121.10760143236354,35.53578549227249],[-121.10782195750622,35.53578895359853],[-121.10782618957325,35.5356087979176],[-121.10848776374937,35.53561917940946],[-121.10849622481574,35.53525886789292],[-121.10893304295494,35.53544594258824],[-121.10939100571132,35.534732236465175],[-121.11027309588992,35.534746065909125],[-121.11027732231427,35.53456590994177],[-121.11072259204576,35.53439266618166],[-121.11072681741013,35.53421251015699],[-121.11094733864628,35.5342159656363],[-121.11094311377441,35.53439612168379],[-121.11182520106419,35.53440993966307],[-121.11183364683068,35.53404962737961],[-121.11205416776195,35.534053080821465],[-121.11204572298045,35.53441339315057],[-121.11248254546352,35.53460045511824],[-121.11247832396407,35.534780611313884],[-121.11269884697782,35.53478406363823],[-121.11270728895425,35.53442375119553],[-121.11336885526553,35.53443410561417],[-121.11336041624405,35.5347944181937],[-121.11380568115342,35.534621162883546],[-121.11379724402704,35.534981475542644],[-121.11423829152686,35.53498837499882],[-121.11422985622075,35.5353486877258],[-121.11400933146707,35.535345238153575],[-121.11400511326539,35.535525394485504],[-121.11422563851156,35.535528844080524],[-121.11422142076492,35.535709000429435],[-121.11465825555568,35.535896054844855],[-121.11487034917405,35.53625981608205],[-121.11399245843565,35.536065863446375],[-121.11398824008421,35.53624601975498],[-121.11376771290541,35.536242569665845],[-121.11377615055592,35.53588225708837],[-121.11355562439967,35.53587880664187],[-121.11355140510061,35.53605896291073],[-121.11311035191551,35.536052060763275],[-121.1133224387938,35.53641582451309],[-121.11288138371356,35.536408921468514],[-121.11287294189812,35.536769233828586],[-121.11309347040456,35.53677268559797],[-121.11308502942438,35.53713299798035],[-121.11264397047877,35.53712609394735],[-121.1126397489474,35.53730625008419],[-121.11197815933262,35.537295890943994],[-121.1119739362861,35.537476047006535],[-121.11219446661273,35.53747950047905],[-121.11219024402132,35.53765965655858],[-121.11263130577227,35.53766656234034],[-121.1126270841285,35.53784671845969],[-121.11284761555278,35.53785017076889],[-121.11284339436415,35.53803032690522],[-121.1130639263185,35.53803377883429],[-121.11327601779098,35.53839754270677],[-121.1137170838575,35.538404444641216],[-121.11372974162494,35.537863975976045],[-121.11328867851388,35.537857074178454],[-121.11329289867993,35.537676917990645],[-121.11351342972415,35.53768036906817],[-121.1135176493602,35.537500212851754],[-121.11395871057597,35.53750711375223],[-121.11396292918944,35.537326957484396],[-121.11462451981646,35.5373373057444],[-121.11462873691482,35.53715714940235],[-121.11484926670622,35.53716059799362],[-121.1148450501004,35.53734075435846],[-121.11550664117694,35.53735109778281],[-121.1157187422273,35.53771485767941],[-121.11615980517736,35.53772175056594],[-121.11615137761468,35.53808206352814],[-121.1157103126943,35.538075170550535],[-121.11570609787171,35.538255326977364],[-121.11526081627076,35.538428588717686],[-121.11525660038818,35.53860874508728],[-121.11459499907996,35.538598399975506],[-121.11459078168218,35.538778556270906],[-121.11569345317949,35.53879579622285],[-121.11592241643835,35.53843893013421],[-121.11636348340393,35.53844582239696],[-121.11634662950104,35.53916644829594],[-121.11656716501037,35.53916989391391],[-121.11657980401581,35.5386294244301],[-121.11680033808476,35.53863286957675],[-121.11679191310373,35.538993182617325],[-121.11701244819528,35.5389966274065],[-121.11702087219113,35.538636314320435],[-121.11724140633493,35.538639758661105],[-121.11722456016412,35.53936038490102],[-121.11677927535177,35.53953365213442],[-121.11677506269302,35.539713808628505],[-121.11633398868128,35.53970691765898],[-121.1163297749999,35.53988707410166],[-121.11610923755754,35.5398836279896],[-121.11610080909739,35.54024394081199],[-121.11653767268912,35.54043098917214],[-121.11654609925354,35.540070676270346],[-121.11743246277304,35.53990429861674],[-121.11742825151742,35.540084455167445]],[[-121.10847930253283,35.535979490902676],[-121.1086998283184,35.535982950639806],[-121.1087082885499,35.535622639100836],[-121.10848776374937,35.53561917940946],[-121.10847930253283,35.535979490902676]],[[-121.1126946259334,35.53496421985083],[-121.11291514947716,35.53496767179505],[-121.11291937002908,35.53478751555964],[-121.11269884697782,35.53478406363823],[-121.1126946259334,35.53496421985083]],[[-121.11588027070722,35.5402404942514],[-121.1158760559284,35.540420650631035],[-121.11609659481121,35.54042409721443],[-121.11610080909739,35.54024394081199],[-121.11588027070722,35.5402404942514]],[[-121.11672872097944,35.541695529678506],[-121.11672450787209,35.54187568610265],[-121.11694505084586,35.541879131256074],[-121.11694926346053,35.541698974809165],[-121.11672872097944,35.541695529678506]],[[-121.11673293404942,35.54151537324855],[-121.11629606420279,35.54132832543341],[-121.11628763612956,35.541688638208086],[-121.11672872097944,35.541695529678506],[-121.11673293404942,35.54151537324855]],[[-121.11607130830873,35.54150503550666],[-121.11630027818329,35.54114816903736],[-121.11586341136756,35.54096111973508],[-121.11585076647005,35.541501588786645],[-121.11607130830873,35.54150503550666]],[[-121.1156302246688,35.54149814166358],[-121.11563444016471,35.54131798534165],[-121.11541389889356,35.54131453783834],[-121.115409682905,35.54149469413748],[-121.1156302246688,35.54149814166358]],[[-121.11122362186308,35.54124895869977],[-121.11100308134182,35.54124550313586],[-121.11099885550016,35.54142565897884],[-121.11121939651406,35.541429114565574],[-121.11122362186308,35.54124895869977]],[[-121.11144416242185,35.541252413860626],[-121.11145261202209,35.54089210206587],[-121.11101153291266,35.54088519143246],[-121.11122362186308,35.54124895869977],[-121.11144416242185,35.541252413860626]],[[-121.1107783145238,35.54142220298911],[-121.11078254085812,35.54124204716895],[-121.11034146000337,35.54123513402607],[-121.11033723268373,35.541415289800526],[-121.1107783145238,35.54142220298911]],[[-121.10990460756622,35.54104806353647],[-121.10990883579608,35.54086790779605],[-121.10968829648544,35.540864449859704],[-121.10968406776293,35.541044605577284],[-121.10990460756622,35.54104806353647]],[[-121.11321692996073,35.54091972847868],[-121.11322959225663,35.540379260195145],[-121.11300905386092,35.54037580837256],[-121.11278007203903,35.54073266825054],[-121.11321692996073,35.54091972847868]],[[-121.11543497827515,35.54041375625522],[-121.11521443950467,35.54041030846278],[-121.11521022321055,35.54059046476831],[-121.11543076247365,35.54059391258352],[-121.11543497827515,35.54041375625522]],[[-121.11565551708304,35.54041720364464],[-121.1156597323545,35.54023704728776],[-121.11543919403923,35.54023359992112],[-121.11543497827515,35.54041375625522],[-121.11565551708304,35.54041720364464]],[[-121.11279695881656,35.54001204402004],[-121.11213534692276,35.54000168506203],[-121.11212690065315,35.540361997052045],[-121.11256797718201,35.54036890351832],[-121.11279695881656,35.54001204402004]],[[-121.11345857104789,35.54002239935097],[-121.11346701125615,35.539662087063874],[-121.11302593836825,35.53965518400418],[-121.11302171729761,35.539835340105014],[-121.11280118041728,35.53983188794784],[-121.11279695881656,35.54001204402004],[-121.11345857104789,35.54002239935097]],[[-121.1152186557614,35.54023015215147],[-121.1152228719807,35.54004999583432],[-121.11478179652266,35.54004309913155],[-121.11477757931812,35.54022325540313],[-121.1152186557614,35.54023015215147]],[[-121.11390386519386,35.53984914470363],[-121.11390808429404,35.53966898851157],[-121.11368754775634,35.53966553798923],[-121.11368332816356,35.539845694158466],[-121.11390386519386,35.53984914470363]],[[-121.11457391171683,35.539499181394305],[-121.11457812926432,35.53931902512219],[-121.11435759359941,35.53931557585446],[-121.11435337555935,35.53949573210377],[-121.11457391171683,35.539499181394305]],[[-121.11325913630283,35.53911816732961],[-121.11326335673104,35.53893801118264],[-121.11304282227624,35.5389345595425],[-121.11303860135544,35.539114715666685],[-121.11325913630283,35.53911816732961]],[[-121.11438290105389,35.5382346382362],[-121.11438711883196,35.53805448194608],[-121.11395027323668,35.53786742627039],[-121.11393339810888,35.53858805123681],[-121.11371286452682,35.53858460085129],[-121.11370864515868,35.53876475705552],[-121.11414971334548,35.5387716574692],[-121.1141454949251,35.538951813713204],[-121.1143660295673,35.538955263338345],[-121.11437868323839,35.538414794520484],[-121.11415815007393,35.53841134496372],[-121.11416236838204,35.538231188702234],[-121.11438290105389,35.5382346382362]],[[-121.11173228773941,35.53837337324217],[-121.11152020342558,35.538009606868265],[-121.11196126692171,35.538016515159185],[-121.11196971320211,35.53765620306324],[-121.11174918242043,35.537652749164934],[-121.11175340599698,35.53747259313104],[-121.11109181535473,35.53746222908675],[-121.11107914007953,35.53800269696545],[-121.11085860846283,35.53799924140958],[-121.11084593137247,35.538539709167324],[-121.11062539831558,35.53853625313995],[-121.1106211720512,35.5387164090247],[-121.11105801387104,35.538903476646716],[-121.11106646446693,35.538543164791704],[-121.11150753076842,35.5385500748315],[-121.11151175502495,35.5383699188496],[-121.11173228773941,35.53837337324217]],[[-121.10952696228405,35.538338811182],[-121.10953119093631,35.538158655399826],[-121.10931065908987,35.53815519700024],[-121.10930642994506,35.53833535275958],[-121.10952696228405,35.538338811182]],[[-121.11261864072856,35.53820703068086],[-121.11262286244725,35.53802687457318],[-121.1124023305679,35.538023421838155],[-121.11239810835663,35.53820357792303],[-121.11261864072856,35.53820703068086]],[[-121.11020969502388,35.537448404719434],[-121.11021392201084,35.53726824883957],[-121.11065498111607,35.537275161783484],[-121.11066343300728,35.53691484991488],[-121.1102181489603,35.53708809295384],[-121.11022237587224,35.53690793706232],[-121.10978131888743,35.53690102259792],[-121.10978554674693,35.53672086674623],[-121.10934449089741,35.53671395071568],[-121.10934026205283,35.536894106521686],[-121.10911973369188,35.53689064787912],[-121.10912396302902,35.536710492096],[-121.10890343519819,35.536707033073334],[-121.10867444672294,35.537063885116666],[-121.10889497550129,35.537067344588024],[-121.10888228567445,35.537607811816336],[-121.109102815968,35.53761127095329],[-121.1091155043172,35.53707080365639],[-121.10955656206177,35.53707772058426],[-121.10955233363465,35.53725787640144],[-121.10999339251457,35.53726479176316],[-121.10975595094244,35.53798195758553],[-121.11019278670094,35.53816902818065],[-121.11019701383795,35.537988872324085],[-121.11041754534202,35.537992329088894],[-121.1104302250503,35.53745186141572],[-121.11020969502388,35.537448404719434]],[[-121.11132501899137,35.53692521617148],[-121.11132079454215,35.5371053721772],[-121.11154132377114,35.537108826812954],[-121.1115455477278,35.536928670784434],[-121.11132501899137,35.53692521617148]],[[-121.11132924340308,35.53674506015992],[-121.11110871519674,35.536741605166846],[-121.11110449029246,35.53692176115556],[-121.11132501899137,35.53692521617148],[-121.11132924340308,35.53674506015992]],[[-121.10912819232861,35.536530336307045],[-121.10913665081524,35.53617002471167],[-121.10869559814634,35.536163106400515],[-121.10869136793673,35.53634326215543],[-121.10912819232861,35.536530336307045]],[[-121.10979823010037,35.53618039915622],[-121.1098024578098,35.53600024328123],[-121.10958193183642,35.535996785558844],[-121.10957770363443,35.536176941411],[-121.10979823010037,35.53618039915622]],[[-121.11003566524649,35.535463232872154],[-121.11004411934273,35.53510292102401],[-121.1096073002603,35.534915850323515],[-121.10959884426907,35.53527616209196],[-121.11003566524649,35.535463232872154]],[[-121.11224935689155,35.535137470914684],[-121.11225357895843,35.53495731475354],[-121.11203305552719,35.534953861600506],[-121.11202883296781,35.535134017738834],[-121.11224935689155,35.535137470914684]]]},"properties":{"id":"cambria-san-simeon-usgs-doi-P9ZSTUK1-001-0","name":"Cambria\u2013San Simeon \u00b7 rocky habitat context 001","habitat_kind":"rock","species_ids":["reef"],"latitude":35.538157,"longitude":-121.107766,"bounds":[-121.118934,35.53405,-121.105261,35.542267],"area_km2":0.5742,"source_id":"usgs-doi-P9ZSTUK1-001","source_url":"https://cmgds.marine.usgs.gov/data-releases/media/2022/10.5066-P9ZSTUK1/0f75d175cc2046f38c45b6ac26a9be92/SeafloorCharacter_OffshorePointEstero_metadata.xml","source_date":"20220607","native_source_codes":["USGS seafloor-character class 3 \u00b7 hard, rugose rock/boulder"],"vertical_datum":"No qualified local depth attached","depth_qualified":false,"depth_note":"Habitat classification only; the full footprint has not been verified within 300 ft or against a current nautical chart","limitations":"Compiled historical habitat, not a waypoint, fish observation, charter stop or verified rock boundary. PMEP zones are broad depth bands; even the seaward band extends to 100 m (328 ft). MPA polygons were subtracted with a 102 m processing margin, and current closures are screened again on the map. Verify current chart, access, rules and conditions before fishing.","evidence_kind":"historical-habitat-context","catch_evidence":false,"charter_evidence":false,"quality_grade":null,"fishing_target":false,"fishing_export":false,"bottom_view":false}},{"type":"Feature","geometry":{"type":"Polygon","coordinates":[[[-121.10120408272681,35.531223189282215],[-121.10104011258241,35.53099655196408],[-121.10153713649734,35.53100437922395],[-121.10153289108955,35.531184534386306],[-121.1021944265336,35.53119494928177],[-121.10219867046422,35.531014794050584],[-121.10175764778192,35.53100785123568],[-121.10176189265965,35.53082769604454],[-121.10220715821247,35.53065448357069],[-121.10243615523825,35.530297643778866],[-121.10265666470411,35.5303011140874],[-121.1026524219089,35.530481269387806],[-121.10353870294443,35.53031499129298],[-121.10353446211872,35.5304951466851],[-121.10397548244971,35.53050208291656],[-121.10397972229067,35.53032192747863],[-121.10420023202029,35.530325394967136],[-121.1041917532855,35.53068570588303],[-121.10375073189442,35.53067877041144],[-121.10374225103962,35.53103908121235],[-121.10418327440027,35.53104601677561],[-121.10460734362886,35.531773572625795],[-121.10438682988477,35.5317701057597],[-121.10437835153287,35.532130416628085],[-121.10415783684162,35.53212694931329],[-121.10414087771674,35.53284757088845],[-121.10392036109342,35.5328441030791],[-121.10391188032035,35.53320441378583],[-121.10347508660719,35.533017321562134],[-121.10347084521696,35.533197476866754],[-121.10325032772178,35.53319400780286],[-121.10325456960446,35.533013852521165],[-121.10303405263942,35.533010383077304],[-121.10302556785153,35.533370693589],[-121.10346660378909,35.53337763216554],[-121.10345812082042,35.533737942745596],[-121.10411967796408,35.53374834772614],[-121.10412815797804,35.533388037008564],[-121.10478971250596,35.53339843822545],[-121.10479395097916,35.53321828278916],[-121.10523498653446,35.533225214873426],[-121.10523922398515,35.53304505938549],[-121.10545974132683,35.53304852480034],[-121.1054555043686,35.5332286803112],[-121.10611705809681,35.53323907420709],[-121.10611282257835,35.53341922978073],[-121.1065538595702,35.53342615707596],[-121.1067828461672,35.53306930882868],[-121.10722388141497,35.53307623361487],[-121.10721964839632,35.53325638930883],[-121.10766068477939,35.53326331252919],[-121.10765645270808,35.53344346826304],[-121.10787697144846,35.53344692929173],[-121.10786850817813,35.53380724078769],[-121.10764798845281,35.53380377971325],[-121.10765222059923,35.53362362399108],[-121.10721118224633,35.5336167006792],[-121.107206949115,35.533796856355636],[-121.1069864295025,35.533793394072454],[-121.10697372840569,35.53433386099814],[-121.10675320735339,35.5343303982434],[-121.10696526081998,35.534694172252784],[-121.1067447387827,35.53469070945227],[-121.10674050444099,35.534870865047935],[-121.10629945949432,35.53486393819238],[-121.10629522413008,35.53504409373648],[-121.10563365551482,35.53503370036248],[-121.10562941863546,35.53521385583204],[-121.10606622939439,35.53540094070629],[-121.10606199342487,35.53558109620998],[-121.10495937205499,35.535563769547196],[-121.10496361048705,35.535383614158],[-121.1047430868185,35.53538014763954],[-121.10473884789396,35.53556030300583],[-121.10451832377059,35.53555683606153],[-121.10452680256705,35.53519652536894],[-121.10407377338042,35.535189401919695],[-121.10130800128192,35.53136682335347],[-121.10131237935028,35.53118106194875],[-121.10120408272681,35.531223189282215]],[[-121.10540889534651,35.53521039054528],[-121.10541313271831,35.53503023509861],[-121.10519260995949,35.535026769431845],[-121.10518837209516,35.5352069248556],[-121.10540889534651,35.53521039054528]],[[-121.10699489671254,35.53343308275951],[-121.10699913026119,35.533252927094296],[-121.10677861216368,35.53324946447688],[-121.10677437812255,35.5334296201192],[-121.10699489671254,35.53343308275951]]]},"properties":{"id":"cambria-san-simeon-usgs-doi-P9ZSTUK1-003-0","name":"Cambria\u2013San Simeon \u00b7 rocky habitat context 002","habitat_kind":"rock","species_ids":["reef"],"latitude":35.532929,"longitude":-121.103178,"bounds":[-121.107877,35.530298,-121.10104,35.535581],"area_km2":0.13247,"source_id":"usgs-doi-P9ZSTUK1-003","source_url":"https://cmgds.marine.usgs.gov/data-releases/media/2022/10.5066-P9ZSTUK1/0f75d175cc2046f38c45b6ac26a9be92/SeafloorCharacter_OffshorePointEstero_metadata.xml","source_date":"20220607","native_source_codes":["USGS seafloor-character class 3 \u00b7 hard, rugose rock/boulder"],"vertical_datum":"No qualified local depth attached","depth_qualified":false,"depth_note":"Habitat classification only; the full footprint has not been verified within 300 ft or against a current nautical chart","limitations":"Compiled historical habitat, not a waypoint, fish observation, charter stop or verified rock boundary. PMEP zones are broad depth bands; even the seaward band extends to 100 m (328 ft). MPA polygons were subtracted with a 102 m processing margin, and current closures are screened again on the map. Verify current chart, access, rules and conditions before fishing.","evidence_kind":"historical-habitat-context","catch_evidence":false,"charter_evidence":false,"quality_grade":null,"fishing_target":false,"fishing_export":false,"bottom_view":false}},{"type":"Feature","geometry":{"type":"Polygon","coordinates":[[[-121.10178050349981,35.530037821736],[-121.10200109015537,35.53003798298679],[-121.10199938065429,35.5301105467158],[-121.10177887179388,35.530107075221636],[-121.10178050349981,35.530037821736]]]},"properties":{"id":"cambria-san-simeon-usgs-doi-P9ZSTUK1-004-0","name":"Cambria\u2013San Simeon \u00b7 rocky habitat context 003","habitat_kind":"rock","species_ids":["reef"],"latitude":35.530073,"longitude":-121.10189,"bounds":[-121.102001,35.530038,-121.101779,35.530111],"area_km2":0.00016,"source_id":"usgs-doi-P9ZSTUK1-004","source_url":"https://cmgds.marine.usgs.gov/data-releases/media/2022/10.5066-P9ZSTUK1/0f75d175cc2046f38c45b6ac26a9be92/SeafloorCharacter_OffshorePointEstero_metadata.xml","source_date":"20220607","native_source_codes":["USGS seafloor-character class 3 \u00b7 hard, rugose rock/boulder"],"vertical_datum":"No qualified local depth attached","depth_qualified":false,"depth_note":"Habitat classification only; the full footprint has not been verified within 300 ft or against a current nautical chart","limitations":"Compiled historical habitat, not a waypoint, fish observation, charter stop or verified rock boundary. PMEP zones are broad depth bands; even the seaward band extends to 100 m (328 ft). MPA polygons were subtracted with a 102 m processing margin, and current closures are screened again on the map. Verify current chart, access, rules and conditions before fishing.","evidence_kind":"historical-habitat-context","catch_evidence":false,"charter_evidence":false,"quality_grade":null,"fishing_target":false,"fishing_export":false,"bottom_view":false}}]}
