{"schema_version":1,"type":"FeatureCollection","region_id":"southern-california","scope_id":"santa-barbara-island","bounds":[-119.12,33.33,-118.98,33.54],"checked_at":"2026-09-24T15:17:20.056389+00:00","source_url":"https://encdirect.noaa.gov/arcgis/rest/services/encdirect","status":"charted-danger-screen-only","query_receipts":[{"service":"enc_harbour","layer":"Obstruction_point","layer_id":33,"count":0,"count_url":"https://encdirect.noaa.gov/arcgis/rest/services/encdirect/enc_harbour/MapServer/33/query?where=1%3D1&geometry=-119.12%2C33.33%2C-118.98%2C33.54&geometryType=esriGeometryEnvelope&inSR=4326&spatialRel=esriSpatialRelIntersects&returnCountOnly=true&f=json","count_sha256":"618de7d9f46f3f697d827a1b6d84974760d5deda62e4e592adaa3c646602a94c","data_url":"https://encdirect.noaa.gov/arcgis/rest/services/encdirect/enc_harbour/MapServer/33/query?where=1%3D1&geometry=-119.12%2C33.33%2C-118.98%2C33.54&geometryType=esriGeometryEnvelope&inSR=4326&spatialRel=esriSpatialRelIntersects&outFields=%2A&returnGeometry=true&outSR=4326&f=geojson","data_sha256":"ed778c73ea51338d6576fb5992b189f2b94d9f3d5e199f46c1af520d6b0b3e6c"},{"service":"enc_harbour","layer":"Underwater_Awash_Rock_point","layer_id":34,"count":61,"count_url":"https://encdirect.noaa.gov/arcgis/rest/services/encdirect/enc_harbour/MapServer/34/query?where=1%3D1&geometry=-119.12%2C33.33%2C-118.98%2C33.54&geometryType=esriGeometryEnvelope&inSR=4326&spatialRel=esriSpatialRelIntersects&returnCountOnly=true&f=json","count_sha256":"2667167e769751600abdf60f057c2d3c6538e88ebaf5b5fc9fe926841d2f05a8","data_url":"https://encdirect.noaa.gov/arcgis/rest/services/encdirect/enc_harbour/MapServer/34/query?where=1%3D1&geometry=-119.12%2C33.33%2C-118.98%2C33.54&geometryType=esriGeometryEnvelope&inSR=4326&spatialRel=esriSpatialRelIntersects&outFields=%2A&returnGeometry=true&outSR=4326&f=geojson","data_sha256":"83246d694532afdebd68e913d083d0c6c1d02b39dabcde655fd25a243ddeb95d"},{"service":"enc_harbour","layer":"Wreck_point","layer_id":36,"count":0,"count_url":"https://encdirect.noaa.gov/arcgis/rest/services/encdirect/enc_harbour/MapServer/36/query?where=1%3D1&geometry=-119.12%2C33.33%2C-118.98%2C33.54&geometryType=esriGeometryEnvelope&inSR=4326&spatialRel=esriSpatialRelIntersects&returnCountOnly=true&f=json","count_sha256":"618de7d9f46f3f697d827a1b6d84974760d5deda62e4e592adaa3c646602a94c","data_url":"https://encdirect.noaa.gov/arcgis/rest/services/encdirect/enc_harbour/MapServer/36/query?where=1%3D1&geometry=-119.12%2C33.33%2C-118.98%2C33.54&geometryType=esriGeometryEnvelope&inSR=4326&spatialRel=esriSpatialRelIntersects&outFields=%2A&returnGeometry=true&outSR=4326&f=geojson","data_sha256":"ed778c73ea51338d6576fb5992b189f2b94d9f3d5e199f46c1af520d6b0b3e6c"},{"service":"enc_harbour","layer":"Obstruction_line","layer_id":99,"count":0,"count_url":"https://encdirect.noaa.gov/arcgis/rest/services/encdirect/enc_harbour/MapServer/99/query?where=1%3D1&geometry=-119.12%2C33.33%2C-118.98%2C33.54&geometryType=esriGeometryEnvelope&inSR=4326&spatialRel=esriSpatialRelIntersects&returnCountOnly=true&f=json","count_sha256":"618de7d9f46f3f697d827a1b6d84974760d5deda62e4e592adaa3c646602a94c","data_url":"https://encdirect.noaa.gov/arcgis/rest/services/encdirect/enc_harbour/MapServer/99/query?where=1%3D1&geometry=-119.12%2C33.33%2C-118.98%2C33.54&geometryType=esriGeometryEnvelope&inSR=4326&spatialRel=esriSpatialRelIntersects&outFields=%2A&returnGeometry=true&outSR=4326&f=geojson","data_sha256":"ed778c73ea51338d6576fb5992b189f2b94d9f3d5e199f46c1af520d6b0b3e6c"},{"service":"enc_harbour","layer":"Obstruction_area","layer_id":156,"count":2,"count_url":"https://encdirect.noaa.gov/arcgis/rest/services/encdirect/enc_harbour/MapServer/156/query?where=1%3D1&geometry=-119.12%2C33.33%2C-118.98%2C33.54&geometryType=esriGeometryEnvelope&inSR=4326&spatialRel=esriSpatialRelIntersects&returnCountOnly=true&f=json","count_sha256":"57413ce83ee1d989e384dfd3a82c6e2d9052a23c4204706bd2d7df11aa4c2d7c","data_url":"https://encdirect.noaa.gov/arcgis/rest/services/encdirect/enc_harbour/MapServer/156/query?where=1%3D1&geometry=-119.12%2C33.33%2C-118.98%2C33.54&geometryType=esriGeometryEnvelope&inSR=4326&spatialRel=esriSpatialRelIntersects&outFields=%2A&returnGeometry=true&outSR=4326&f=geojson","data_sha256":"0135007e01be341a6ab66917f8699cdabbe449482e053209ef323d41df3ca984"},{"service":"enc_harbour","layer":"Wreck_area","layer_id":158,"count":0,"count_url":"https://encdirect.noaa.gov/arcgis/rest/services/encdirect/enc_harbour/MapServer/158/query?where=1%3D1&geometry=-119.12%2C33.33%2C-118.98%2C33.54&geometryType=esriGeometryEnvelope&inSR=4326&spatialRel=esriSpatialRelIntersects&returnCountOnly=true&f=json","count_sha256":"618de7d9f46f3f697d827a1b6d84974760d5deda62e4e592adaa3c646602a94c","data_url":"https://encdirect.noaa.gov/arcgis/rest/services/encdirect/enc_harbour/MapServer/158/query?where=1%3D1&geometry=-119.12%2C33.33%2C-118.98%2C33.54&geometryType=esriGeometryEnvelope&inSR=4326&spatialRel=esriSpatialRelIntersects&outFields=%2A&returnGeometry=true&outSR=4326&f=geojson","data_sha256":"ed778c73ea51338d6576fb5992b189f2b94d9f3d5e199f46c1af520d6b0b3e6c"},{"service":"enc_approach","layer":"Obstruction_point","layer_id":36,"count":0,"count_url":"https://encdirect.noaa.gov/arcgis/rest/services/encdirect/enc_approach/MapServer/36/query?where=1%3D1&geometry=-119.12%2C33.33%2C-118.98%2C33.54&geometryType=esriGeometryEnvelope&inSR=4326&spatialRel=esriSpatialRelIntersects&returnCountOnly=true&f=json","count_sha256":"618de7d9f46f3f697d827a1b6d84974760d5deda62e4e592adaa3c646602a94c","data_url":"https://encdirect.noaa.gov/arcgis/rest/services/encdirect/enc_approach/MapServer/36/query?where=1%3D1&geometry=-119.12%2C33.33%2C-118.98%2C33.54&geometryType=esriGeometryEnvelope&inSR=4326&spatialRel=esriSpatialRelIntersects&outFields=%2A&returnGeometry=true&outSR=4326&f=geojson","data_sha256":"ed778c73ea51338d6576fb5992b189f2b94d9f3d5e199f46c1af520d6b0b3e6c"},{"service":"enc_approach","layer":"Underwater_Awash_Rock_point","layer_id":37,"count":22,"count_url":"https://encdirect.noaa.gov/arcgis/rest/services/encdirect/enc_approach/MapServer/37/query?where=1%3D1&geometry=-119.12%2C33.33%2C-118.98%2C33.54&geometryType=esriGeometryEnvelope&inSR=4326&spatialRel=esriSpatialRelIntersects&returnCountOnly=true&f=json","count_sha256":"bd067fc23d73cdd4d33068cde59fdb859d185e3ebdcfa796a120af35c24d27f3","data_url":"https://encdirect.noaa.gov/arcgis/rest/services/encdirect/enc_approach/MapServer/37/query?where=1%3D1&geometry=-119.12%2C33.33%2C-118.98%2C33.54&geometryType=esriGeometryEnvelope&inSR=4326&spatialRel=esriSpatialRelIntersects&outFields=%2A&returnGeometry=true&outSR=4326&f=geojson","data_sha256":"0d00ef6130abd7857deaf28988beaae3a4a624cd9ca561618b2fe8cc66e7bcf3"},{"service":"enc_approach","layer":"Wreck_point","layer_id":39,"count":0,"count_url":"https://encdirect.noaa.gov/arcgis/rest/services/encdirect/enc_approach/MapServer/39/query?where=1%3D1&geometry=-119.12%2C33.33%2C-118.98%2C33.54&geometryType=esriGeometryEnvelope&inSR=4326&spatialRel=esriSpatialRelIntersects&returnCountOnly=true&f=json","count_sha256":"618de7d9f46f3f697d827a1b6d84974760d5deda62e4e592adaa3c646602a94c","data_url":"https://encdirect.noaa.gov/arcgis/rest/services/encdirect/enc_approach/MapServer/39/query?where=1%3D1&geometry=-119.12%2C33.33%2C-118.98%2C33.54&geometryType=esriGeometryEnvelope&inSR=4326&spatialRel=esriSpatialRelIntersects&outFields=%2A&returnGeometry=true&outSR=4326&f=geojson","data_sha256":"ed778c73ea51338d6576fb5992b189f2b94d9f3d5e199f46c1af520d6b0b3e6c"},{"service":"enc_approach","layer":"Obstruction_line","layer_id":103,"count":0,"count_url":"https://encdirect.noaa.gov/arcgis/rest/services/encdirect/enc_approach/MapServer/103/query?where=1%3D1&geometry=-119.12%2C33.33%2C-118.98%2C33.54&geometryType=esriGeometryEnvelope&inSR=4326&spatialRel=esriSpatialRelIntersects&returnCountOnly=true&f=json","count_sha256":"618de7d9f46f3f697d827a1b6d84974760d5deda62e4e592adaa3c646602a94c","data_url":"https://encdirect.noaa.gov/arcgis/rest/services/encdirect/enc_approach/MapServer/103/query?where=1%3D1&geometry=-119.12%2C33.33%2C-118.98%2C33.54&geometryType=esriGeometryEnvelope&inSR=4326&spatialRel=esriSpatialRelIntersects&outFields=%2A&returnGeometry=true&outSR=4326&f=geojson","data_sha256":"ed778c73ea51338d6576fb5992b189f2b94d9f3d5e199f46c1af520d6b0b3e6c"},{"service":"enc_approach","layer":"Obstruction_area","layer_id":161,"count":2,"count_url":"https://encdirect.noaa.gov/arcgis/rest/services/encdirect/enc_approach/MapServer/161/query?where=1%3D1&geometry=-119.12%2C33.33%2C-118.98%2C33.54&geometryType=esriGeometryEnvelope&inSR=4326&spatialRel=esriSpatialRelIntersects&returnCountOnly=true&f=json","count_sha256":"57413ce83ee1d989e384dfd3a82c6e2d9052a23c4204706bd2d7df11aa4c2d7c","data_url":"https://encdirect.noaa.gov/arcgis/rest/services/encdirect/enc_approach/MapServer/161/query?where=1%3D1&geometry=-119.12%2C33.33%2C-118.98%2C33.54&geometryType=esriGeometryEnvelope&inSR=4326&spatialRel=esriSpatialRelIntersects&outFields=%2A&returnGeometry=true&outSR=4326&f=geojson","data_sha256":"66898c2615d269ff30de7dd9500e6c28b6108c3521826e718c26fc0a39664ba5"},{"service":"enc_approach","layer":"Wreck_area","layer_id":163,"count":0,"count_url":"https://encdirect.noaa.gov/arcgis/rest/services/encdirect/enc_approach/MapServer/163/query?where=1%3D1&geometry=-119.12%2C33.33%2C-118.98%2C33.54&geometryType=esriGeometryEnvelope&inSR=4326&spatialRel=esriSpatialRelIntersects&returnCountOnly=true&f=json","count_sha256":"618de7d9f46f3f697d827a1b6d84974760d5deda62e4e592adaa3c646602a94c","data_url":"https://encdirect.noaa.gov/arcgis/rest/services/encdirect/enc_approach/MapServer/163/query?where=1%3D1&geometry=-119.12%2C33.33%2C-118.98%2C33.54&geometryType=esriGeometryEnvelope&inSR=4326&spatialRel=esriSpatialRelIntersects&outFields=%2A&returnGeometry=true&outSR=4326&f=geojson","data_sha256":"ed778c73ea51338d6576fb5992b189f2b94d9f3d5e199f46c1af520d6b0b3e6c"},{"service":"enc_coastal","layer":"Obstruction_point","layer_id":30,"count":0,"count_url":"https://encdirect.noaa.gov/arcgis/rest/services/encdirect/enc_coastal/MapServer/30/query?where=1%3D1&geometry=-119.12%2C33.33%2C-118.98%2C33.54&geometryType=esriGeometryEnvelope&inSR=4326&spatialRel=esriSpatialRelIntersects&returnCountOnly=true&f=json","count_sha256":"618de7d9f46f3f697d827a1b6d84974760d5deda62e4e592adaa3c646602a94c","data_url":"https://encdirect.noaa.gov/arcgis/rest/services/encdirect/enc_coastal/MapServer/30/query?where=1%3D1&geometry=-119.12%2C33.33%2C-118.98%2C33.54&geometryType=esriGeometryEnvelope&inSR=4326&spatialRel=esriSpatialRelIntersects&outFields=%2A&returnGeometry=true&outSR=4326&f=geojson","data_sha256":"ed778c73ea51338d6576fb5992b189f2b94d9f3d5e199f46c1af520d6b0b3e6c"},{"service":"enc_coastal","layer":"Underwater_Awash_Rock_point","layer_id":31,"count":16,"count_url":"https://encdirect.noaa.gov/arcgis/rest/services/encdirect/enc_coastal/MapServer/31/query?where=1%3D1&geometry=-119.12%2C33.33%2C-118.98%2C33.54&geometryType=esriGeometryEnvelope&inSR=4326&spatialRel=esriSpatialRelIntersects&returnCountOnly=true&f=json","count_sha256":"13862f084a72fbe80d353527118c5ce361f7edde5713476ca2e774a04952b03a","data_url":"https://encdirect.noaa.gov/arcgis/rest/services/encdirect/enc_coastal/MapServer/31/query?where=1%3D1&geometry=-119.12%2C33.33%2C-118.98%2C33.54&geometryType=esriGeometryEnvelope&inSR=4326&spatialRel=esriSpatialRelIntersects&outFields=%2A&returnGeometry=true&outSR=4326&f=geojson","data_sha256":"92d1f61f11bca168852e0bd573afe42073865c41a6906d0d8edd32ebaac5829d"},{"service":"enc_coastal","layer":"Wreck_point","layer_id":33,"count":0,"count_url":"https://encdirect.noaa.gov/arcgis/rest/services/encdirect/enc_coastal/MapServer/33/query?where=1%3D1&geometry=-119.12%2C33.33%2C-118.98%2C33.54&geometryType=esriGeometryEnvelope&inSR=4326&spatialRel=esriSpatialRelIntersects&returnCountOnly=true&f=json","count_sha256":"618de7d9f46f3f697d827a1b6d84974760d5deda62e4e592adaa3c646602a94c","data_url":"https://encdirect.noaa.gov/arcgis/rest/services/encdirect/enc_coastal/MapServer/33/query?where=1%3D1&geometry=-119.12%2C33.33%2C-118.98%2C33.54&geometryType=esriGeometryEnvelope&inSR=4326&spatialRel=esriSpatialRelIntersects&outFields=%2A&returnGeometry=true&outSR=4326&f=geojson","data_sha256":"ed778c73ea51338d6576fb5992b189f2b94d9f3d5e199f46c1af520d6b0b3e6c"},{"service":"enc_coastal","layer":"Obstruction_line","layer_id":78,"count":0,"count_url":"https://encdirect.noaa.gov/arcgis/rest/services/encdirect/enc_coastal/MapServer/78/query?where=1%3D1&geometry=-119.12%2C33.33%2C-118.98%2C33.54&geometryType=esriGeometryEnvelope&inSR=4326&spatialRel=esriSpatialRelIntersects&returnCountOnly=true&f=json","count_sha256":"618de7d9f46f3f697d827a1b6d84974760d5deda62e4e592adaa3c646602a94c","data_url":"https://encdirect.noaa.gov/arcgis/rest/services/encdirect/enc_coastal/MapServer/78/query?where=1%3D1&geometry=-119.12%2C33.33%2C-118.98%2C33.54&geometryType=esriGeometryEnvelope&inSR=4326&spatialRel=esriSpatialRelIntersects&outFields=%2A&returnGeometry=true&outSR=4326&f=geojson","data_sha256":"ed778c73ea51338d6576fb5992b189f2b94d9f3d5e199f46c1af520d6b0b3e6c"},{"service":"enc_coastal","layer":"Obstruction_area","layer_id":118,"count":0,"count_url":"https://encdirect.noaa.gov/arcgis/rest/services/encdirect/enc_coastal/MapServer/118/query?where=1%3D1&geometry=-119.12%2C33.33%2C-118.98%2C33.54&geometryType=esriGeometryEnvelope&inSR=4326&spatialRel=esriSpatialRelIntersects&returnCountOnly=true&f=json","count_sha256":"618de7d9f46f3f697d827a1b6d84974760d5deda62e4e592adaa3c646602a94c","data_url":"https://encdirect.noaa.gov/arcgis/rest/services/encdirect/enc_coastal/MapServer/118/query?where=1%3D1&geometry=-119.12%2C33.33%2C-118.98%2C33.54&geometryType=esriGeometryEnvelope&inSR=4326&spatialRel=esriSpatialRelIntersects&outFields=%2A&returnGeometry=true&outSR=4326&f=geojson","data_sha256":"ed778c73ea51338d6576fb5992b189f2b94d9f3d5e199f46c1af520d6b0b3e6c"},{"service":"enc_coastal","layer":"Wreck_area","layer_id":120,"count":0,"count_url":"https://encdirect.noaa.gov/arcgis/rest/services/encdirect/enc_coastal/MapServer/120/query?where=1%3D1&geometry=-119.12%2C33.33%2C-118.98%2C33.54&geometryType=esriGeometryEnvelope&inSR=4326&spatialRel=esriSpatialRelIntersects&returnCountOnly=true&f=json","count_sha256":"618de7d9f46f3f697d827a1b6d84974760d5deda62e4e592adaa3c646602a94c","data_url":"https://encdirect.noaa.gov/arcgis/rest/services/encdirect/enc_coastal/MapServer/120/query?where=1%3D1&geometry=-119.12%2C33.33%2C-118.98%2C33.54&geometryType=esriGeometryEnvelope&inSR=4326&spatialRel=esriSpatialRelIntersects&outFields=%2A&returnGeometry=true&outSR=4326&f=geojson","data_sha256":"ed778c73ea51338d6576fb5992b189f2b94d9f3d5e199f46c1af520d6b0b3e6c"}],"limitations":"NOAA ENC Direct danger features across three scale bands. Retrieval is not an ENC issue time, chart completeness certification, navigation clearance or safe route. Source-date attributes can be older than the service refresh. Empty layers are checked, not assumed. Other hazards and local restrictions require separate review.","features":[{"type":"Feature","id":860544,"geometry":{"type":"Point","coordinates":[-119.04700880000001,33.48023490000003]},"properties":{"OBJECTID":860544,"OBJL":153,"EXPSOU":null,"NATSUR":null,"NATQUA":null,"OBJNAM":null,"QUASOU":"2","SOUACC":null,"TECSOU":null,"VALSOU":null,"VERDAT":null,"WATLEV":4,"INFORM":null,"SCAMIN":null,"SORDAT":"19900811","SORIND":"US,US,graph,Chart 18756","DSNM":"US5CA1LC.000","enc_service":"enc_harbour","enc_layer":"Underwater_Awash_Rock_point","enc_layer_id":34}},{"type":"Feature","id":860519,"geometry":{"type":"Point","coordinates":[-119.0408003,33.46677039999997]},"properties":{"OBJECTID":860519,"OBJL":153,"EXPSOU":null,"NATSUR":null,"NATQUA":null,"OBJNAM":null,"QUASOU":"2","SOUACC":null,"TECSOU":null,"VALSOU":null,"VERDAT":null,"WATLEV":3,"INFORM":null,"SCAMIN":null,"SORDAT":"19900811","SORIND":"US,US,graph,Chart 18756","DSNM":"US5CA1LC.000","enc_service":"enc_harbour","enc_layer":"Underwater_Awash_Rock_point","enc_layer_id":34}},{"type":"Feature","id":860543,"geometry":{"type":"Point","coordinates":[-119.03822250000002,33.48276010000001]},"properties":{"OBJECTID":860543,"OBJL":153,"EXPSOU":2,"NATSUR":null,"NATQUA":null,"OBJNAM":null,"QUASOU":"6","SOUACC":null,"TECSOU":"12","VALSOU":-0.6,"VERDAT":null,"WATLEV":4,"INFORM":null,"SCAMIN":null,"SORDAT":"20181025","SORIND":"US,US,graph,H-13201","DSNM":"US5CA1LC.000","enc_service":"enc_harbour","enc_layer":"Underwater_Awash_Rock_point","enc_layer_id":34}},{"type":"Feature","id":860511,"geometry":{"type":"Point","coordinates":[-119.0370749,33.48340430000002]},"properties":{"OBJECTID":860511,"OBJL":153,"EXPSOU":2,"NATSUR":null,"NATQUA":null,"OBJNAM":null,"QUASOU":"6","SOUACC":null,"TECSOU":"12","VALSOU":-0.1,"VERDAT":null,"WATLEV":4,"INFORM":null,"SCAMIN":null,"SORDAT":"20181025","SORIND":"US,US,graph,H-13201","DSNM":"US5CA1LC.000","enc_service":"enc_harbour","enc_layer":"Underwater_Awash_Rock_point","enc_layer_id":34}},{"type":"Feature","id":860557,"geometry":{"type":"Point","coordinates":[-119.04981320000002,33.463061400000015]},"properties":{"OBJECTID":860557,"OBJL":153,"EXPSOU":null,"NATSUR":null,"NATQUA":null,"OBJNAM":null,"QUASOU":"2","SOUACC":null,"TECSOU":null,"VALSOU":null,"VERDAT":null,"WATLEV":3,"INFORM":null,"SCAMIN":null,"SORDAT":"19900811","SORIND":"US,US,graph,Chart 18756","DSNM":"US5CA1LC.000","enc_service":"enc_harbour","enc_layer":"Underwater_Awash_Rock_point","enc_layer_id":34}},{"type":"Feature","id":860538,"geometry":{"type":"Point","coordinates":[-119.04851339999999,33.4807998]},"properties":{"OBJECTID":860538,"OBJL":153,"EXPSOU":null,"NATSUR":null,"NATQUA":null,"OBJNAM":null,"QUASOU":"2","SOUACC":null,"TECSOU":null,"VALSOU":null,"VERDAT":null,"WATLEV":4,"INFORM":null,"SCAMIN":null,"SORDAT":"19900811","SORIND":"US,US,graph,Chart 18756","DSNM":"US5CA1LC.000","enc_service":"enc_harbour","enc_layer":"Underwater_Awash_Rock_point","enc_layer_id":34}},{"type":"Feature","id":860545,"geometry":{"type":"Point","coordinates":[-119.04762219999998,33.480816300000015]},"properties":{"OBJECTID":860545,"OBJL":153,"EXPSOU":null,"NATSUR":null,"NATQUA":null,"OBJNAM":null,"QUASOU":"2","SOUACC":null,"TECSOU":null,"VALSOU":null,"VERDAT":null,"WATLEV":4,"INFORM":null,"SCAMIN":null,"SORDAT":"19900811","SORIND":"US,US,graph,Chart 18756","DSNM":"US5CA1LC.000","enc_service":"enc_harbour","enc_layer":"Underwater_Awash_Rock_point","enc_layer_id":34}},{"type":"Feature","id":860565,"geometry":{"type":"Point","coordinates":[-119.03698480000003,33.464922100000024]},"properties":{"OBJECTID":860565,"OBJL":153,"EXPSOU":2,"NATSUR":null,"NATQUA":null,"OBJNAM":null,"QUASOU":"6","SOUACC":null,"TECSOU":"12","VALSOU":-0.7000000000000001,"VERDAT":null,"WATLEV":4,"INFORM":null,"SCAMIN":null,"SORDAT":"20181025","SORIND":"US,US,graph,H-13201","DSNM":"US5CA1LC.000","enc_service":"enc_harbour","enc_layer":"Underwater_Awash_Rock_point","enc_layer_id":34}},{"type":"Feature","id":860532,"geometry":{"type":"Point","coordinates":[-119.04340680000001,33.47375899999997]},"properties":{"OBJECTID":860532,"OBJL":153,"EXPSOU":2,"NATSUR":null,"NATQUA":null,"OBJNAM":null,"QUASOU":"6","SOUACC":null,"TECSOU":"12","VALSOU":-1.5,"VERDAT":null,"WATLEV":4,"INFORM":null,"SCAMIN":null,"SORDAT":"20181025","SORIND":"US,US,graph,H-13201","DSNM":"US5CA1LC.000","enc_service":"enc_harbour","enc_layer":"Underwater_Awash_Rock_point","enc_layer_id":34}},{"type":"Feature","id":860552,"geometry":{"type":"Point","coordinates":[-119.04316829999999,33.47672240000003]},"properties":{"OBJECTID":860552,"OBJL":153,"EXPSOU":2,"NATSUR":null,"NATQUA":null,"OBJNAM":null,"QUASOU":"6","SOUACC":null,"TECSOU":"12","VALSOU":-0.8,"VERDAT":null,"WATLEV":4,"INFORM":null,"SCAMIN":null,"SORDAT":"20181025","SORIND":"US,US,graph,H-13201","DSNM":"US5CA1LC.000","enc_service":"enc_harbour","enc_layer":"Underwater_Awash_Rock_point","enc_layer_id":34}},{"type":"Feature","id":860556,"geometry":{"type":"Point","coordinates":[-119.04277990000003,33.476367900000014]},"properties":{"OBJECTID":860556,"OBJL":153,"EXPSOU":2,"NATSUR":null,"NATQUA":null,"OBJNAM":null,"QUASOU":"6","SOUACC":null,"TECSOU":"12","VALSOU":-1.1,"VERDAT":null,"WATLEV":4,"INFORM":null,"SCAMIN":null,"SORDAT":"20181025","SORIND":"US,US,graph,H-13201","DSNM":"US5CA1LC.000","enc_service":"enc_harbour","enc_layer":"Underwater_Awash_Rock_point","enc_layer_id":34}},{"type":"Feature","id":860550,"geometry":{"type":"Point","coordinates":[-119.0427388,33.47614920000001]},"properties":{"OBJECTID":860550,"OBJL":153,"EXPSOU":2,"NATSUR":null,"NATQUA":null,"OBJNAM":null,"QUASOU":"6","SOUACC":null,"TECSOU":"12","VALSOU":-0.7000000000000001,"VERDAT":null,"WATLEV":4,"INFORM":null,"SCAMIN":null,"SORDAT":"20181025","SORIND":"US,US,graph,H-13201","DSNM":"US5CA1LC.000","enc_service":"enc_harbour","enc_layer":"Underwater_Awash_Rock_point","enc_layer_id":34}},{"type":"Feature","id":860535,"geometry":{"type":"Point","coordinates":[-119.0414121,33.484396000000004]},"properties":{"OBJECTID":860535,"OBJL":153,"EXPSOU":null,"NATSUR":null,"NATQUA":null,"OBJNAM":null,"QUASOU":"2","SOUACC":null,"TECSOU":null,"VALSOU":null,"VERDAT":null,"WATLEV":4,"INFORM":null,"SCAMIN":null,"SORDAT":"19900811","SORIND":"US,US,graph,Chart 18756","DSNM":"US5CA1LC.000","enc_service":"enc_harbour","enc_layer":"Underwater_Awash_Rock_point","enc_layer_id":34}},{"type":"Feature","id":860567,"geometry":{"type":"Point","coordinates":[-119.03668470000002,33.48432530000002]},"properties":{"OBJECTID":860567,"OBJL":153,"EXPSOU":2,"NATSUR":null,"NATQUA":null,"OBJNAM":null,"QUASOU":"6","SOUACC":null,"TECSOU":"12","VALSOU":-1.2,"VERDAT":null,"WATLEV":4,"INFORM":null,"SCAMIN":null,"SORDAT":"20181025","SORIND":"US,US,graph,H-13201","DSNM":"US5CA1LC.000","enc_service":"enc_harbour","enc_layer":"Underwater_Awash_Rock_point","enc_layer_id":34}},{"type":"Feature","id":860546,"geometry":{"type":"Point","coordinates":[-119.03460769999998,33.486568799999986]},"properties":{"OBJECTID":860546,"OBJL":153,"EXPSOU":null,"NATSUR":null,"NATQUA":null,"OBJNAM":null,"QUASOU":"2","SOUACC":null,"TECSOU":null,"VALSOU":null,"VERDAT":null,"WATLEV":4,"INFORM":null,"SCAMIN":null,"SORDAT":"19900811","SORIND":"US,US,graph,Chart 18756","DSNM":"US5CA1LC.000","enc_service":"enc_harbour","enc_layer":"Underwater_Awash_Rock_point","enc_layer_id":34}},{"type":"Feature","id":860558,"geometry":{"type":"Point","coordinates":[-119.05003549999998,33.46311170000001]},"properties":{"OBJECTID":860558,"OBJL":153,"EXPSOU":null,"NATSUR":null,"NATQUA":null,"OBJNAM":null,"QUASOU":"2","SOUACC":null,"TECSOU":null,"VALSOU":null,"VERDAT":null,"WATLEV":3,"INFORM":null,"SCAMIN":null,"SORDAT":"19900811","SORIND":"US,US,graph,Chart 18756","DSNM":"US5CA1LC.000","enc_service":"enc_harbour","enc_layer":"Underwater_Awash_Rock_point","enc_layer_id":34}},{"type":"Feature","id":860537,"geometry":{"type":"Point","coordinates":[-119.04811849999999,33.48371259999999]},"properties":{"OBJECTID":860537,"OBJL":153,"EXPSOU":null,"NATSUR":null,"NATQUA":null,"OBJNAM":null,"QUASOU":"2","SOUACC":null,"TECSOU":null,"VALSOU":null,"VERDAT":null,"WATLEV":4,"INFORM":null,"SCAMIN":null,"SORDAT":"19900811","SORIND":"US,US,graph,Chart 18756","DSNM":"US5CA1LC.000","enc_service":"enc_harbour","enc_layer":"Underwater_Awash_Rock_point","enc_layer_id":34}},{"type":"Feature","id":860526,"geometry":{"type":"Point","coordinates":[-119.0477204,33.48169789999997]},"properties":{"OBJECTID":860526,"OBJL":153,"EXPSOU":null,"NATSUR":null,"NATQUA":null,"OBJNAM":null,"QUASOU":"2","SOUACC":null,"TECSOU":null,"VALSOU":null,"VERDAT":null,"WATLEV":4,"INFORM":null,"SCAMIN":null,"SORDAT":"19900811","SORIND":"US,US,graph,Chart 18756","DSNM":"US5CA1LC.000","enc_service":"enc_harbour","enc_layer":"Underwater_Awash_Rock_point","enc_layer_id":34}},{"type":"Feature","id":860551,"geometry":{"type":"Point","coordinates":[-119.04752409999998,33.48440340000002]},"properties":{"OBJECTID":860551,"OBJL":153,"EXPSOU":null,"NATSUR":null,"NATQUA":null,"OBJNAM":null,"QUASOU":"2","SOUACC":null,"TECSOU":null,"VALSOU":null,"VERDAT":null,"WATLEV":4,"INFORM":null,"SCAMIN":null,"SORDAT":"19900811","SORIND":"US,US,graph,Chart 18756","DSNM":"US5CA1LC.000","enc_service":"enc_harbour","enc_layer":"Underwater_Awash_Rock_point","enc_layer_id":34}},{"type":"Feature","id":860548,"geometry":{"type":"Point","coordinates":[-119.04494929999998,33.48280440000002]},"properties":{"OBJECTID":860548,"OBJL":153,"EXPSOU":null,"NATSUR":null,"NATQUA":null,"OBJNAM":null,"QUASOU":"2","SOUACC":null,"TECSOU":null,"VALSOU":null,"VERDAT":null,"WATLEV":4,"INFORM":null,"SCAMIN":null,"SORDAT":"19900811","SORIND":"US,US,graph,Chart 18756","DSNM":"US5CA1LC.000","enc_service":"enc_harbour","enc_layer":"Underwater_Awash_Rock_point","enc_layer_id":34}},{"type":"Feature","id":860541,"geometry":{"type":"Point","coordinates":[-119.04067529999998,33.484099300000025]},"properties":{"OBJECTID":860541,"OBJL":153,"EXPSOU":null,"NATSUR":null,"NATQUA":null,"OBJNAM":null,"QUASOU":"2","SOUACC":null,"TECSOU":null,"VALSOU":null,"VERDAT":null,"WATLEV":4,"INFORM":null,"SCAMIN":null,"SORDAT":"19900811","SORIND":"US,US,graph,Chart 18756","DSNM":"US5CA1LC.000","enc_service":"enc_harbour","enc_layer":"Underwater_Awash_Rock_point","enc_layer_id":34}},{"type":"Feature","id":860566,"geometry":{"type":"Point","coordinates":[-119.03450629999998,33.465279899999985]},"properties":{"OBJECTID":860566,"OBJL":153,"EXPSOU":2,"NATSUR":null,"NATQUA":null,"OBJNAM":null,"QUASOU":"6","SOUACC":null,"TECSOU":"12","VALSOU":-0.3,"VERDAT":null,"WATLEV":4,"INFORM":null,"SCAMIN":null,"SORDAT":"20181025","SORIND":"US,US,graph,H-13201","DSNM":"US5CA1LC.000","enc_service":"enc_harbour","enc_layer":"Underwater_Awash_Rock_point","enc_layer_id":34}},{"type":"Feature","id":860559,"geometry":{"type":"Point","coordinates":[-119.04991539999997,33.463259900000025]},"properties":{"OBJECTID":860559,"OBJL":153,"EXPSOU":null,"NATSUR":null,"NATQUA":null,"OBJNAM":null,"QUASOU":"2","SOUACC":null,"TECSOU":null,"VALSOU":null,"VERDAT":null,"WATLEV":3,"INFORM":null,"SCAMIN":null,"SORDAT":"19900811","SORIND":"US,US,graph,Chart 18756","DSNM":"US5CA1LC.000","enc_service":"enc_harbour","enc_layer":"Underwater_Awash_Rock_point","enc_layer_id":34}},{"type":"Feature","id":860530,"geometry":{"type":"Point","coordinates":[-119.04838940000002,33.482745799999975]},"properties":{"OBJECTID":860530,"OBJL":153,"EXPSOU":null,"NATSUR":null,"NATQUA":null,"OBJNAM":null,"QUASOU":"2","SOUACC":null,"TECSOU":null,"VALSOU":null,"VERDAT":null,"WATLEV":4,"INFORM":null,"SCAMIN":null,"SORDAT":"19900811","SORIND":"US,US,graph,Chart 18756","DSNM":"US5CA1LC.000","enc_service":"enc_harbour","enc_layer":"Underwater_Awash_Rock_point","enc_layer_id":34}},{"type":"Feature","id":860563,"geometry":{"type":"Point","coordinates":[-119.04795089999999,33.48026140000002]},"properties":{"OBJECTID":860563,"OBJL":153,"EXPSOU":null,"NATSUR":null,"NATQUA":null,"OBJNAM":null,"QUASOU":"2","SOUACC":null,"TECSOU":null,"VALSOU":null,"VERDAT":null,"WATLEV":3,"INFORM":null,"SCAMIN":null,"SORDAT":"19900811","SORIND":"US,US,graph,Chart 18756","DSNM":"US5CA1LC.000","enc_service":"enc_harbour","enc_layer":"Underwater_Awash_Rock_point","enc_layer_id":34}},{"type":"Feature","id":860518,"geometry":{"type":"Point","coordinates":[-119.0413067,33.46694910000002]},"properties":{"OBJECTID":860518,"OBJL":153,"EXPSOU":null,"NATSUR":null,"NATQUA":null,"OBJNAM":null,"QUASOU":"2","SOUACC":null,"TECSOU":null,"VALSOU":null,"VERDAT":null,"WATLEV":3,"INFORM":null,"SCAMIN":null,"SORDAT":"19900811","SORIND":"US,US,graph,Chart 18756","DSNM":"US5CA1LC.000","enc_service":"enc_harbour","enc_layer":"Underwater_Awash_Rock_point","enc_layer_id":34}},{"type":"Feature","id":860520,"geometry":{"type":"Point","coordinates":[-119.04124949999999,33.46625979999999]},"properties":{"OBJECTID":860520,"OBJL":153,"EXPSOU":null,"NATSUR":null,"NATQUA":null,"OBJNAM":null,"QUASOU":"2","SOUACC":null,"TECSOU":null,"VALSOU":null,"VERDAT":null,"WATLEV":3,"INFORM":null,"SCAMIN":null,"SORDAT":"19900811","SORIND":"US,US,graph,Chart 18756","DSNM":"US5CA1LC.000","enc_service":"enc_harbour","enc_layer":"Underwater_Awash_Rock_point","enc_layer_id":34}},{"type":"Feature","id":860522,"geometry":{"type":"Point","coordinates":[-119.03952090000001,33.466419299999984]},"properties":{"OBJECTID":860522,"OBJL":153,"EXPSOU":null,"NATSUR":null,"NATQUA":null,"OBJNAM":null,"QUASOU":"2","SOUACC":null,"TECSOU":null,"VALSOU":null,"VERDAT":null,"WATLEV":4,"INFORM":null,"SCAMIN":null,"SORDAT":"19900811","SORIND":"US,US,graph,Chart 18756","DSNM":"US5CA1LC.000","enc_service":"enc_harbour","enc_layer":"Underwater_Awash_Rock_point","enc_layer_id":34}},{"type":"Feature","id":860524,"geometry":{"type":"Point","coordinates":[-119.037394,33.465144699999996]},"properties":{"OBJECTID":860524,"OBJL":153,"EXPSOU":2,"NATSUR":null,"NATQUA":null,"OBJNAM":null,"QUASOU":"6","SOUACC":null,"TECSOU":"12","VALSOU":-0.3,"VERDAT":null,"WATLEV":4,"INFORM":null,"SCAMIN":null,"SORDAT":"20181025","SORIND":"US,US,graph,H-13201","DSNM":"US5CA1LC.000","enc_service":"enc_harbour","enc_layer":"Underwater_Awash_Rock_point","enc_layer_id":34}},{"type":"Feature","id":860534,"geometry":{"type":"Point","coordinates":[-119.04654340000002,33.4843482]},"properties":{"OBJECTID":860534,"OBJL":153,"EXPSOU":null,"NATSUR":null,"NATQUA":null,"OBJNAM":null,"QUASOU":"2","SOUACC":null,"TECSOU":null,"VALSOU":null,"VERDAT":null,"WATLEV":4,"INFORM":null,"SCAMIN":null,"SORDAT":"19900811","SORIND":"US,US,graph,Chart 18756","DSNM":"US5CA1LC.000","enc_service":"enc_harbour","enc_layer":"Underwater_Awash_Rock_point","enc_layer_id":34}},{"type":"Feature","id":860531,"geometry":{"type":"Point","coordinates":[-119.04829539999997,33.48320319999999]},"properties":{"OBJECTID":860531,"OBJL":153,"EXPSOU":null,"NATSUR":null,"NATQUA":null,"OBJNAM":null,"QUASOU":"2","SOUACC":null,"TECSOU":null,"VALSOU":null,"VERDAT":null,"WATLEV":4,"INFORM":null,"SCAMIN":null,"SORDAT":"19900811","SORIND":"US,US,graph,Chart 18756","DSNM":"US5CA1LC.000","enc_service":"enc_harbour","enc_layer":"Underwater_Awash_Rock_point","enc_layer_id":34}},{"type":"Feature","id":860515,"geometry":{"type":"Point","coordinates":[-119.04115730000001,33.4698861]},"properties":{"OBJECTID":860515,"OBJL":153,"EXPSOU":null,"NATSUR":null,"NATQUA":null,"OBJNAM":null,"QUASOU":"2","SOUACC":null,"TECSOU":null,"VALSOU":null,"VERDAT":null,"WATLEV":4,"INFORM":null,"SCAMIN":null,"SORDAT":"19900811","SORIND":"US,US,graph,Chart 18756","DSNM":"US5CA1LC.000","enc_service":"enc_harbour","enc_layer":"Underwater_Awash_Rock_point","enc_layer_id":34}},{"type":"Feature","id":860521,"geometry":{"type":"Point","coordinates":[-119.03972270000003,33.46657570000002]},"properties":{"OBJECTID":860521,"OBJL":153,"EXPSOU":null,"NATSUR":null,"NATQUA":null,"OBJNAM":null,"QUASOU":"2","SOUACC":null,"TECSOU":null,"VALSOU":null,"VERDAT":null,"WATLEV":4,"INFORM":null,"SCAMIN":null,"SORDAT":"19900811","SORIND":"US,US,graph,Chart 18756","DSNM":"US5CA1LC.000","enc_service":"enc_harbour","enc_layer":"Underwater_Awash_Rock_point","enc_layer_id":34}},{"type":"Feature","id":860553,"geometry":{"type":"Point","coordinates":[-119.03713920000001,33.465134999999975]},"properties":{"OBJECTID":860553,"OBJL":153,"EXPSOU":2,"NATSUR":null,"NATQUA":null,"OBJNAM":null,"QUASOU":"6","SOUACC":null,"TECSOU":"12","VALSOU":-0.3,"VERDAT":null,"WATLEV":4,"INFORM":null,"SCAMIN":null,"SORDAT":"20181025","SORIND":"US,US,graph,H-13201","DSNM":"US5CA1LC.000","enc_service":"enc_harbour","enc_layer":"Underwater_Awash_Rock_point","enc_layer_id":34}},{"type":"Feature","id":860542,"geometry":{"type":"Point","coordinates":[-119.04411599999997,33.4826501]},"properties":{"OBJECTID":860542,"OBJL":153,"EXPSOU":null,"NATSUR":null,"NATQUA":null,"OBJNAM":null,"QUASOU":"2","SOUACC":null,"TECSOU":null,"VALSOU":null,"VERDAT":null,"WATLEV":4,"INFORM":null,"SCAMIN":null,"SORDAT":"19900811","SORIND":"US,US,graph,Chart 18756","DSNM":"US5CA1LC.000","enc_service":"enc_harbour","enc_layer":"Underwater_Awash_Rock_point","enc_layer_id":34}},{"type":"Feature","id":860547,"geometry":{"type":"Point","coordinates":[-119.04397139999998,33.47883089999999]},"properties":{"OBJECTID":860547,"OBJL":153,"EXPSOU":null,"NATSUR":null,"NATQUA":null,"OBJNAM":null,"QUASOU":"2","SOUACC":null,"TECSOU":null,"VALSOU":null,"VERDAT":null,"WATLEV":4,"INFORM":null,"SCAMIN":null,"SORDAT":"19900811","SORIND":"US,US,graph,Chart 18756","DSNM":"US5CA1LC.000","enc_service":"enc_harbour","enc_layer":"Underwater_Awash_Rock_point","enc_layer_id":34}},{"type":"Feature","id":860555,"geometry":{"type":"Point","coordinates":[-119.04279380000003,33.47657229999999]},"properties":{"OBJECTID":860555,"OBJL":153,"EXPSOU":2,"NATSUR":null,"NATQUA":null,"OBJNAM":null,"QUASOU":"6","SOUACC":null,"TECSOU":"12","VALSOU":-0.6,"VERDAT":null,"WATLEV":4,"INFORM":null,"SCAMIN":null,"SORDAT":"20181025","SORIND":"US,US,graph,H-13201","DSNM":"US5CA1LC.000","enc_service":"enc_harbour","enc_layer":"Underwater_Awash_Rock_point","enc_layer_id":34}},{"type":"Feature","id":860509,"geometry":{"type":"Point","coordinates":[-119.0345446,33.486244699999986]},"properties":{"OBJECTID":860509,"OBJL":153,"EXPSOU":null,"NATSUR":null,"NATQUA":null,"OBJNAM":null,"QUASOU":"2","SOUACC":null,"TECSOU":null,"VALSOU":null,"VERDAT":null,"WATLEV":3,"INFORM":null,"SCAMIN":null,"SORDAT":"19900811","SORIND":"US,US,graph,Chart 18756","DSNM":"US5CA1LC.000","enc_service":"enc_harbour","enc_layer":"Underwater_Awash_Rock_point","enc_layer_id":34}},{"type":"Feature","id":860561,"geometry":{"type":"Point","coordinates":[-119.04403280000002,33.47328299999998]},"properties":{"OBJECTID":860561,"OBJL":153,"EXPSOU":2,"NATSUR":null,"NATQUA":null,"OBJNAM":null,"QUASOU":"6","SOUACC":null,"TECSOU":"12","VALSOU":-0.6,"VERDAT":null,"WATLEV":4,"INFORM":null,"SCAMIN":null,"SORDAT":"20181025","SORIND":"US,US,graph,H-13201","DSNM":"US5CA1LC.000","enc_service":"enc_harbour","enc_layer":"Underwater_Awash_Rock_point","enc_layer_id":34}},{"type":"Feature","id":860527,"geometry":{"type":"Point","coordinates":[-119.04198179999997,33.48311410000002]},"properties":{"OBJECTID":860527,"OBJL":153,"EXPSOU":null,"NATSUR":null,"NATQUA":null,"OBJNAM":null,"QUASOU":"2","SOUACC":null,"TECSOU":null,"VALSOU":null,"VERDAT":null,"WATLEV":4,"INFORM":null,"SCAMIN":null,"SORDAT":"19900811","SORIND":"US,US,graph,Chart 18756","DSNM":"US5CA1LC.000","enc_service":"enc_harbour","enc_layer":"Underwater_Awash_Rock_point","enc_layer_id":34}},{"type":"Feature","id":860536,"geometry":{"type":"Point","coordinates":[-119.04134290000002,33.484239100000025]},"properties":{"OBJECTID":860536,"OBJL":153,"EXPSOU":null,"NATSUR":null,"NATQUA":null,"OBJNAM":null,"QUASOU":"2","SOUACC":null,"TECSOU":null,"VALSOU":null,"VERDAT":null,"WATLEV":4,"INFORM":null,"SCAMIN":null,"SORDAT":"19900811","SORIND":"US,US,graph,Chart 18756","DSNM":"US5CA1LC.000","enc_service":"enc_harbour","enc_layer":"Underwater_Awash_Rock_point","enc_layer_id":34}},{"type":"Feature","id":860540,"geometry":{"type":"Point","coordinates":[-119.04035979999998,33.48372060000003]},"properties":{"OBJECTID":860540,"OBJL":153,"EXPSOU":null,"NATSUR":null,"NATQUA":null,"OBJNAM":null,"QUASOU":"2","SOUACC":null,"TECSOU":null,"VALSOU":null,"VERDAT":null,"WATLEV":4,"INFORM":null,"SCAMIN":null,"SORDAT":"19900811","SORIND":"US,US,graph,Chart 18756","DSNM":"US5CA1LC.000","enc_service":"enc_harbour","enc_layer":"Underwater_Awash_Rock_point","enc_layer_id":34}},{"type":"Feature","id":860562,"geometry":{"type":"Point","coordinates":[-119.03029129999999,33.468257300000005]},"properties":{"OBJECTID":860562,"OBJL":153,"EXPSOU":2,"NATSUR":null,"NATQUA":null,"OBJNAM":null,"QUASOU":"6","SOUACC":null,"TECSOU":"12","VALSOU":-0.6,"VERDAT":null,"WATLEV":4,"INFORM":null,"SCAMIN":null,"SORDAT":"20181025","SORIND":"US,US,graph,H-13201","DSNM":"US5CA1LC.000","enc_service":"enc_harbour","enc_layer":"Underwater_Awash_Rock_point","enc_layer_id":34}},{"type":"Feature","id":860528,"geometry":{"type":"Point","coordinates":[-119.0615072,33.48170529999999]},"properties":{"OBJECTID":860528,"OBJL":153,"EXPSOU":null,"NATSUR":null,"NATQUA":null,"OBJNAM":null,"QUASOU":"2","SOUACC":null,"TECSOU":null,"VALSOU":null,"VERDAT":null,"WATLEV":4,"INFORM":"Breaks in moderate swell","SCAMIN":null,"SORDAT":"19900811","SORIND":"US,US,graph,Chart 18756","DSNM":"US5CA1LC.000","enc_service":"enc_harbour","enc_layer":"Underwater_Awash_Rock_point","enc_layer_id":34}},{"type":"Feature","id":860529,"geometry":{"type":"Point","coordinates":[-119.0500902,33.463756699999976]},"properties":{"OBJECTID":860529,"OBJL":153,"EXPSOU":null,"NATSUR":null,"NATQUA":null,"OBJNAM":null,"QUASOU":"2","SOUACC":null,"TECSOU":null,"VALSOU":null,"VERDAT":null,"WATLEV":3,"INFORM":null,"SCAMIN":null,"SORDAT":"19900811","SORIND":"US,US,graph,Chart 18756","DSNM":"US5CA1LC.000","enc_service":"enc_harbour","enc_layer":"Underwater_Awash_Rock_point","enc_layer_id":34}},{"type":"Feature","id":860549,"geometry":{"type":"Point","coordinates":[-119.0491912,33.48040070000002]},"properties":{"OBJECTID":860549,"OBJL":153,"EXPSOU":null,"NATSUR":null,"NATQUA":null,"OBJNAM":null,"QUASOU":"2","SOUACC":null,"TECSOU":null,"VALSOU":null,"VERDAT":null,"WATLEV":4,"INFORM":null,"SCAMIN":null,"SORDAT":"19900811","SORIND":"US,US,graph,Chart 18756","DSNM":"US5CA1LC.000","enc_service":"enc_harbour","enc_layer":"Underwater_Awash_Rock_point","enc_layer_id":34}},{"type":"Feature","id":860564,"geometry":{"type":"Point","coordinates":[-119.04772689999999,33.48008599999997]},"properties":{"OBJECTID":860564,"OBJL":153,"EXPSOU":null,"NATSUR":null,"NATQUA":null,"OBJNAM":null,"QUASOU":"2","SOUACC":null,"TECSOU":null,"VALSOU":null,"VERDAT":null,"WATLEV":3,"INFORM":null,"SCAMIN":null,"SORDAT":"19900811","SORIND":"US,US,graph,Chart 18756","DSNM":"US5CA1LC.000","enc_service":"enc_harbour","enc_layer":"Underwater_Awash_Rock_point","enc_layer_id":34}},{"type":"Feature","id":860517,"geometry":{"type":"Point","coordinates":[-119.0423376,33.47031370000002]},"properties":{"OBJECTID":860517,"OBJL":153,"EXPSOU":null,"NATSUR":null,"NATQUA":null,"OBJNAM":null,"QUASOU":"2","SOUACC":null,"TECSOU":null,"VALSOU":null,"VERDAT":null,"WATLEV":4,"INFORM":null,"SCAMIN":null,"SORDAT":"19900811","SORIND":"US,US,graph,Chart 18756","DSNM":"US5CA1LC.000","enc_service":"enc_harbour","enc_layer":"Underwater_Awash_Rock_point","enc_layer_id":34}},{"type":"Feature","id":860516,"geometry":{"type":"Point","coordinates":[-119.04145419999998,33.47027220000001]},"properties":{"OBJECTID":860516,"OBJL":153,"EXPSOU":null,"NATSUR":null,"NATQUA":null,"OBJNAM":null,"QUASOU":"2","SOUACC":null,"TECSOU":null,"VALSOU":null,"VERDAT":null,"WATLEV":4,"INFORM":null,"SCAMIN":null,"SORDAT":"19900811","SORIND":"US,US,graph,Chart 18756","DSNM":"US5CA1LC.000","enc_service":"enc_harbour","enc_layer":"Underwater_Awash_Rock_point","enc_layer_id":34}},{"type":"Feature","id":860514,"geometry":{"type":"Point","coordinates":[-119.04083700000001,33.46885179999998]},"properties":{"OBJECTID":860514,"OBJL":153,"EXPSOU":2,"NATSUR":null,"NATQUA":null,"OBJNAM":null,"QUASOU":"6","SOUACC":null,"TECSOU":"12","VALSOU":-0.2,"VERDAT":null,"WATLEV":4,"INFORM":null,"SCAMIN":null,"SORDAT":"20181025","SORIND":"US,US,graph,H-13201","DSNM":"US5CA1LC.000","enc_service":"enc_harbour","enc_layer":"Underwater_Awash_Rock_point","enc_layer_id":34}},{"type":"Feature","id":860523,"geometry":{"type":"Point","coordinates":[-119.03821260000001,33.46549249999998]},"properties":{"OBJECTID":860523,"OBJL":153,"EXPSOU":null,"NATSUR":null,"NATQUA":null,"OBJNAM":null,"QUASOU":"2","SOUACC":null,"TECSOU":null,"VALSOU":null,"VERDAT":null,"WATLEV":4,"INFORM":null,"SCAMIN":null,"SORDAT":"19900811","SORIND":"US,US,graph,Chart 18756","DSNM":"US5CA1LC.000","enc_service":"enc_harbour","enc_layer":"Underwater_Awash_Rock_point","enc_layer_id":34}},{"type":"Feature","id":860510,"geometry":{"type":"Point","coordinates":[-119.0352284,33.46572709999998]},"properties":{"OBJECTID":860510,"OBJL":153,"EXPSOU":null,"NATSUR":null,"NATQUA":null,"OBJNAM":null,"QUASOU":"2","SOUACC":null,"TECSOU":null,"VALSOU":null,"VERDAT":null,"WATLEV":4,"INFORM":null,"SCAMIN":null,"SORDAT":"19900811","SORIND":"US,US,graph,Chart 18756","DSNM":"US5CA1LC.000","enc_service":"enc_harbour","enc_layer":"Underwater_Awash_Rock_point","enc_layer_id":34}},{"type":"Feature","id":860525,"geometry":{"type":"Point","coordinates":[-119.04535859999999,33.48394969999998]},"properties":{"OBJECTID":860525,"OBJL":153,"EXPSOU":null,"NATSUR":null,"NATQUA":null,"OBJNAM":null,"QUASOU":"2","SOUACC":null,"TECSOU":null,"VALSOU":null,"VERDAT":null,"WATLEV":4,"INFORM":null,"SCAMIN":null,"SORDAT":"19900811","SORIND":"US,US,graph,Chart 18756","DSNM":"US5CA1LC.000","enc_service":"enc_harbour","enc_layer":"Underwater_Awash_Rock_point","enc_layer_id":34}},{"type":"Feature","id":860539,"geometry":{"type":"Point","coordinates":[-119.03743370000001,33.484301200000004]},"properties":{"OBJECTID":860539,"OBJL":153,"EXPSOU":null,"NATSUR":null,"NATQUA":null,"OBJNAM":null,"QUASOU":"2","SOUACC":null,"TECSOU":null,"VALSOU":null,"VERDAT":null,"WATLEV":4,"INFORM":null,"SCAMIN":null,"SORDAT":"19900811","SORIND":"US,US,graph,Chart 18756","DSNM":"US5CA1LC.000","enc_service":"enc_harbour","enc_layer":"Underwater_Awash_Rock_point","enc_layer_id":34}},{"type":"Feature","id":860512,"geometry":{"type":"Point","coordinates":[-119.0366333,33.4836148]},"properties":{"OBJECTID":860512,"OBJL":153,"EXPSOU":2,"NATSUR":null,"NATQUA":null,"OBJNAM":null,"QUASOU":"6","SOUACC":null,"TECSOU":"12","VALSOU":-1,"VERDAT":null,"WATLEV":4,"INFORM":null,"SCAMIN":null,"SORDAT":"20181025","SORIND":"US,US,graph,H-13201","DSNM":"US5CA1LC.000","enc_service":"enc_harbour","enc_layer":"Underwater_Awash_Rock_point","enc_layer_id":34}},{"type":"Feature","id":860513,"geometry":{"type":"Point","coordinates":[-119.03507359999998,33.486118999999974]},"properties":{"OBJECTID":860513,"OBJL":153,"EXPSOU":null,"NATSUR":null,"NATQUA":null,"OBJNAM":null,"QUASOU":"2","SOUACC":null,"TECSOU":null,"VALSOU":null,"VERDAT":null,"WATLEV":3,"INFORM":null,"SCAMIN":null,"SORDAT":"19900811","SORIND":"US,US,graph,Chart 18756","DSNM":"US5CA1LC.000","enc_service":"enc_harbour","enc_layer":"Underwater_Awash_Rock_point","enc_layer_id":34}},{"type":"Feature","id":860568,"geometry":{"type":"Point","coordinates":[-119.03042340000002,33.469401800000014]},"properties":{"OBJECTID":860568,"OBJL":153,"EXPSOU":2,"NATSUR":null,"NATQUA":null,"OBJNAM":null,"QUASOU":"6","SOUACC":null,"TECSOU":"12","VALSOU":-0.9,"VERDAT":null,"WATLEV":4,"INFORM":null,"SCAMIN":null,"SORDAT":"20181025","SORIND":"US,US,graph,H-13201","DSNM":"US5CA1LC.000","enc_service":"enc_harbour","enc_layer":"Underwater_Awash_Rock_point","enc_layer_id":34}},{"type":"Feature","id":860569,"geometry":{"type":"Point","coordinates":[-119.03032289999999,33.46933180000002]},"properties":{"OBJECTID":860569,"OBJL":153,"EXPSOU":2,"NATSUR":null,"NATQUA":null,"OBJNAM":null,"QUASOU":"6","SOUACC":null,"TECSOU":"12","VALSOU":-0.9,"VERDAT":null,"WATLEV":4,"INFORM":null,"SCAMIN":null,"SORDAT":"20181025","SORIND":"US,US,graph,H-13201","DSNM":"US5CA1LC.000","enc_service":"enc_harbour","enc_layer":"Underwater_Awash_Rock_point","enc_layer_id":34}},{"type":"Feature","id":860560,"geometry":{"type":"Point","coordinates":[-119.038727,33.465776000000005]},"properties":{"OBJECTID":860560,"OBJL":153,"EXPSOU":null,"NATSUR":null,"NATQUA":null,"OBJNAM":null,"QUASOU":"2","SOUACC":null,"TECSOU":null,"VALSOU":null,"VERDAT":null,"WATLEV":4,"INFORM":null,"SCAMIN":null,"SORDAT":"19900811","SORIND":"US,US,graph,Chart 18756","DSNM":"US5CA1LC.000","enc_service":"enc_harbour","enc_layer":"Underwater_Awash_Rock_point","enc_layer_id":34}},{"type":"Feature","id":860554,"geometry":{"type":"Point","coordinates":[-119.03859010000002,33.465456399999994]},"properties":{"OBJECTID":860554,"OBJL":153,"EXPSOU":null,"NATSUR":null,"NATQUA":null,"OBJNAM":null,"QUASOU":"2","SOUACC":null,"TECSOU":null,"VALSOU":null,"VERDAT":null,"WATLEV":4,"INFORM":null,"SCAMIN":null,"SORDAT":"19900811","SORIND":"US,US,graph,Chart 18756","DSNM":"US5CA1LC.000","enc_service":"enc_harbour","enc_layer":"Underwater_Awash_Rock_point","enc_layer_id":34}},{"type":"Feature","id":860533,"geometry":{"type":"Point","coordinates":[-119.04366190000002,33.473265500000025]},"properties":{"OBJECTID":860533,"OBJL":153,"EXPSOU":2,"NATSUR":null,"NATQUA":null,"OBJNAM":null,"QUASOU":"6","SOUACC":null,"TECSOU":"12","VALSOU":-0.5,"VERDAT":null,"WATLEV":4,"INFORM":null,"SCAMIN":null,"SORDAT":"20181025","SORIND":"US,US,graph,H-13201","DSNM":"US5CA1LC.000","enc_service":"enc_harbour","enc_layer":"Underwater_Awash_Rock_point","enc_layer_id":34}},{"type":"Feature","id":135459,"geometry":{"type":"Polygon","coordinates":[[[-119.04350470000003,33.47206139999997],[-119.0436666,33.4724458],[-119.04380149999997,33.47255130000002],[-119.04404440000002,33.47265679999998],[-119.04438620000002,33.47267190000002],[-119.04454809999999,33.47254370000002],[-119.04465599999997,33.47237799999999],[-119.04476390000002,33.47213679999999],[-119.04476390000002,33.47193329999999],[-119.04462899999999,33.47167710000002],[-119.04442210000002,33.471473600000024],[-119.04421530000002,33.4713304],[-119.0440084,33.47124739999998],[-119.04378350000002,33.47122489999998],[-119.0435587,33.47135300000002],[-119.0434687,33.47159420000003],[-119.04350470000003,33.47206139999997]],[[-119.04398259999999,33.47134940000001],[-119.04406899999998,33.471382800000015],[-119.0441118,33.471422700000005],[-119.0441366,33.471459400000015],[-119.04412070000001,33.47150850000003],[-119.04407500000002,33.471566800000005],[-119.0440074,33.471602700000005],[-119.04394459999997,33.47162800000001],[-119.04388219999998,33.47162759999998],[-119.0438226,33.47162259999999],[-119.04372319999999,33.47155679999997],[-119.04370399999999,33.4715056],[-119.0437063,33.47145519999998],[-119.04372319999999,33.47141019999998],[-119.04381260000002,33.47135939999998],[-119.0438653,33.47135109999999],[-119.04398259999999,33.47134940000001]]]},"properties":{"OBJECTID":135459,"OBJL":86,"CATOBS":"foul area","CONDTN":null,"EXPSOU":null,"HEIGHT":null,"NATCON":null,"NATQUA":null,"OBJNAM":null,"PRODCT":null,"QUASOU":"2","SOUACC":null,"TECSOU":null,"VALSOU":null,"VERACC":null,"VERDAT":null,"VERLEN":null,"WATLEV":3,"NATSUR":"rock","INFORM":null,"SCAMIN":null,"SORDAT":"20181025","SORIND":"US,US,graph,H-13201","DSNM":"US5CA1LC.000","SHAPE.AREA":1.3225021650000002e-06,"SHAPE.LEN":0.00546577893610815,"enc_service":"enc_harbour","enc_layer":"Obstruction_area","enc_layer_id":156}},{"type":"Feature","id":135458,"geometry":{"type":"Polygon","coordinates":[[[-119.04398259999999,33.47134940000001],[-119.0438653,33.47135109999999],[-119.04381260000002,33.47135939999998],[-119.04372319999999,33.47141019999998],[-119.0437063,33.47145519999998],[-119.04370399999999,33.4715056],[-119.04372319999999,33.47155679999997],[-119.0438226,33.47162259999999],[-119.04388219999998,33.47162759999998],[-119.04394459999997,33.47162800000001],[-119.0440074,33.471602700000005],[-119.04407500000002,33.471566800000005],[-119.04412070000001,33.47150850000003],[-119.0441366,33.471459400000015],[-119.0441118,33.471422700000005],[-119.04406899999998,33.471382800000015],[-119.04398259999999,33.47134940000001]]]},"properties":{"OBJECTID":135458,"OBJL":86,"CATOBS":"foul area","CONDTN":null,"EXPSOU":null,"HEIGHT":null,"NATCON":null,"NATQUA":null,"OBJNAM":null,"PRODCT":null,"QUASOU":"2","SOUACC":null,"TECSOU":null,"VALSOU":null,"VERACC":null,"VERDAT":null,"VERLEN":null,"WATLEV":4,"NATSUR":"rock","INFORM":null,"SCAMIN":null,"SORDAT":"20181025","SORIND":"US,US,graph,H-13201","DSNM":"US5CA1LC.000","SHAPE.AREA":9.325294e-08,"SHAPE.LEN":0.00113347784000303,"enc_service":"enc_harbour","enc_layer":"Obstruction_area","enc_layer_id":156}},{"type":"Feature","id":19741816,"geometry":{"type":"Point","coordinates":[-119.04823629999919,33.48371380000026]},"properties":{"OBJL":153,"EXPSOU":null,"NATSUR":null,"NATQUA":null,"OBJNAM":null,"QUASOU":"2","SOUACC":null,"TECSOU":null,"VALSOU":null,"VERDAT":null,"WATLEV":4,"INFORM":null,"SCAMIN":null,"SORDAT":"19900811","SORIND":"US,US,graph,Chart 18756","DSNM":"US4CA1ER.000","APPROACH.UWTROC.FID":19741816,"enc_service":"enc_approach","enc_layer":"Underwater_Awash_Rock_point","enc_layer_id":37}},{"type":"Feature","id":19741822,"geometry":{"type":"Point","coordinates":[-119.0303229000001,33.46933180000087]},"properties":{"OBJL":153,"EXPSOU":2,"NATSUR":null,"NATQUA":null,"OBJNAM":null,"QUASOU":"6","SOUACC":null,"TECSOU":"12","VALSOU":-0.9,"VERDAT":null,"WATLEV":4,"INFORM":null,"SCAMIN":null,"SORDAT":"20181025","SORIND":"US,US,graph,H-13201","DSNM":"US4CA1ER.000","APPROACH.UWTROC.FID":19741822,"enc_service":"enc_approach","enc_layer":"Underwater_Awash_Rock_point","enc_layer_id":37}},{"type":"Feature","id":19741830,"geometry":{"type":"Point","coordinates":[-119.04644240000016,33.48463280000033]},"properties":{"OBJL":153,"EXPSOU":null,"NATSUR":null,"NATQUA":null,"OBJNAM":null,"QUASOU":"2","SOUACC":null,"TECSOU":null,"VALSOU":null,"VERDAT":null,"WATLEV":4,"INFORM":null,"SCAMIN":null,"SORDAT":"19900811","SORIND":"US,US,graph,Chart 18756","DSNM":"US4CA1ER.000","APPROACH.UWTROC.FID":19741830,"enc_service":"enc_approach","enc_layer":"Underwater_Awash_Rock_point","enc_layer_id":37}},{"type":"Feature","id":19741834,"geometry":{"type":"Point","coordinates":[-119.04080029999932,33.466770400000314]},"properties":{"OBJL":153,"EXPSOU":null,"NATSUR":null,"NATQUA":null,"OBJNAM":null,"QUASOU":"2","SOUACC":null,"TECSOU":null,"VALSOU":null,"VERDAT":null,"WATLEV":3,"INFORM":null,"SCAMIN":null,"SORDAT":"19900811","SORIND":"US,US,graph,Chart 18756","DSNM":"US4CA1ER.000","APPROACH.UWTROC.FID":19741834,"enc_service":"enc_approach","enc_layer":"Underwater_Awash_Rock_point","enc_layer_id":37}},{"type":"Feature","id":19741826,"geometry":{"type":"Point","coordinates":[-119.03460769999947,33.486568800000896]},"properties":{"OBJL":153,"EXPSOU":null,"NATSUR":null,"NATQUA":null,"OBJNAM":null,"QUASOU":"2","SOUACC":null,"TECSOU":null,"VALSOU":null,"VERDAT":null,"WATLEV":4,"INFORM":null,"SCAMIN":null,"SORDAT":"19900811","SORIND":"US,US,graph,Chart 18756","DSNM":"US4CA1ER.000","APPROACH.UWTROC.FID":19741826,"enc_service":"enc_approach","enc_layer":"Underwater_Awash_Rock_point","enc_layer_id":37}},{"type":"Feature","id":19741827,"geometry":{"type":"Point","coordinates":[-119.05003550000038,33.46311170000081]},"properties":{"OBJL":153,"EXPSOU":null,"NATSUR":null,"NATQUA":null,"OBJNAM":null,"QUASOU":"2","SOUACC":null,"TECSOU":null,"VALSOU":null,"VERDAT":null,"WATLEV":3,"INFORM":null,"SCAMIN":null,"SORDAT":"19900811","SORIND":"US,US,graph,Chart 18756","DSNM":"US4CA1ER.000","APPROACH.UWTROC.FID":19741827,"enc_service":"enc_approach","enc_layer":"Underwater_Awash_Rock_point","enc_layer_id":37}},{"type":"Feature","id":19741831,"geometry":{"type":"Point","coordinates":[-119.04851339999914,33.48079979999966]},"properties":{"OBJL":153,"EXPSOU":null,"NATSUR":null,"NATQUA":null,"OBJNAM":null,"QUASOU":"2","SOUACC":null,"TECSOU":null,"VALSOU":null,"VERDAT":null,"WATLEV":4,"INFORM":null,"SCAMIN":null,"SORDAT":"19900811","SORIND":"US,US,graph,Chart 18756","DSNM":"US4CA1ER.000","APPROACH.UWTROC.FID":19741831,"enc_service":"enc_approach","enc_layer":"Underwater_Awash_Rock_point","enc_layer_id":37}},{"type":"Feature","id":19741820,"geometry":{"type":"Point","coordinates":[-119.0481335000004,33.48177129999931]},"properties":{"OBJL":153,"EXPSOU":null,"NATSUR":null,"NATQUA":null,"OBJNAM":null,"QUASOU":"2","SOUACC":null,"TECSOU":null,"VALSOU":null,"VERDAT":null,"WATLEV":4,"INFORM":null,"SCAMIN":null,"SORDAT":"19900811","SORIND":"US,US,graph,Chart 18756","DSNM":"US4CA1ER.000","APPROACH.UWTROC.FID":19741820,"enc_service":"enc_approach","enc_layer":"Underwater_Awash_Rock_point","enc_layer_id":37}},{"type":"Feature","id":19741824,"geometry":{"type":"Point","coordinates":[-119.05029909999939,33.46388610000031]},"properties":{"OBJL":153,"EXPSOU":null,"NATSUR":null,"NATQUA":null,"OBJNAM":null,"QUASOU":"2","SOUACC":null,"TECSOU":null,"VALSOU":null,"VERDAT":null,"WATLEV":3,"INFORM":null,"SCAMIN":null,"SORDAT":"19900811","SORIND":"US,US,graph,Chart 18756","DSNM":"US4CA1ER.000","APPROACH.UWTROC.FID":19741824,"enc_service":"enc_approach","enc_layer":"Underwater_Awash_Rock_point","enc_layer_id":37}},{"type":"Feature","id":19741829,"geometry":{"type":"Point","coordinates":[-119.04528519999985,33.48414249999951]},"properties":{"OBJL":153,"EXPSOU":null,"NATSUR":null,"NATQUA":null,"OBJNAM":null,"QUASOU":"2","SOUACC":null,"TECSOU":null,"VALSOU":null,"VERDAT":null,"WATLEV":4,"INFORM":null,"SCAMIN":null,"SORDAT":"19900811","SORIND":"US,US,graph,Chart 18756","DSNM":"US4CA1ER.000","APPROACH.UWTROC.FID":19741829,"enc_service":"enc_approach","enc_layer":"Underwater_Awash_Rock_point","enc_layer_id":37}},{"type":"Feature","id":19741833,"geometry":{"type":"Point","coordinates":[-119.04156499999954,33.470128200000545]},"properties":{"OBJL":153,"EXPSOU":null,"NATSUR":null,"NATQUA":null,"OBJNAM":null,"QUASOU":"2","SOUACC":null,"TECSOU":null,"VALSOU":null,"VERDAT":null,"WATLEV":4,"INFORM":null,"SCAMIN":null,"SORDAT":"19900811","SORIND":"US,US,graph,Chart 18756","DSNM":"US4CA1ER.000","APPROACH.UWTROC.FID":19741833,"enc_service":"enc_approach","enc_layer":"Underwater_Awash_Rock_point","enc_layer_id":37}},{"type":"Feature","id":19741819,"geometry":{"type":"Point","coordinates":[-119.03029129999959,33.468257299999095]},"properties":{"OBJL":153,"EXPSOU":2,"NATSUR":null,"NATQUA":null,"OBJNAM":null,"QUASOU":"6","SOUACC":null,"TECSOU":"12","VALSOU":-0.6,"VERDAT":null,"WATLEV":4,"INFORM":null,"SCAMIN":null,"SORDAT":"20181025","SORIND":"US,US,graph,H-13201","DSNM":"US4CA1ER.000","APPROACH.UWTROC.FID":19741819,"enc_service":"enc_approach","enc_layer":"Underwater_Awash_Rock_point","enc_layer_id":37}},{"type":"Feature","id":19741823,"geometry":{"type":"Point","coordinates":[-119.0476251,33.48459619999994]},"properties":{"OBJL":153,"EXPSOU":null,"NATSUR":null,"NATQUA":null,"OBJNAM":null,"QUASOU":"2","SOUACC":null,"TECSOU":null,"VALSOU":null,"VERDAT":null,"WATLEV":4,"INFORM":null,"SCAMIN":null,"SORDAT":"19900811","SORIND":"US,US,graph,Chart 18756","DSNM":"US4CA1ER.000","APPROACH.UWTROC.FID":19741823,"enc_service":"enc_approach","enc_layer":"Underwater_Awash_Rock_point","enc_layer_id":37}},{"type":"Feature","id":19741813,"geometry":{"type":"Point","coordinates":[-119.04688949999945,33.48004209999999]},"properties":{"OBJL":153,"EXPSOU":null,"NATSUR":null,"NATQUA":null,"OBJNAM":null,"QUASOU":"2","SOUACC":null,"TECSOU":null,"VALSOU":null,"VERDAT":null,"WATLEV":4,"INFORM":null,"SCAMIN":null,"SORDAT":"19900811","SORIND":"US,US,graph,Chart 18756","DSNM":"US4CA1ER.000","APPROACH.UWTROC.FID":19741813,"enc_service":"enc_approach","enc_layer":"Underwater_Awash_Rock_point","enc_layer_id":37}},{"type":"Feature","id":19741814,"geometry":{"type":"Point","coordinates":[-119.04419969999981,33.478617900000245]},"properties":{"OBJL":153,"EXPSOU":null,"NATSUR":null,"NATQUA":null,"OBJNAM":null,"QUASOU":"2","SOUACC":null,"TECSOU":null,"VALSOU":null,"VERDAT":null,"WATLEV":4,"INFORM":null,"SCAMIN":null,"SORDAT":"19900811","SORIND":"US,US,graph,Chart 18756","DSNM":"US4CA1ER.000","APPROACH.UWTROC.FID":19741814,"enc_service":"enc_approach","enc_layer":"Underwater_Awash_Rock_point","enc_layer_id":37}},{"type":"Feature","id":19741832,"geometry":{"type":"Point","coordinates":[-119.06135770000037,33.48169699999926]},"properties":{"OBJL":153,"EXPSOU":null,"NATSUR":null,"NATQUA":null,"OBJNAM":null,"QUASOU":"2","SOUACC":null,"TECSOU":null,"VALSOU":null,"VERDAT":null,"WATLEV":4,"INFORM":"Breaks in moderate swell","SCAMIN":null,"SORDAT":"19900811","SORIND":"US,US,graph,Chart 18756","DSNM":"US4CA1ER.000","APPROACH.UWTROC.FID":19741832,"enc_service":"enc_approach","enc_layer":"Underwater_Awash_Rock_point","enc_layer_id":37}},{"type":"Feature","id":19741825,"geometry":{"type":"Point","coordinates":[-119.04128359999959,33.48458879999998]},"properties":{"OBJL":153,"EXPSOU":null,"NATSUR":null,"NATQUA":null,"OBJNAM":null,"QUASOU":"2","SOUACC":null,"TECSOU":null,"VALSOU":null,"VERDAT":null,"WATLEV":4,"INFORM":null,"SCAMIN":null,"SORDAT":"19900811","SORIND":"US,US,graph,Chart 18756","DSNM":"US4CA1ER.000","APPROACH.UWTROC.FID":19741825,"enc_service":"enc_approach","enc_layer":"Underwater_Awash_Rock_point","enc_layer_id":37}},{"type":"Feature","id":19741818,"geometry":{"type":"Point","coordinates":[-119.03743369999938,33.48430120000012]},"properties":{"OBJL":153,"EXPSOU":null,"NATSUR":null,"NATQUA":null,"OBJNAM":null,"QUASOU":"2","SOUACC":null,"TECSOU":null,"VALSOU":null,"VERDAT":null,"WATLEV":4,"INFORM":null,"SCAMIN":null,"SORDAT":"19900811","SORIND":"US,US,graph,Chart 18756","DSNM":"US4CA1ER.000","APPROACH.UWTROC.FID":19741818,"enc_service":"enc_approach","enc_layer":"Underwater_Awash_Rock_point","enc_layer_id":37}},{"type":"Feature","id":19741821,"geometry":{"type":"Point","coordinates":[-119.04838940000081,33.482745799999975]},"properties":{"OBJL":153,"EXPSOU":null,"NATSUR":null,"NATQUA":null,"OBJNAM":null,"QUASOU":"2","SOUACC":null,"TECSOU":null,"VALSOU":null,"VERDAT":null,"WATLEV":4,"INFORM":null,"SCAMIN":null,"SORDAT":"19900811","SORIND":"US,US,graph,Chart 18756","DSNM":"US4CA1ER.000","APPROACH.UWTROC.FID":19741821,"enc_service":"enc_approach","enc_layer":"Underwater_Awash_Rock_point","enc_layer_id":37}},{"type":"Feature","id":19741828,"geometry":{"type":"Point","coordinates":[-119.04773609999938,33.479902400000356]},"properties":{"OBJL":153,"EXPSOU":null,"NATSUR":null,"NATQUA":null,"OBJNAM":null,"QUASOU":"2","SOUACC":null,"TECSOU":null,"VALSOU":null,"VERDAT":null,"WATLEV":3,"INFORM":null,"SCAMIN":null,"SORDAT":"19900811","SORIND":"US,US,graph,Chart 18756","DSNM":"US4CA1ER.000","APPROACH.UWTROC.FID":19741828,"enc_service":"enc_approach","enc_layer":"Underwater_Awash_Rock_point","enc_layer_id":37}},{"type":"Feature","id":19741817,"geometry":{"type":"Point","coordinates":[-119.04919119999977,33.480400700000246]},"properties":{"OBJL":153,"EXPSOU":null,"NATSUR":null,"NATQUA":null,"OBJNAM":null,"QUASOU":"2","SOUACC":null,"TECSOU":null,"VALSOU":null,"VERDAT":null,"WATLEV":4,"INFORM":null,"SCAMIN":null,"SORDAT":"19900811","SORIND":"US,US,graph,Chart 18756","DSNM":"US4CA1ER.000","APPROACH.UWTROC.FID":19741817,"enc_service":"enc_approach","enc_layer":"Underwater_Awash_Rock_point","enc_layer_id":37}},{"type":"Feature","id":19741815,"geometry":{"type":"Point","coordinates":[-119.0353567000002,33.486096099999486]},"properties":{"OBJL":153,"EXPSOU":null,"NATSUR":null,"NATQUA":null,"OBJNAM":null,"QUASOU":"2","SOUACC":null,"TECSOU":null,"VALSOU":null,"VERDAT":null,"WATLEV":3,"INFORM":null,"SCAMIN":null,"SORDAT":"19900811","SORIND":"US,US,graph,Chart 18756","DSNM":"US4CA1ER.000","APPROACH.UWTROC.FID":19741815,"enc_service":"enc_approach","enc_layer":"Underwater_Awash_Rock_point","enc_layer_id":37}},{"type":"Feature","id":2654532,"geometry":{"type":"Polygon","coordinates":[[[-119.04398260000016,33.47134940000069],[-119.0438653000001,33.4713511000009],[-119.04381260000082,33.47135940000044],[-119.04372320000039,33.47141019999981],[-119.04370630000085,33.47145520000049],[-119.0437039999997,33.471505600000455],[-119.04372320000039,33.471556799999234],[-119.04382260000057,33.471622600000046],[-119.04388219999964,33.47162759999992],[-119.04394460000003,33.47162799999933],[-119.04400739999983,33.471602699999494],[-119.0440749999998,33.4715668000008],[-119.04412070000035,33.47150850000071],[-119.04413659999955,33.47145939999973],[-119.04411179999988,33.4714227000004],[-119.04406899999958,33.471382800000356],[-119.04398260000016,33.47134940000069]]]},"properties":{"OBJL":86,"CATOBS":"foul area","CONDTN":null,"EXPSOU":null,"HEIGHT":null,"NATCON":null,"NATQUA":null,"OBJNAM":null,"PRODCT":null,"QUASOU":"2","SOUACC":null,"TECSOU":null,"VALSOU":null,"VERACC":null,"VERDAT":null,"VERLEN":null,"WATLEV":4,"NATSUR":"rock","INFORM":null,"SCAMIN":null,"SORDAT":"20181025","SORIND":"US,US,graph,H-13201","DSNM":"US4CA1ER.000","APPROACH.OBSTRN_POLYGON.FID":2654532,"SHAPE.AREA":9.325294e-08,"SHAPE.LEN":0.00113347784000303,"enc_service":"enc_approach","enc_layer":"Obstruction_area","enc_layer_id":161}},{"type":"Feature","id":2654533,"geometry":{"type":"Polygon","coordinates":[[[-119.0438811999993,33.4725858999991],[-119.04404439999962,33.47265680000055],[-119.04438619999928,33.47267189999911],[-119.04454810000061,33.47254369999973],[-119.04465600000003,33.47237800000039],[-119.04476389999945,33.472136799999134],[-119.04476389999945,33.471933299999364],[-119.04462899999999,33.471677100000306],[-119.04442209999979,33.471473600000536],[-119.04421530000036,33.471330399999715],[-119.04400840000017,33.47124740000072],[-119.04378349999934,33.47122490000038],[-119.04358590000083,33.471228899999915],[-119.0434581999998,33.471282799999244],[-119.0433350000003,33.47138300000006],[-119.04332179999983,33.471391900000526],[-119.04324839999936,33.47143900000083],[-119.04321410000011,33.47147330000007],[-119.04320560000087,33.47149899999931],[-119.0431907000002,33.47155019999991],[-119.0431879000007,33.4716040000003],[-119.04321359999994,33.47170870000082],[-119.0432595000002,33.471856399999524],[-119.04330359999949,33.47197799999958],[-119.04334030000064,33.47204109999984],[-119.0434026999992,33.47211190000053],[-119.04353660000015,33.47213720000036],[-119.04371180000089,33.472075899999254],[-119.04411280000022,33.471994800000175],[-119.04435609999928,33.47199600000022],[-119.04451469999913,33.472055700000055],[-119.0445624999993,33.47213109999939],[-119.04458820000036,33.47217730000011],[-119.04459180000049,33.472212700000455],[-119.04458270000032,33.47224649999953],[-119.04457159999947,33.47231269999975],[-119.0444349999998,33.47240480000073],[-119.04401150000012,33.47253549999914],[-119.0438811999993,33.4725858999991]],[[-119.04398260000016,33.47134940000069],[-119.04406899999958,33.471382800000356],[-119.04411179999988,33.4714227000004],[-119.04413659999955,33.47145939999973],[-119.04412070000035,33.47150850000071],[-119.0440749999998,33.4715668000008],[-119.04400739999983,33.471602699999494],[-119.04394460000003,33.47162799999933],[-119.04388219999964,33.47162759999992],[-119.04382260000057,33.471622600000046],[-119.04372320000039,33.471556799999234],[-119.0437039999997,33.471505600000455],[-119.04370630000085,33.47145520000049],[-119.04372320000039,33.47141019999981],[-119.04381260000082,33.47135940000044],[-119.0438653000001,33.4713511000009],[-119.04398260000016,33.47134940000069]]]},"properties":{"OBJL":86,"CATOBS":"foul area","CONDTN":null,"EXPSOU":null,"HEIGHT":null,"NATCON":null,"NATQUA":null,"OBJNAM":null,"PRODCT":null,"QUASOU":"2","SOUACC":null,"TECSOU":null,"VALSOU":null,"VERACC":null,"VERDAT":null,"VERLEN":null,"WATLEV":3,"NATSUR":"rock","INFORM":null,"SCAMIN":null,"SORDAT":"20181025","SORIND":"US,US,graph,H-13201","DSNM":"US4CA1ER.000","APPROACH.OBSTRN_POLYGON.FID":2654533,"SHAPE.AREA":1.098034075e-06,"SHAPE.LEN":0.007317210113666481,"enc_service":"enc_approach","enc_layer":"Obstruction_area","enc_layer_id":161}},{"type":"Feature","id":6599748,"geometry":{"type":"Point","coordinates":[-119.06158090000002,33.481737399999986]},"properties":{"OBJECTID":6599748,"OBJL":153,"EXPSOU":null,"NATSUR":null,"NATQUA":null,"OBJNAM":null,"QUASOU":"2","SOUACC":null,"TECSOU":null,"VALSOU":null,"VERDAT":null,"WATLEV":4,"INFORM":"Breaks in moderate swell","SCAMIN":null,"SORDAT":"20000729","SORIND":"US,US,graph,Chart 18720","DSNM":"US3CA1CH.000","enc_service":"enc_coastal","enc_layer":"Underwater_Awash_Rock_point","enc_layer_id":31}},{"type":"Feature","id":6601970,"geometry":{"type":"Point","coordinates":[-119.06158090000002,33.481737399999986]},"properties":{"OBJECTID":6601970,"OBJL":153,"EXPSOU":null,"NATSUR":null,"NATQUA":null,"OBJNAM":null,"QUASOU":"2","SOUACC":null,"TECSOU":null,"VALSOU":null,"VERDAT":null,"WATLEV":4,"INFORM":"Breaks in moderate swell","SCAMIN":null,"SORDAT":"20000729","SORIND":"US,US,graph,Chart 18720","DSNM":"US3CA69M.000","enc_service":"enc_coastal","enc_layer":"Underwater_Awash_Rock_point","enc_layer_id":31}},{"type":"Feature","id":6601987,"geometry":{"type":"Point","coordinates":[-119.0492317,33.48040020000002]},"properties":{"OBJECTID":6601987,"OBJL":153,"EXPSOU":null,"NATSUR":null,"NATQUA":null,"OBJNAM":null,"QUASOU":"2","SOUACC":null,"TECSOU":null,"VALSOU":null,"VERDAT":null,"WATLEV":4,"INFORM":null,"SCAMIN":null,"SORDAT":"20000729","SORIND":"US,US,graph,Chart 18720","DSNM":"US3CA69M.000","enc_service":"enc_coastal","enc_layer":"Underwater_Awash_Rock_point","enc_layer_id":31}},{"type":"Feature","id":6599738,"geometry":{"type":"Point","coordinates":[-119.0474946,33.4844104]},"properties":{"OBJECTID":6599738,"OBJL":153,"EXPSOU":null,"NATSUR":null,"NATQUA":null,"OBJNAM":null,"QUASOU":"2","SOUACC":null,"TECSOU":null,"VALSOU":null,"VERDAT":null,"WATLEV":4,"INFORM":null,"SCAMIN":null,"SORDAT":"20000729","SORIND":"US,US,graph,Chart 18720","DSNM":"US3CA1CH.000","enc_service":"enc_coastal","enc_layer":"Underwater_Awash_Rock_point","enc_layer_id":31}},{"type":"Feature","id":6599735,"geometry":{"type":"Point","coordinates":[-119.03029129999999,33.468257300000005]},"properties":{"OBJECTID":6599735,"OBJL":153,"EXPSOU":2,"NATSUR":null,"NATQUA":null,"OBJNAM":null,"QUASOU":"6","SOUACC":null,"TECSOU":"12","VALSOU":-0.6,"VERDAT":null,"WATLEV":4,"INFORM":null,"SCAMIN":null,"SORDAT":"20181025","SORIND":"US,US,graph,H-13201","DSNM":"US3CA1CH.000","enc_service":"enc_coastal","enc_layer":"Underwater_Awash_Rock_point","enc_layer_id":31}},{"type":"Feature","id":6601985,"geometry":{"type":"Point","coordinates":[-119.05003549999998,33.46311170000001]},"properties":{"OBJECTID":6601985,"OBJL":153,"EXPSOU":null,"NATSUR":null,"NATQUA":null,"OBJNAM":null,"QUASOU":"2","SOUACC":null,"TECSOU":null,"VALSOU":null,"VERDAT":null,"WATLEV":3,"INFORM":null,"SCAMIN":null,"SORDAT":"19900811","SORIND":"US,US,graph,Chart 18756","DSNM":"US3CA69M.000","enc_service":"enc_coastal","enc_layer":"Underwater_Awash_Rock_point","enc_layer_id":31}},{"type":"Feature","id":6601984,"geometry":{"type":"Point","coordinates":[-119.03029129999999,33.468257300000005]},"properties":{"OBJECTID":6601984,"OBJL":153,"EXPSOU":2,"NATSUR":null,"NATQUA":null,"OBJNAM":null,"QUASOU":"6","SOUACC":null,"TECSOU":"12","VALSOU":-0.6,"VERDAT":null,"WATLEV":4,"INFORM":null,"SCAMIN":null,"SORDAT":"20181025","SORIND":"US,US,graph,H-13201","DSNM":"US3CA69M.000","enc_service":"enc_coastal","enc_layer":"Underwater_Awash_Rock_point","enc_layer_id":31}},{"type":"Feature","id":6601974,"geometry":{"type":"Point","coordinates":[-119.0474946,33.4844104]},"properties":{"OBJECTID":6601974,"OBJL":153,"EXPSOU":null,"NATSUR":null,"NATQUA":null,"OBJNAM":null,"QUASOU":"2","SOUACC":null,"TECSOU":null,"VALSOU":null,"VERDAT":null,"WATLEV":4,"INFORM":null,"SCAMIN":null,"SORDAT":"20000729","SORIND":"US,US,graph,Chart 18720","DSNM":"US3CA69M.000","enc_service":"enc_coastal","enc_layer":"Underwater_Awash_Rock_point","enc_layer_id":31}},{"type":"Feature","id":6602000,"geometry":{"type":"Point","coordinates":[-119.0413901,33.48437180000002]},"properties":{"OBJECTID":6602000,"OBJL":153,"EXPSOU":null,"NATSUR":null,"NATQUA":null,"OBJNAM":null,"QUASOU":"2","SOUACC":null,"TECSOU":null,"VALSOU":null,"VERDAT":null,"WATLEV":4,"INFORM":null,"SCAMIN":null,"SORDAT":"20000729","SORIND":"US,US,graph,Chart 18720","DSNM":"US3CA69M.000","enc_service":"enc_coastal","enc_layer":"Underwater_Awash_Rock_point","enc_layer_id":31}},{"type":"Feature","id":6601997,"geometry":{"type":"Point","coordinates":[-119.03748100000001,33.48437740000003]},"properties":{"OBJECTID":6601997,"OBJL":153,"EXPSOU":null,"NATSUR":null,"NATQUA":null,"OBJNAM":null,"QUASOU":"2","SOUACC":null,"TECSOU":null,"VALSOU":null,"VERDAT":null,"WATLEV":4,"INFORM":null,"SCAMIN":null,"SORDAT":"20000729","SORIND":"US,US,graph,Chart 18720","DSNM":"US3CA69M.000","enc_service":"enc_coastal","enc_layer":"Underwater_Awash_Rock_point","enc_layer_id":31}},{"type":"Feature","id":6599747,"geometry":{"type":"Point","coordinates":[-119.0492317,33.48040020000002]},"properties":{"OBJECTID":6599747,"OBJL":153,"EXPSOU":null,"NATSUR":null,"NATQUA":null,"OBJNAM":null,"QUASOU":"2","SOUACC":null,"TECSOU":null,"VALSOU":null,"VERDAT":null,"WATLEV":4,"INFORM":null,"SCAMIN":null,"SORDAT":"20000729","SORIND":"US,US,graph,Chart 18720","DSNM":"US3CA1CH.000","enc_service":"enc_coastal","enc_layer":"Underwater_Awash_Rock_point","enc_layer_id":31}},{"type":"Feature","id":6599736,"geometry":{"type":"Point","coordinates":[-119.0413901,33.48437180000002]},"properties":{"OBJECTID":6599736,"OBJL":153,"EXPSOU":null,"NATSUR":null,"NATQUA":null,"OBJNAM":null,"QUASOU":"2","SOUACC":null,"TECSOU":null,"VALSOU":null,"VERDAT":null,"WATLEV":4,"INFORM":null,"SCAMIN":null,"SORDAT":"20000729","SORIND":"US,US,graph,Chart 18720","DSNM":"US3CA1CH.000","enc_service":"enc_coastal","enc_layer":"Underwater_Awash_Rock_point","enc_layer_id":31}},{"type":"Feature","id":6599745,"geometry":{"type":"Point","coordinates":[-119.05003549999998,33.46311170000001]},"properties":{"OBJECTID":6599745,"OBJL":153,"EXPSOU":null,"NATSUR":null,"NATQUA":null,"OBJNAM":null,"QUASOU":"2","SOUACC":null,"TECSOU":null,"VALSOU":null,"VERDAT":null,"WATLEV":3,"INFORM":null,"SCAMIN":null,"SORDAT":"19900811","SORIND":"US,US,graph,Chart 18756","DSNM":"US3CA1CH.000","enc_service":"enc_coastal","enc_layer":"Underwater_Awash_Rock_point","enc_layer_id":31}},{"type":"Feature","id":6601969,"geometry":{"type":"Point","coordinates":[-119.03460769999998,33.486568799999986]},"properties":{"OBJECTID":6601969,"OBJL":153,"EXPSOU":null,"NATSUR":null,"NATQUA":null,"OBJNAM":null,"QUASOU":"2","SOUACC":null,"TECSOU":null,"VALSOU":null,"VERDAT":null,"WATLEV":4,"INFORM":null,"SCAMIN":null,"SORDAT":"19900811","SORIND":"US,US,graph,Chart 18756","DSNM":"US3CA69M.000","enc_service":"enc_coastal","enc_layer":"Underwater_Awash_Rock_point","enc_layer_id":31}},{"type":"Feature","id":6599737,"geometry":{"type":"Point","coordinates":[-119.03748100000001,33.48437740000003]},"properties":{"OBJECTID":6599737,"OBJL":153,"EXPSOU":null,"NATSUR":null,"NATQUA":null,"OBJNAM":null,"QUASOU":"2","SOUACC":null,"TECSOU":null,"VALSOU":null,"VERDAT":null,"WATLEV":4,"INFORM":null,"SCAMIN":null,"SORDAT":"20000729","SORIND":"US,US,graph,Chart 18720","DSNM":"US3CA1CH.000","enc_service":"enc_coastal","enc_layer":"Underwater_Awash_Rock_point","enc_layer_id":31}},{"type":"Feature","id":6599746,"geometry":{"type":"Point","coordinates":[-119.03460769999998,33.486568799999986]},"properties":{"OBJECTID":6599746,"OBJL":153,"EXPSOU":null,"NATSUR":null,"NATQUA":null,"OBJNAM":null,"QUASOU":"2","SOUACC":null,"TECSOU":null,"VALSOU":null,"VERDAT":null,"WATLEV":4,"INFORM":null,"SCAMIN":null,"SORDAT":"19900811","SORIND":"US,US,graph,Chart 18756","DSNM":"US3CA1CH.000","enc_service":"enc_coastal","enc_layer":"Underwater_Awash_Rock_point","enc_layer_id":31}}]}
