{"type":"FeatureCollection","schema_version":1,"scope":"central-nbs-usgs-hard-research-context","coast_id":"central","compiled_at":"2026-09-24T06:44:52.931723+00:00","source_review":"data/nbs-central-usgs-hard-overlap-review.json","mpa_screened_at":"2026-09-23T22:30:59Z","federal_screened_at":"2026-09-23T22:56:33.483262+00:00","minimum_component_area_m2":2500,"maximum_displayed_per_tile":10,"sector_ids":["cambria-morro","monterey-sur"],"omitted_smaller_or_lower_ranked_components":43,"method":"Original 2 m USGS class-3 pixels sampled at NOAA NBS 4 m measured-contributor cells; 25\u2013200 ft MLLW with supplied uncertainty <=2 m and 2 m planning margin; complete 100 m MPA/GEA buffers. Each displayed 20 m square requires all 25 underlying 4 m cells to pass; largest connected components only.","limitations":["Research sensitivity tier, not the existing 1 m target qualification policy.","Historical USGS classes and compiled NBS cells are not independent confirmations of fish, recent bottom stability or catch success.","Original NBS contributor provenance, present chart hazards, routes, species rules and access need review before any point or export.","No fishing target, legal clearance or navigation claim; recheck current MPA and GEA boundaries."],"features":[{"type":"Feature","geometry":{"type":"Polygon","coordinates":[[[-120.95813689184979,35.44150970876433],[-120.95814144470697,35.441329487948565],[-120.9579212212397,35.441325761914555],[-120.95793032781324,35.44096532031465],[-120.95815055030015,35.44096904629933],[-120.95814599752377,35.441149267126896],[-120.95858644359917,35.44115671794157],[-120.95859099539516,35.440976497064696],[-120.95837077282744,35.440972771882684],[-120.95837987727855,35.44061233016054],[-120.95860009886583,35.44061605529324],[-120.9585955471507,35.44079627618191],[-120.95903599142692,35.44080372529263],[-120.95902688983622,35.44116416715089],[-120.95924711301534,35.441167891153526],[-120.95925166334068,35.44098767020271],[-120.95947188606999,35.44099139377937],[-120.95946733623484,35.441171614754836],[-120.95968755949475,35.44117533795482],[-120.95969665814422,35.4408148959487],[-120.95947643586474,35.44081117279801],[-120.95949463463984,35.44009028881356],[-120.95971485495853,35.44009401186568],[-120.95971940406118,35.43991379083019],[-120.95993962393007,35.43991751345635],[-120.95994417250216,35.439737292390326],[-120.96016439192128,35.43974101459053],[-120.96016893996277,35.43956079349395],[-120.95994872103384,35.43955707131839],[-120.95995326952514,35.43937685024055],[-120.96017348796391,35.43938057239149],[-120.9601780359247,35.43920035128313],[-120.96039825391368,35.43920407300812],[-120.9604118960833,35.438663409573735],[-120.96019167956477,35.43865968792264],[-120.96019622736405,35.43847946679068],[-120.95953557952122,35.438468299503484],[-120.95954012875055,35.438288078439534],[-120.95909969803752,35.43828063162418],[-120.95910424820674,35.43810041060363],[-120.95932446305294,35.438104134187306],[-120.95932901269164,35.4379239131362],[-120.95888858401993,35.437916465616844],[-120.95888403340093,35.43809668661866],[-120.95866381863553,35.43809296223238],[-120.95867292081336,35.43773252027217],[-120.95823249336428,35.437725070394364],[-120.9582279413153,35.43790529132813],[-120.9577875130476,35.437897839795845],[-120.95779206607682,35.43771761891142],[-120.95713142544876,35.437706438677345],[-120.95712231640917,35.43806688029232],[-120.95690210196707,35.43806315269571],[-120.95691576693623,35.43752249033841],[-120.95713597990793,35.437526217861006],[-120.95714053432667,35.43734599703877],[-120.95670010940394,35.43733854164164],[-120.95669099856555,35.43769898318152],[-120.95647078518459,35.43769525483168],[-120.95647534111413,35.437515034089365],[-120.95625512826373,35.43751130536292],[-120.95624601538398,35.4378717467923],[-120.9566864430857,35.437879203942614],[-120.95668188756542,35.43805942469782],[-120.95646167320423,35.438055696298626],[-120.95645711715336,35.43823591702324],[-120.95623690234245,35.43823218819807],[-120.95622778913915,35.438592629580256],[-120.9560075733884,35.43858890030444],[-120.95601213050044,35.43840867964098],[-120.95579191528032,35.43840494998855],[-120.95579647284202,35.43822472934387],[-120.95469539979898,35.43820607518575],[-120.95468627973372,35.43856651622226],[-120.9540256334528,35.438555318763655],[-120.95402107188902,35.43873553919895],[-120.95336042450208,35.43872433805455],[-120.95336498753628,35.43854411769339],[-120.9531447723118,35.438540383200696],[-120.95315389923894,35.4381799425101],[-120.95337411348318,35.43818367695335],[-120.9533878020997,35.437643015799026],[-120.95382822776891,35.43765048333338],[-120.95382366591748,35.43783070377348],[-120.95470451970232,35.43784563412561],[-120.95470907959329,35.4376654135867],[-120.95514950574834,35.437672876305655],[-120.95515406461857,35.43749265571145],[-120.95493385201092,35.43748892457731],[-120.9549384113308,35.4373087040019],[-120.95537883560634,35.43731616581951],[-120.95536971888657,35.437676607063196],[-120.95558993206527,35.43768033741947],[-120.95559448995526,35.43750011677589],[-120.9558147026843,35.437503846706186],[-120.95581926004371,35.437323626032004],[-120.9560394723231,35.43732735553633],[-120.95604402915198,35.43714713483157],[-120.95582381736271,35.437143405351925],[-120.95582837464123,35.436963184665956],[-120.95560816338252,35.43695945480972],[-120.9556036056139,35.43713967547101],[-120.95516318223763,35.43713221450533],[-120.95517229969484,35.436771773275616],[-120.95451166787461,35.43676057896571],[-120.95451622801279,35.436580358416094],[-120.952754548861,35.43655048946482],[-120.95275911287942,35.43637026910699],[-120.9523186944767,35.436362797905964],[-120.95232325943478,35.43618257759167],[-120.9521030507843,35.43617884141399],[-120.95208935431825,35.43671950226495],[-120.95186914423802,35.43671576561182],[-120.95186457817817,35.43689598585894],[-120.95142415715914,35.43688851129938],[-120.95142872419918,35.43670829110174],[-120.95076809444495,35.43669707632713],[-120.95075895738381,35.43705751656807],[-120.95053874656664,35.437053777457834],[-120.9505433156076,35.43687355736506],[-120.95032310532108,35.43686981787832],[-120.95031853579003,35.43705003794633],[-120.94987811435853,35.43704255771951],[-120.94988268486978,35.436862337700994],[-120.95010289507516,35.43686607799028],[-120.95010746505574,35.43668585794112],[-120.95032767481158,35.43668959780439],[-120.9503322442615,35.436509377724555],[-120.94989182577055,35.43650189764625],[-120.94990096650903,35.436141457567906],[-120.95034138303969,35.43614893754719],[-120.95034595236791,35.43596871744966],[-120.94924491379601,35.43595001461579],[-120.94924948553403,35.435769794636144],[-120.94836865736727,35.43575482524557],[-120.94836408366895,35.43593504512614],[-120.94814387623869,35.435931301750585],[-120.94814845042704,35.435751081894786],[-120.94770803666844,35.435743593989486],[-120.94771261179633,35.435563374177335],[-120.9461711683512,35.435537154042976],[-120.94617574686889,35.43535693439848],[-120.94507471950612,35.43533819381775],[-120.9450793004334,35.43515797429138],[-120.94419848123532,35.435142974703716],[-120.94419389834785,35.43532319413081],[-120.94397369315995,35.43531944320597],[-120.94397827653749,35.4351392238037],[-120.94353786726388,35.435131720799966],[-120.94353328290627,35.43531194015258],[-120.94375348801277,35.4353156918799],[-120.94374890410452,35.43549591125143],[-120.94396910974176,35.43549966260233],[-120.94396452628285,35.4356798819928],[-120.94374432015556,35.43567613061707],[-120.94373973616592,35.43585634997679],[-120.9439599427833,35.43586010137735],[-120.94395077566205,35.43622054012874],[-120.94417098330024,35.43622429117771],[-120.94416181699641,35.436584729955136],[-120.94460223435514,35.43659223094859],[-120.94460681654722,35.43641201151319],[-120.9452674414201,35.436423259919486],[-120.94526286069825,35.436603479429344],[-120.9448224430955,35.43659598084345],[-120.9448178613528,35.43677620029775],[-120.94503807062394,35.43677994981615],[-120.94502890799673,35.4371403887567],[-120.94568953899461,35.43715163505318],[-120.94569411885827,35.43697141551142],[-120.94591432878214,35.436975163449574],[-120.9459005905395,35.437515822131544],[-120.94568037914534,35.43751207411897],[-120.94567579915972,35.43769229364301],[-120.94545558731612,35.43768854520436],[-120.9454510067997,35.437868764697676],[-120.9458914315078,35.43787626122333],[-120.9458822723135,35.43823670029149],[-120.94676312613839,35.43825168872581],[-120.9467539707025,35.43861212796876],[-120.9471943998193,35.43861961987737],[-120.94720355329468,35.438259180535255],[-120.94764398061345,35.438266670739566],[-120.94763025328024,35.43880732989259],[-120.94829089897424,35.438818562412415],[-120.94829547332219,35.438638342626305],[-120.9485156881446,35.438642085972205],[-120.94850654038838,35.43900252558807],[-120.94916718804004,35.43901375336666],[-120.94917633285542,35.438653313602174],[-120.9496167628656,35.43866079668235],[-120.94961219145847,35.43884101661706],[-120.95005262261122,35.43884849814156],[-120.95005719303808,35.43866827815734],[-120.95049762337283,35.438675758027145],[-120.95049305392628,35.438855978060886],[-120.95093348540357,35.43886345637502],[-120.95092891689673,35.43904367645234],[-120.95158956588728,35.43905489098802],[-120.95159413292367,35.43887467083647],[-120.95225478080863,35.438885881686225],[-120.95225934633405,35.43870566145456],[-120.95247956188662,35.438709397577156],[-120.95248412688137,35.43852917731487],[-120.95270434198432,35.438532913011436],[-120.95270890644845,35.43835269271853],[-120.95292912110177,35.438356427989085],[-120.95291999311331,35.43871686861846],[-120.95269977747972,35.438713133298464],[-120.95269521293457,35.43889335357956],[-120.95379629395848,35.43891202629014],[-120.95378716964814,35.43927246708181],[-120.95400738695473,35.43927620046945],[-120.95400282522898,35.439456420881136],[-120.95488369682091,35.439471350517394],[-120.95487913701531,35.439651571022],[-120.95443870015806,35.43964410695709],[-120.95442957846477,35.440004547849796],[-120.9546497978535,35.440008280132304],[-120.95465435823021,35.43982805966421],[-120.95509479614876,35.439835522975876],[-120.95509023675241,35.44001574349337],[-120.95531045626257,35.44001947457192],[-120.95530589731591,35.44019969510821],[-120.95552611735671,35.44020342581014],[-120.95552155885977,35.44038364636523],[-120.95618222069554,35.44039483613713],[-120.9561776636287,35.44057505676036],[-120.95661810603518,35.440582514651034],[-120.95661354990825,35.440762735317726],[-120.95683377166236,35.44076646368573],[-120.95682921598522,35.440946684371205],[-120.95704943826998,35.44095041236257],[-120.95704488304256,35.44113063306681],[-120.95726510585796,35.4411343606815],[-120.95726055108032,35.44131458140451],[-120.95770099781282,35.44132203547922],[-120.95769644397518,35.44150225624566],[-120.95813689184979,35.44150970876433]],[[-120.95771465908314,35.44078137314449],[-120.95749443716731,35.440777646381804],[-120.95749899133344,35.44059742561642],[-120.95771921275907,35.44060115235444],[-120.95771465908314,35.44078137314449]],[[-120.95904054216167,35.440623504354654],[-120.95882032049356,35.44061978002462],[-120.95882487167809,35.440439559105386],[-120.95904509285602,35.44044328341079],[-120.95904054216167,35.440623504354654]],[[-120.95837987727855,35.44061233016054],[-120.95815965573163,35.4406086046265],[-120.95816420838676,35.440428383781246],[-120.95794398737047,35.44042465787054],[-120.95795764656391,35.43988399537333],[-120.95817786610966,35.439887721210056],[-120.95816876100149,35.440248162930075],[-120.95838898156799,35.4402518884148],[-120.95837987727855,35.44061233016054]],[[-120.95882487167809,35.440439559105386],[-120.9586046505406,35.44043583439867],[-120.95860920217491,35.440255613498195],[-120.95882942282226,35.44025933818026],[-120.95882487167809,35.440439559105386]],[[-120.95772831998968,35.440240710756655],[-120.95728787913959,35.44023325697794],[-120.95729243367462,35.44005303621954],[-120.95773287354436,35.44006048994892],[-120.95772831998968,35.440240710756655]],[[-120.95949463463984,35.44009028881356],[-120.95927441436147,35.44008656536011],[-120.95927896444448,35.439906344373895],[-120.95949918423263,35.43991006780271],[-120.95949463463984,35.44009028881356]],[[-120.95619133470787,35.44003439487295],[-120.95597111503587,35.44003066539968],[-120.95597567247151,35.439850444783424],[-120.95619589165334,35.43985417423202],[-120.95619133470787,35.44003439487295]],[[-120.9575172075937,35.43987654249591],[-120.9572969881692,35.43987281545522],[-120.95730154262338,35.43969259468501],[-120.95752176155769,35.43969632170104],[-120.9575172075937,35.43987654249591]],[[-120.95928351448708,35.43972612338178],[-120.95906329522948,35.439722399576304],[-120.95906784572186,35.439542178602935],[-120.95928806448927,35.43954590238377],[-120.95928351448708,35.43972612338178]],[[-120.95884307601229,35.4397186753695],[-120.95818241860316,35.4397075003412],[-120.95818697105621,35.43952727946643],[-120.95796675249082,35.439523553679024],[-120.95797130539363,35.439343332823015],[-120.9584117415845,35.439350783947205],[-120.95841629346658,35.439170563036],[-120.95863651113247,35.439174287971476],[-120.95862740830823,35.43953472983732],[-120.95884762699485,35.439538454420784],[-120.95884307601229,35.4397186753695]],[[-120.95774198053242,35.439700048315736],[-120.95752176155769,35.43969632170104],[-120.95752631548127,35.43951610090026],[-120.95774653396582,35.4395198274903],[-120.95774198053242,35.439700048315736]],[[-120.95664088606307,35.43968141122906],[-120.9564206672905,35.43967768260777],[-120.95642522366492,35.439497461930365],[-120.9566454419473,35.43950119052697],[-120.95664088606307,35.43968141122906]],[[-120.95598478722147,35.439490003533216],[-120.95576456906045,35.439486273732676],[-120.9557691268649,35.4393060531234],[-120.95554890923447,35.43930232294624],[-120.95555802570232,35.438941881759376],[-120.955998459043,35.43894934161365],[-120.95600301623593,35.438769120962],[-120.9562232324768,35.4387728502625],[-120.95621867577402,35.438953070938844],[-120.95665910935742,35.438960528385294],[-120.9566636650799,35.438780307659606],[-120.95644344875814,35.4387765791617],[-120.95644800493032,35.438596358454774],[-120.95666822076193,35.438600086928],[-120.95667277640355,35.43841986619051],[-120.95689299178545,35.438423594237754],[-120.95688843663399,35.438603814999915],[-120.9571086525465,35.43860754267054],[-120.95710409784473,35.43878776345149],[-120.95688388144211,35.438784035756186],[-120.956874770937,35.43914447725103],[-120.95621411903078,35.439133291609274],[-120.95620956224711,35.43931351227381],[-120.95598934453578,35.439309782899265],[-120.95598478722147,35.439490003533216]],[[-120.9575308693644,35.43933588009358],[-120.95731065141045,35.43933215312689],[-120.95731520574334,35.43915193233899],[-120.95753542320713,35.439155659281],[-120.9575308693644,35.43933588009358]],[[-120.95422760430183,35.439279933455765],[-120.95400738695473,35.43927620046945],[-120.95401194863999,35.439095980051846],[-120.95423216549693,35.43909971301346],[-120.95422760430183,35.439279933455765]],[[-120.95731520574334,35.43915193233899],[-120.95709498831995,35.43914820499566],[-120.95709954310257,35.43896798422652],[-120.9573197600358,35.43897171154518],[-120.95731520574334,35.43915193233899]],[[-120.95489281631065,35.43911090949048],[-120.95467259933226,35.43910717773278],[-120.95468627973372,35.43856651622226],[-120.95490649524167,35.43857024790587],[-120.95490193563845,35.43875046843998],[-120.95512215167702,35.43875419974698],[-120.95511759252348,35.43893442029988],[-120.95489737599478,35.438930688968185],[-120.95489281631065,35.43911090949048]],[[-120.96018713172512,35.4388399090487],[-120.95996691475682,35.43883618697167],[-120.95997146308662,35.43865596587024],[-120.96019167956477,35.43865968792264],[-120.96018713172512,35.4388399090487]],[[-120.95754453077132,35.43879521763816],[-120.95732431428782,35.438791490745466],[-120.95732886849942,35.43861126993986],[-120.95754908449277,35.438614996807885],[-120.95754453077132,35.43879521763816]],[[-120.95071783860107,35.43867949736011],[-120.95049762337283,35.438675758027145],[-120.95050219277884,35.4384955379875],[-120.95072240751692,35.43849927729571],[-120.95071783860107,35.43867949736011]],[[-120.95512671079008,35.43857397918818],[-120.95490649524167,35.43857024790587],[-120.9549110548044,35.43839002736586],[-120.95513126986268,35.43839375862348],[-120.95512671079008,35.43857397918818]],[[-120.95094262229559,35.43850301620263],[-120.95072240751692,35.43849927729571],[-120.95072697639223,35.438319057225414],[-120.95094719068075,35.4383227961076],[-120.95094262229559,35.43850301620263]],[[-120.94830004762952,35.438458122834284],[-120.94807983333787,35.43845437911185],[-120.94808440809472,35.43827415933871],[-120.94830462189627,35.438277903036365],[-120.94830004762952,35.438458122834284]],[[-120.95909514782787,35.43846085263884],[-120.95887493204178,35.43845712860458],[-120.95887948274157,35.438276907614565],[-120.95909969803752,35.43828063162418],[-120.95909514782787,35.43846085263884]],[[-120.95667277640355,35.43841986619051],[-120.95645256106206,35.43841613774196],[-120.95645711715336,35.43823591702324],[-120.95667733200469,35.438239645447105],[-120.95667277640355,35.43841986619051]],[[-120.95270890644845,35.43835269271853],[-120.9524886918356,35.438348957046685],[-120.95249325674934,35.438168736772596],[-120.95271347087201,35.43817247241972],[-120.95270890644845,35.43835269271853]],[[-120.95028654793687,35.4383115782572],[-120.949405691513,35.438296615505266],[-120.9494102632885,35.4381163955776],[-120.94963047684348,35.43812013684276],[-120.94963504808827,35.43793991688442],[-120.9498552611937,35.43794365772353],[-120.94986440258135,35.437583217739636],[-120.9503048269535,35.437590698114974],[-120.95030939660624,35.43741047806467],[-120.95052960836306,35.43741421762567],[-120.95052046999722,35.437774657769886],[-120.95030025726018,35.437770918159394],[-120.9502956875263,35.437951138197896],[-120.95051590075347,35.43795487783315],[-120.95051133146916,35.4381350978905],[-120.95029111775189,35.4381313582305],[-120.95028654793687,35.4383115782572]],[[-120.95865926748603,35.43827318320365],[-120.95843905227088,35.43826945839144],[-120.95844360391052,35.43808923744483],[-120.95866381863553,35.43809296223238],[-120.95865926748603,35.43827318320365]],[[-120.95205282862551,35.43816126427448],[-120.95161240066383,35.43815379017122],[-120.9516215342907,35.43779334980319],[-120.95184174727103,35.437797087006],[-120.95184631353351,35.437616866788375],[-120.95228673863555,35.4376243399407],[-120.95228217335328,35.437804560207766],[-120.95206196029189,35.437800823807514],[-120.95205282862551,35.43816126427448]],[[-120.9494102632885,35.4381163955776],[-120.94919004977409,35.438112653911155],[-120.94919462199915,35.43793243400235],[-120.94897440901543,35.43792869195939],[-120.948983554324,35.437568252173584],[-120.94964419045614,35.437579476950035],[-120.9496396192925,35.437759696920175],[-120.94941940671775,35.43775595570454],[-120.9494102632885,35.4381163955776]],[[-120.9467677037954,35.43807146909549],[-120.94654749076834,35.438067722613624],[-120.9465520688748,35.437887503002194],[-120.94677228141175,35.437891249459256],[-120.9467677037954,35.43807146909549]],[[-120.9575627454146,35.43807433428166],[-120.95734253089168,35.43807060748763],[-120.95734708494157,35.43789038665842],[-120.95756729897438,35.43789411342779],[-120.9575627454146,35.43807433428166]],[[-120.94853398316984,35.43792120666963],[-120.94831377030793,35.437917463422814],[-120.94831834445284,35.437737243607174],[-120.94853855682464,35.43774098682921],[-120.94853398316984,35.43792120666963]],[[-120.94787334470594,35.43790997572535],[-120.94765313196586,35.437906231274695],[-120.94765770758113,35.437726011533385],[-120.94787791983109,35.43772975595927],[-120.94787334470594,35.43790997572535]],[[-120.95426865360014,35.437657949262615],[-120.95404844066428,35.437654216498636],[-120.9540530019851,35.437473996027926],[-120.95427321443084,35.4374777287672],[-120.95426865360014,35.437657949262615]],[[-120.94854313043885,35.437560766982905],[-120.94832291855718,35.437557023785644],[-120.948332066644,35.43719658412486],[-120.94855227754549,35.43720032727258],[-120.94854313043885,35.437560766982905]],[[-120.94964876157923,35.43739925697399],[-120.94920833843076,35.437391774240496],[-120.94921291049347,35.43721155430807],[-120.94943312155729,35.4372152958507],[-120.94944226458077,35.436854855918604],[-120.94966247470498,35.43685859701044],[-120.94965790370365,35.437038817004186],[-120.94987811435853,35.43704255771951],[-120.94987354380673,35.43722277773212],[-120.94965333266173,35.43721903699205],[-120.94964876157923,35.43739925697399]],[[-120.94634559192441,35.43734309734852],[-120.94612538093907,35.437339350163285],[-120.94613453874663,35.43697891098646],[-120.9463547487518,35.43698265812208],[-120.94634559192441,35.43734309734852]],[[-120.95471819925375,35.43730497249117],[-120.95449798721715,35.437301240579174],[-120.95450254747679,35.43712102004725],[-120.95472275902327,35.437124751934554],[-120.95471819925375,35.43730497249117]],[[-120.94921291049347,35.43721155430807],[-120.94899269947022,35.43720781236418],[-120.94899727198242,35.43702759245061],[-120.94921748251558,35.43703133436975],[-120.94921291049347,35.43721155430807]],[[-120.9478962199256,35.437008876835925],[-120.94767600963604,35.437005132509185],[-120.94768058504822,35.436824912738366],[-120.94790079484768,35.43682865704033],[-120.9478962199256,35.437008876835925]],[[-120.94723558917879,35.43699764265189],[-120.94701537901109,35.43699389712134],[-120.94701995589355,35.43681367742488],[-120.94724016557116,35.43681742293065],[-120.94723558917879,35.43699764265189]],[[-120.95384647476972,35.43692960151398],[-120.95340605302137,35.436922134177316],[-120.95341061565054,35.43674191375713],[-120.9538510364187,35.43674938104438],[-120.95384647476972,35.43692960151398]],[[-120.94768058504822,35.436824912738366],[-120.94746037528938,35.43682116803514],[-120.94746495115105,35.436640948283205],[-120.9476851604198,35.43664469296165],[-120.94768058504822,35.436824912738366]],[[-120.94966704566576,35.43667837701078],[-120.9494468360316,35.43667463594372],[-120.94945140744188,35.436494415962905],[-120.94967161658595,35.436498157005204],[-120.94966704566576,35.43667837701078]],[[-120.94856599790093,35.436659667662795],[-120.94834578846974,35.4366559245894],[-120.94835036233044,35.43647570473244],[-120.94857057127155,35.436479447781046],[-120.94856599790093,35.436659667662795]],[[-120.94812557907916,35.436652181114745],[-120.94790536972917,35.43664843723883],[-120.94790994457004,35.43646821743142],[-120.94813015342996,35.436471961282564],[-120.94812557907916,35.436652181114745]],[[-120.9474741027525,35.43628050876163],[-120.94725389450453,35.43627676373148],[-120.94725847073441,35.43609654398663],[-120.94747867849232,35.436100288991966],[-120.9474741027525,35.43628050876163]],[[-120.94681347813045,35.436269272467456],[-120.94659327000436,35.43626552623354],[-120.94659784770445,35.43608530656306],[-120.94681805534047,35.436089052772175],[-120.94681347813045,35.436269272467456]],[[-120.94659784770445,35.43608530656306],[-120.94637764010908,35.4360815599527],[-120.94638221825862,35.43590134030111],[-120.94660242536393,35.43590508688667],[-120.94659784770445,35.43608530656306]],[[-120.94483618807952,35.43605532244506],[-120.94461598080939,35.43605157262467],[-120.94462972689757,35.435510914247594],[-120.94484993269754,35.43551466399352],[-120.94483618807952,35.43605532244506]],[[-120.94726304692367,35.43591632423586],[-120.94704283969645,35.435912578854044],[-120.94704741633515,35.43573235912217],[-120.9472676230723,35.43573610447919],[-120.94726304692367,35.43591632423586]]]},"properties":{"id":"nbs-usgs-1ed6900d81","sector_id":"cambria-morro","tile":"BH4575BX","approx_display_area_m2":356000,"support_native_cells":22250,"display_cell_m":20,"measured_depth_ft_range":[28.5,68.2],"maximum_depth_with_uncertainty_and_margin_ft":79.4,"maximum_supplied_uncertainty_m":1.42,"nbs_raster_url":"https://noaa-ocs-nationalbathymetry-pds.s3.amazonaws.com/Test-and-Evaluation/Modeling/BH4575BX/Modeling_BH4575BX_20260702.tiff","nbs_raster_sha256":"4e95628ffcc1d939f0cbba443e3c0c211ff9f79d5fb1047568e4a6d41fdae696","usgs_sources":[{"release_id":"P9HEZNRO","archive_sha256":"0092b70907c2a1709e4c6f081c55dca44e496758a30ace86c2733edcb8b22ea5","metadata_url":"https://cmgds.marine.usgs.gov/data-releases/media/2022/10.5066-P9HEZNRO/99111880d0194352899672cd4d7690ac/SeafloorCharacter_OffshoreMorroBay_metadata.xml"},{"release_id":"P9ZSTUK1","archive_sha256":"1deb5eb5130e2d0aaf39d0b73bbb2841b4aaff50f0b85b7a2a4b22d7fe9ece3c","metadata_url":"https://cmgds.marine.usgs.gov/data-releases/media/2022/10.5066-P9ZSTUK1/0f75d175cc2046f38c45b6ac26a9be92/SeafloorCharacter_OffshorePointEstero_metadata.xml"}],"fishing_target":false,"exportable":false,"legal_clearance":false,"fish_confirmed":false,"depth_qualified_for_target":false}},{"type":"Feature","geometry":{"type":"Polygon","coordinates":[[[-120.9632406022073,35.448807865205005],[-120.963245144912,35.448627644034076],[-120.9641261215086,35.448642509562255],[-120.96414428407792,35.447921624426165],[-120.9643645263663,35.447925339706224],[-120.96437360642837,35.44756489705361],[-120.96459384777629,35.44756861188306],[-120.96459838725652,35.44738839052333],[-120.96437814639896,35.44738467571846],[-120.96438268632923,35.447204454377406],[-120.96416244600233,35.44720073919569],[-120.96417152672272,35.446840296545076],[-120.9643917660689,35.446844011677626],[-120.96439630587828,35.44666379031889],[-120.96395582820689,35.44665635970153],[-120.9639512874168,35.446836581011105],[-120.96373104815123,35.44683286507569],[-120.96373558943168,35.44665264379073],[-120.96351535069675,35.44664892747849],[-120.96352897576722,35.44610826366197],[-120.96374921303111,35.446111979900415],[-120.96375375415029,35.44593175859186],[-120.96419422781833,35.44593918981534],[-120.96419876791654,35.4457589684517],[-120.96353805894593,35.445747821088126],[-120.9635426004748,35.44556759979237],[-120.9633223647222,35.44556388322628],[-120.96333144863968,35.445203440666255],[-120.96355168341164,35.44520715718315],[-120.96356076618721,35.44484671455034],[-120.96334053239586,35.44484299808264],[-120.96334507421346,35.44466277678198],[-120.96290460773234,35.44465534269159],[-120.96290915049022,35.444475121434245],[-120.96268891780045,35.44447140381156],[-120.96268437455225,35.444651625044294],[-120.96246414141251,35.44464790699562],[-120.96248231612441,35.44392702212765],[-120.96204185388824,35.443919585022996],[-120.96205094296329,35.44355914265208],[-120.96183071288627,35.44355542354689],[-120.96182616787863,35.443735644710685],[-120.96160593735166,35.44373192517951],[-120.96161048284957,35.44355170404034],[-120.96117002289725,35.4435442638231],[-120.96117456933534,35.443364042727254],[-120.96095433990996,35.44336032204118],[-120.96094524601291,35.44372076417771],[-120.9605047853222,35.44371332150297],[-120.96050933327146,35.4435331004869],[-120.95984864400901,35.44352193353834],[-120.95984409458896,35.4437021544805],[-120.95918340421917,35.44369098384564],[-120.95918795511004,35.44351076297741],[-120.95852726657463,35.443499588804116],[-120.9585318188959,35.44331936800393],[-120.95919250596052,35.44333054210327],[-120.95920160754027,35.442970100337305],[-120.95898137945885,35.44296637608819],[-120.95898593067838,35.44278615522101],[-120.95854547561726,35.44277870556798],[-120.95855002777688,35.442598484744195],[-120.95766912010049,35.442583580720424],[-120.9576645659799,35.44276380144557],[-120.95722411140376,35.44275634697619],[-120.95722866650486,35.44257612630039],[-120.95612753322344,35.442557483226516],[-120.95612297567115,35.44273770377894],[-120.95502184094994,35.442719050547694],[-120.95501728090595,35.44289927097078],[-120.95545773565352,35.44290673351673],[-120.95545317654955,35.4430869539833],[-120.9552329486653,35.4430832228863],[-120.95522382935543,35.44344366375235],[-120.95544405822021,35.44344739489874],[-120.95543949899485,35.44362761534759],[-120.95587995782633,35.44363507648561],[-120.95588451607117,35.44345485598739],[-120.95610474505737,35.443458585929655],[-120.95610018730277,35.443638806452576],[-120.95676087597482,35.44364999394519],[-120.95675176328588,35.44401043512142],[-120.95697199390467,35.444014163532245],[-120.95697654977911,35.4438339429224],[-120.95741701015747,35.44384139849054],[-120.95742156501089,35.443661177825454],[-120.95764179477045,35.443664904982796],[-120.95765090337552,35.443304463585605],[-120.95787113219498,35.44330819029225],[-120.95786202457047,35.44366863173875],[-120.95808225441087,35.44367235809334],[-120.95807770102826,35.44385257883241],[-120.95829793139934,35.44385630481028],[-120.95829337846656,35.44403652556811],[-120.95807314760519,35.44403279956559],[-120.95806859414174,35.44421302029285],[-120.95828882549338,35.444216746320045],[-120.95828427247979,35.44439696706607],[-120.95850450436215,35.44440069271653],[-120.95849995179842,35.44458091348131],[-120.95827971942576,35.444577187806196],[-120.9582751663313,35.444757408540426],[-120.9580549335088,35.44475368243927],[-120.95805037988363,35.44493390314293],[-120.95760991337927,35.44492644968712],[-120.95760535873309,35.44510667033555],[-120.95738512505125,35.445102942980874],[-120.95738056987433,35.44528316359876],[-120.95716033574261,35.445279435818016],[-120.95715578003495,35.44545965640532],[-120.95737601465697,35.44546338421074],[-120.95737145939918,35.445643604816816],[-120.95759169455195,35.44564733224548],[-120.95759624931942,35.44546711161473],[-120.9578164840223,35.44547083861735],[-120.95781192974516,35.44565105927275],[-120.95803216497879,35.44565478589862],[-120.95800939543818,35.44655588921047],[-120.95867010873651,35.44656706704949],[-120.95867466125448,35.446386846324955],[-120.95823418666251,35.446379394883],[-120.95824329353852,35.44601895351484],[-120.95868376616914,35.446026404858166],[-120.95867921373203,35.446206625594506],[-120.9588994505983,35.446210350688716],[-120.95889489861108,35.446390571443814],[-120.95911513600807,35.446394296161245],[-120.95911058447079,35.44657451693509],[-120.95933082239854,35.446578241275745],[-120.9593262713112,35.44675846206835],[-120.95954650976968,35.446762186032245],[-120.9595328577363,35.44730284844856],[-120.95997333771656,35.447310295319916],[-120.95997788745406,35.44713007447109],[-120.96019812701444,35.44713379727999],[-120.96020722538752,35.44677335551538],[-120.96086794136879,35.446784521385716],[-120.96089067923984,35.44588341650151],[-120.96067044299072,35.44587969506929],[-120.96068863452219,35.44515881115424],[-120.96090886881005,35.44516253248794],[-120.96091341610168,35.44498231146983],[-120.96047294854694,35.44497486845027],[-120.96047749677881,35.44479464747549],[-120.96135843008852,35.4448095318105],[-120.96134933750685,35.44516997395115],[-120.96112910313826,35.445166253420254],[-120.96111091552933,35.4458871375323],[-120.96133115185917,35.445890858161704],[-120.96131296556577,35.44661174227786],[-120.9615332038973,35.44661546260432],[-120.96153775004085,35.44643524155951],[-120.96175798792243,35.44643896145994],[-120.96176253353528,35.4462587403846],[-120.96220300843879,35.446266178931964],[-120.96220755303064,35.4460859578015],[-120.96264802711484,35.44609339469398],[-120.96264348350367,35.446273615873665],[-120.96242324595107,35.44626989760352],[-120.96241870180921,35.44645011875269],[-120.96263893985216,35.446453837047436],[-120.96263439616031,35.446634058215295],[-120.96285463473393,35.44663777613324],[-120.96285917793543,35.446457554940764],[-120.96307941605905,35.44646127243267],[-120.96306578780461,35.447001936066215],[-120.96328602743958,35.4470056532305],[-120.96329056974105,35.446825432000615],[-120.96351080892599,35.44682914873887],[-120.9634880994673,35.447730254952305],[-120.96370834114437,35.447733971412106],[-120.96369925805945,35.44809441390538],[-120.96325877278409,35.448086980485954],[-120.96324968757636,35.44844742285727],[-120.96280920050076,35.448439987733664],[-120.96280465685561,35.44862020886126],[-120.96302490086364,35.4486239266484],[-120.96302035766855,35.44880414779471],[-120.9632406022073,35.448807865205005]],[[-120.96391041849215,35.448458572531806],[-120.96369017481322,35.44845485637507],[-120.96369471645649,35.448274635143186],[-120.96391495964504,35.44827835127532],[-120.96391041849215,35.448458572531806]],[[-120.96392858286178,35.447737687470465],[-120.96370834114437,35.447733971412106],[-120.9637128826264,35.447553750156615],[-120.96393312385341,35.44755746619039],[-120.96392858286178,35.447737687470465]],[[-120.9602163235991,35.44641291372719],[-120.95977584844152,35.44640546790505],[-120.9597803984674,35.44622524705137],[-120.9602208726443,35.446232692824225],[-120.9602163235991,35.44641291372719]],[[-120.96066134698275,35.44624013699141],[-120.9602208726443,35.446232692824225],[-120.96023451953766,35.445692030079975],[-120.96001428389998,35.44568830746816],[-120.960018833274,35.44550808656626],[-120.96045930360907,35.445515531339204],[-120.96045020678196,35.445875973235665],[-120.96067044299072,35.44587969506929],[-120.96066134698275,35.44624013699141]],[[-120.96000518503084,35.44604874925429],[-120.9597849484529,35.4460450261918],[-120.95979404830271,35.44568458445495],[-120.96001428389998,35.44568830746816],[-120.96000518503084,35.44604874925429]],[[-120.96199186109088,35.445902017641416],[-120.96177162463997,35.44589829821626],[-120.96177617013177,35.445718077123225],[-120.96199640609234,35.44572179652377],[-120.96199186109088,35.445902017641416]],[[-120.95868831856586,35.44584618411593],[-120.95824784691588,35.44583873282191],[-120.95825240025282,35.44565851212307],[-120.95847263556732,35.44566223794613],[-120.95847718837354,35.44548201721674],[-120.9586974232381,35.44548574261374],[-120.95868831856586,35.44584618411593]],[[-120.963317822703,35.44574410449746],[-120.96309758650041,35.44574038750536],[-120.96310212900995,35.445560166258794],[-120.9633223647222,35.44556388322628],[-120.963317822703,35.44574410449746]],[[-120.96243687813458,35.445729234120634],[-120.9622166420933,35.4457255155229],[-120.96222573099459,35.44536507322071],[-120.96244596605523,35.445368791769226],[-120.96243687813458,35.445729234120634]],[[-120.96177617013177,35.445718077123225],[-120.96133569833164,35.44571063711791],[-120.96134479115547,35.44535019501264],[-120.96156502605471,35.44535391516676],[-120.9615604801533,35.44553413624697],[-120.96178071558323,35.4455378560243],[-120.96177617013177,35.445718077123225]],[[-120.960018833274,35.44550808656626],[-120.95957836310043,35.4455006401877],[-120.9595829134147,35.44532041932918],[-120.96002338260762,35.44532786565844],[-120.960018833274,35.44550808656626]],[[-120.95891765814306,35.44548946760934],[-120.9586974232381,35.44548574261374],[-120.95870197551359,35.445305521853804],[-120.95892220992826,35.44530924682475],[-120.95891765814306,35.44548946760934]],[[-120.96267074456571,35.44519228870717],[-120.96245050995505,35.44518857058467],[-120.96245505381452,35.44500834939422],[-120.96267528793487,35.445012067492115],[-120.96267074456571,35.44519228870717]],[[-120.96002793190085,35.445147644744736],[-120.95958746368854,35.445140198464735],[-120.95959201392202,35.44495997759441],[-120.95937178036674,35.44495625387697],[-120.95937633105012,35.44477603302537],[-120.95915609802555,35.444772308931164],[-120.95916520025168,35.444411867259596],[-120.95960566438006,35.44441931494803],[-120.95959656411507,35.444779756718184],[-120.96003703036618,35.444787202899626],[-120.96002793190085,35.445147644744736]],[[-120.96025726355232,35.44479092538825],[-120.96003703036618,35.444787202899626],[-120.96005067776129,35.444246540087704],[-120.96027090947656,35.44425026250243],[-120.96028000655751,35.443889820549046],[-120.96050023733255,35.44389354251314],[-120.96049568930256,35.444073763517416],[-120.96071592060828,35.44407748510473],[-120.96072046814801,35.44389726407582],[-120.96116092989999,35.44390470599708],[-120.96115638334084,35.44408492707523],[-120.96093615195437,35.444081206290676],[-120.96093160486456,35.4442614273383],[-120.96071137302819,35.44425770612772],[-120.96070682540773,35.444437927144826],[-120.96026636087552,35.44443048347028],[-120.96025726355232,35.44479092538825]],[[-120.96202821997308,35.44446024853515],[-120.96180798744463,35.444456529306905],[-120.96181707774231,35.44409608702059],[-120.96203730929018,35.44409980619962],[-120.96202821997308,35.44446024853515]],[[-120.96158775495654,35.44445280967728],[-120.9613675225088,35.44444908964625],[-120.96137206865839,35.44426886855527],[-120.96159230061585,35.44427258856168],[-120.96158775495654,35.44445280967728]],[[-120.9615968462348,35.44409236744019],[-120.96137661476763,35.44408864745839],[-120.96138116083652,35.443908426355634],[-120.96160139181342,35.4439121463128],[-120.9615968462348,35.44409236744019]],[[-120.95895862275516,35.44386748033562],[-120.95851816181087,35.44386003038677],[-120.95852271421296,35.443679809598386],[-120.95896317417669,35.44368725949793],[-120.95895862275516,35.44386748033562]],[[-120.95809136105488,35.44331191659751],[-120.95787113219498,35.44330819029225],[-120.95787568594662,35.44312796956012],[-120.95809591431625,35.443131695840734],[-120.95809136105488,35.44331191659751]],[[-120.95699021715971,35.443293281057485],[-120.956769988502,35.44328955274537],[-120.9567745447049,35.4431093321366],[-120.95699477287238,35.44311306042404],[-120.95699021715971,35.443293281057485]],[[-120.95632953130786,35.443282094917045],[-120.9561093027715,35.44327836540083],[-120.95611386044516,35.4430981448661],[-120.95633408849129,35.44310187435763],[-120.95632953130786,35.443282094917045]],[[-120.95677910086737,35.44292911152195],[-120.95655887323059,35.442925382857815],[-120.95656342984286,35.44274516226193],[-120.95678365698937,35.44274889090138],[-120.95677910086737,35.44292911152195]]]},"properties":{"id":"nbs-usgs-d6755d8339","sector_id":"cambria-morro","tile":"BH4575BX","approx_display_area_m2":178800,"support_native_cells":11175,"display_cell_m":20,"measured_depth_ft_range":[28.7,59.7],"maximum_depth_with_uncertainty_and_margin_ft":70.8,"maximum_supplied_uncertainty_m":1.37,"nbs_raster_url":"https://noaa-ocs-nationalbathymetry-pds.s3.amazonaws.com/Test-and-Evaluation/Modeling/BH4575BX/Modeling_BH4575BX_20260702.tiff","nbs_raster_sha256":"4e95628ffcc1d939f0cbba443e3c0c211ff9f79d5fb1047568e4a6d41fdae696","usgs_sources":[{"release_id":"P9HEZNRO","archive_sha256":"0092b70907c2a1709e4c6f081c55dca44e496758a30ace86c2733edcb8b22ea5","metadata_url":"https://cmgds.marine.usgs.gov/data-releases/media/2022/10.5066-P9HEZNRO/99111880d0194352899672cd4d7690ac/SeafloorCharacter_OffshoreMorroBay_metadata.xml"},{"release_id":"P9ZSTUK1","archive_sha256":"1deb5eb5130e2d0aaf39d0b73bbb2841b4aaff50f0b85b7a2a4b22d7fe9ece3c","metadata_url":"https://cmgds.marine.usgs.gov/data-releases/media/2022/10.5066-P9ZSTUK1/0f75d175cc2046f38c45b6ac26a9be92/SeafloorCharacter_OffshorePointEstero_metadata.xml"}],"fishing_target":false,"exportable":false,"legal_clearance":false,"fish_confirmed":false,"depth_qualified_for_target":false}},{"type":"Feature","geometry":{"type":"Polygon","coordinates":[[[-120.9382299876862,35.435942653289864],[-120.93823458396803,35.43576243455764],[-120.93933561236977,35.435781237703694],[-120.93934020616055,35.43560101884111],[-120.93823918020905,35.435582215819494],[-120.93824377640928,35.43540199707545],[-120.9391245951287,35.43541704019565],[-120.93912918932796,35.43523682134614],[-120.93934939361972,35.435240581098206],[-120.93935398728816,35.4350603622179],[-120.93957419113067,35.43506412154385],[-120.93958797042123,35.43452346479281],[-120.9393677680488,35.4345197055415],[-120.93937236155412,35.43433948663755],[-120.9376107479632,35.434309398382126],[-120.93761534534788,35.43412917967142],[-120.93651434062981,35.43411036159668],[-120.93651894042374,35.433930143004595],[-120.93607853980234,35.43392261301603],[-120.93607393902839,35.434102831558256],[-120.93585373828893,35.434099065937225],[-120.93585833955288,35.43391884741991],[-120.93519773904961,35.43390754822431],[-120.93520234174271,35.43372732977588],[-120.93476194259148,35.43371979502261],[-120.93475733891837,35.43390001342117],[-120.93453713891404,35.43389624541779],[-120.93453253471006,35.4340764637855],[-120.93431233425662,35.434072695355965],[-120.93430772952173,35.43425291369281],[-120.93408752861914,35.43424914483712],[-120.934096739028,35.43388870820739],[-120.9336563393055,35.43388116939214],[-120.93364252069082,35.43442182417819],[-120.93386272200168,35.43442559386126],[-120.93385811620502,35.434605812136404],[-120.93429851992937,35.434613350348805],[-120.93429391507188,35.43479356866793],[-120.9345141174854,35.43479733719723],[-120.93450951307706,35.43497755553539],[-120.93494991900675,35.434985091440204],[-120.9349453155376,35.43516530982233],[-120.9351655190538,35.43516907719783],[-120.93517012203291,35.434988858790774],[-120.93583073135652,35.435000158435095],[-120.93582152829764,35.43536059539288],[-120.93604173246727,35.435364361188384],[-120.93603713136659,35.43554457968334],[-120.93757856512772,35.43557092919165],[-120.93757396741655,35.43575114785509],[-120.93801437841005,35.435758672724695],[-120.93800978163819,35.43593889143204],[-120.9382299876862,35.435942653289864]],[[-120.93738594853242,35.43448585422461],[-120.93716574656796,35.43448209096106],[-120.93717034497348,35.43430187230606],[-120.93739054644794,35.4343056355447],[-120.93738594853242,35.43448585422461]],[[-120.93562893579552,35.434275518401435],[-120.93540873464772,35.43427175195304],[-120.93541333693256,35.43409153349151],[-120.93563353759032,35.43409529991497],[-120.93562893579552,35.434275518401435]]]},"properties":{"id":"nbs-usgs-d12d798a12","sector_id":"cambria-morro","tile":"BH4575BX","approx_display_area_m2":70800,"support_native_cells":4425,"display_cell_m":20,"measured_depth_ft_range":[30.6,52.8],"maximum_depth_with_uncertainty_and_margin_ft":63.7,"maximum_supplied_uncertainty_m":1.33,"nbs_raster_url":"https://noaa-ocs-nationalbathymetry-pds.s3.amazonaws.com/Test-and-Evaluation/Modeling/BH4575BX/Modeling_BH4575BX_20260702.tiff","nbs_raster_sha256":"4e95628ffcc1d939f0cbba443e3c0c211ff9f79d5fb1047568e4a6d41fdae696","usgs_sources":[{"release_id":"P9HEZNRO","archive_sha256":"0092b70907c2a1709e4c6f081c55dca44e496758a30ace86c2733edcb8b22ea5","metadata_url":"https://cmgds.marine.usgs.gov/data-releases/media/2022/10.5066-P9HEZNRO/99111880d0194352899672cd4d7690ac/SeafloorCharacter_OffshoreMorroBay_metadata.xml"},{"release_id":"P9ZSTUK1","archive_sha256":"1deb5eb5130e2d0aaf39d0b73bbb2841b4aaff50f0b85b7a2a4b22d7fe9ece3c","metadata_url":"https://cmgds.marine.usgs.gov/data-releases/media/2022/10.5066-P9ZSTUK1/0f75d175cc2046f38c45b6ac26a9be92/SeafloorCharacter_OffshorePointEstero_metadata.xml"}],"fishing_target":false,"exportable":false,"legal_clearance":false,"fish_confirmed":false,"depth_qualified_for_target":false}},{"type":"Feature","geometry":{"type":"Polygon","coordinates":[[[-120.95546685374002,35.44254629256591],[-120.95547597166467,35.44218585159146],[-120.95569619713822,35.442189582163635],[-120.95570987225098,35.44164892058366],[-120.95526942428572,35.44164145918609],[-120.95526486497484,35.44182167966927],[-120.95504464056268,35.441817948343775],[-120.95505376012441,35.44145750742091],[-120.95483353673319,35.44145377574346],[-120.95483809694356,35.44127355529787],[-120.95571898879051,35.44128847950084],[-120.95571443054098,35.441468700045206],[-120.95659532499619,35.44148361792549],[-120.95660443753312,35.441123176633404],[-120.95484265711346,35.44109333484637],[-120.95484721724287,35.44091311438899],[-120.95462699536272,35.4409093823843],[-120.95462243474311,35.44108960281699],[-120.95418199012387,35.4410821375542],[-120.9541865517239,35.44090191717091],[-120.95396632996521,35.44089818396225],[-120.95397089201491,35.440717963597756],[-120.95375067078692,35.440714230012446],[-120.95375979574523,35.440353789315196],[-120.95331935537152,35.44034632103946],[-120.95331479193224,35.4405265413416],[-120.95353501258903,35.44053027570485],[-120.95353044959944,35.440710496025815],[-120.95309000734598,35.44070302684857],[-120.9530991352454,35.44034258629961],[-120.95287891515981,35.44033885115843],[-120.95286978628002,35.44069929165795],[-120.95264956525459,35.440695556066004],[-120.95265413020493,35.44051533584392],[-120.9524339097102,35.44051159987538],[-120.95243847511021,35.440331379672116],[-120.95265869511476,35.44033511561594],[-120.95266325998406,35.440154895382044],[-120.95222282099586,35.440147423142534],[-120.95222738680498,35.4399672029522],[-120.95156673009716,35.43995599165725],[-120.95157129733627,35.4397757715352],[-120.95135107900494,35.439772033659004],[-120.95135564669366,35.4395918135558],[-120.95069499341338,35.43958059759353],[-120.95069042425415,35.4397608176225],[-120.95113086071413,35.43976829538148],[-120.95112629249468,35.43994851545404],[-120.95134651127566,35.4399522537563],[-120.95134194350584,35.4401324738477],[-120.95156216281754,35.44013621177339],[-120.9515530281366,35.44049665198796],[-120.95177324846921,35.44050038956179],[-120.95176868155811,35.44068060968497],[-120.95198890242143,35.440684346882215],[-120.95198433595998,35.440864567024214],[-120.95220455735404,35.44086830384488],[-120.95219999134225,35.441048524005694],[-120.95286065723816,35.44105973213386],[-120.95285609265643,35.44123995236296],[-120.95329653777006,35.44124742249118],[-120.95330110137135,35.44106720221265],[-120.95352132349873,35.441070936650036],[-120.95351676038764,35.44125115695329],[-120.95395720574429,35.4412586246735],[-120.95395264357309,35.44143884502028],[-120.9537324203843,35.44143511133613],[-120.95372785768238,35.441615331652294],[-120.95350763404389,35.44161159754209],[-120.95350307081128,35.44179181782765],[-120.9539435191092,35.44179928569612],[-120.9539389568165,35.44197950602519],[-120.95371873215707,35.441975772266915],[-120.95371416933364,35.442155992565375],[-120.95415461967347,35.44216345973],[-120.95415005779,35.44234368007198],[-120.95459050927226,35.44235114568061],[-120.95458594832876,35.4425313660661],[-120.95546685374002,35.44254629256591]],[[-120.95525574623161,35.44218212061793],[-120.95503552083903,35.44217838924304],[-120.95504008072109,35.44199816879635],[-120.95526030562345,35.44200190014655],[-120.95525574623161,35.44218212061793]],[[-120.95437940625688,35.441986972337695],[-120.95415918151643,35.441983239382125],[-120.95416374331892,35.441803019028335],[-120.95438396756911,35.44180675195922],[-120.95437940625688,35.441986972337695]]]},"properties":{"id":"nbs-usgs-f727b72bb0","sector_id":"cambria-morro","tile":"BH4575BX","approx_display_area_m2":44000,"support_native_cells":2750,"display_cell_m":20,"measured_depth_ft_range":[35.2,55.2],"maximum_depth_with_uncertainty_and_margin_ft":66.1,"maximum_supplied_uncertainty_m":1.34,"nbs_raster_url":"https://noaa-ocs-nationalbathymetry-pds.s3.amazonaws.com/Test-and-Evaluation/Modeling/BH4575BX/Modeling_BH4575BX_20260702.tiff","nbs_raster_sha256":"4e95628ffcc1d939f0cbba443e3c0c211ff9f79d5fb1047568e4a6d41fdae696","usgs_sources":[{"release_id":"P9HEZNRO","archive_sha256":"0092b70907c2a1709e4c6f081c55dca44e496758a30ace86c2733edcb8b22ea5","metadata_url":"https://cmgds.marine.usgs.gov/data-releases/media/2022/10.5066-P9HEZNRO/99111880d0194352899672cd4d7690ac/SeafloorCharacter_OffshoreMorroBay_metadata.xml"},{"release_id":"P9ZSTUK1","archive_sha256":"1deb5eb5130e2d0aaf39d0b73bbb2841b4aaff50f0b85b7a2a4b22d7fe9ece3c","metadata_url":"https://cmgds.marine.usgs.gov/data-releases/media/2022/10.5066-P9ZSTUK1/0f75d175cc2046f38c45b6ac26a9be92/SeafloorCharacter_OffshorePointEstero_metadata.xml"}],"fishing_target":false,"exportable":false,"legal_clearance":false,"fish_confirmed":false,"depth_qualified_for_target":false}},{"type":"Feature","geometry":{"type":"Polygon","coordinates":[[[-120.93510107305566,35.43769213427604],[-120.93511488358664,35.437151479285376],[-120.93467446581386,35.43714394358453],[-120.93467907022261,35.436963725292365],[-120.9344588618876,35.43695995686499],[-120.93446807156265,35.43659952031281],[-120.933587242552,35.43658444279035],[-120.93358263577464,35.4367646609696],[-120.93336242813413,35.43676089056091],[-120.93336703540157,35.436580672406606],[-120.93314682829201,35.43657690162162],[-120.93315143600863,35.43639668348636],[-120.93293122943004,35.436392912325076],[-120.9329358375958,35.43621269420886],[-120.93271563154819,35.4362089226713],[-120.9327248487371,35.43584848647107],[-120.9318440288762,35.435833396508116],[-120.931839418342,35.4360136145113],[-120.93161921298905,35.4360098409925],[-120.93161460192387,35.4361900589648],[-120.93139439612177,35.43618628501977],[-120.93139900767702,35.43600606707244],[-120.93029798173093,35.43598719145359],[-120.93029336772545,35.43616740927599],[-120.93051357332283,35.436171185227224],[-120.9305043461691,35.43653162090428],[-120.93116496614724,35.43654294650047],[-120.93116035397914,35.43672316440507],[-120.93138056121047,35.4367269388263],[-120.93137594949147,35.43690715674998],[-120.93225678078643,35.436922250522215],[-120.93225217098683,35.437102468539884],[-120.93269258785998,35.43711001306843],[-120.93268797899961,35.43729023113011],[-120.93290818798766,35.437294002817445],[-120.93290357957646,35.43747422089819],[-120.93312378909548,35.43747799220923],[-120.93311918113345,35.43765821030902],[-120.93510107305566,35.43769213427604]],[[-120.93423404820457,35.43713640627865],[-120.93401383946123,35.437132637023815],[-120.93401844534021,35.436952418806484],[-120.93423865359348,35.43695618803637],[-120.93423404820457,35.43713640627865]],[[-120.9324954255415,35.43620515073248],[-120.9322752195757,35.43620137839243],[-120.93227982917072,35.436021160345206],[-120.93250003464644,35.43602493266029],[-120.9324954255415,35.43620515073248]]]},"properties":{"id":"nbs-usgs-4d6a2dc243","sector_id":"cambria-morro","tile":"BH4575BX","approx_display_area_m2":41600,"support_native_cells":2600,"display_cell_m":20,"measured_depth_ft_range":[25.0,48.3],"maximum_depth_with_uncertainty_and_margin_ft":59.1,"maximum_supplied_uncertainty_m":1.3,"nbs_raster_url":"https://noaa-ocs-nationalbathymetry-pds.s3.amazonaws.com/Test-and-Evaluation/Modeling/BH4575BX/Modeling_BH4575BX_20260702.tiff","nbs_raster_sha256":"4e95628ffcc1d939f0cbba443e3c0c211ff9f79d5fb1047568e4a6d41fdae696","usgs_sources":[{"release_id":"P9HEZNRO","archive_sha256":"0092b70907c2a1709e4c6f081c55dca44e496758a30ace86c2733edcb8b22ea5","metadata_url":"https://cmgds.marine.usgs.gov/data-releases/media/2022/10.5066-P9HEZNRO/99111880d0194352899672cd4d7690ac/SeafloorCharacter_OffshoreMorroBay_metadata.xml"},{"release_id":"P9ZSTUK1","archive_sha256":"1deb5eb5130e2d0aaf39d0b73bbb2841b4aaff50f0b85b7a2a4b22d7fe9ece3c","metadata_url":"https://cmgds.marine.usgs.gov/data-releases/media/2022/10.5066-P9ZSTUK1/0f75d175cc2046f38c45b6ac26a9be92/SeafloorCharacter_OffshorePointEstero_metadata.xml"}],"fishing_target":false,"exportable":false,"legal_clearance":false,"fish_confirmed":false,"depth_qualified_for_target":false}},{"type":"Feature","geometry":{"type":"Polygon","coordinates":[[[-120.94262494412553,35.436378244626425],[-120.94262953068758,35.43619802540861],[-120.94284973808158,35.4362017788651],[-120.94285432411287,35.43602155961653],[-120.94307453105749,35.436025312646926],[-120.94307911655801,35.435845093367604],[-120.94285891010344,35.435841340362046],[-120.94286349605333,35.43566112110167],[-120.94308370201784,35.43566487408238],[-120.94308828743696,35.43548465479125],[-120.94264787652875,35.43547714847826],[-120.94264329012954,35.43565736771972],[-120.94220287840407,35.435649859752054],[-120.942212053122,35.43528942136263],[-120.94177164351966,35.43528191188942],[-120.94176705520094,35.43546213103737],[-120.9413266447814,35.43545461990948],[-120.94133123408021,35.43527440081124],[-120.94155143877957,35.43527815655094],[-120.94155602754758,35.435097937421936],[-120.94199643608842,35.43510544764792],[-120.94200102383562,35.43492522846329],[-120.94178082003488,35.43492147357577],[-120.94178540823138,35.434741254410085],[-120.9409045953959,35.43472623094709],[-120.94090918551183,35.43454601187494],[-120.94002837528838,35.43453098209175],[-120.94001919109557,35.4348914200312],[-120.93979898766156,35.43488766153259],[-120.93979439501396,35.435067880468566],[-120.94045500690842,35.43507915483534],[-120.94044582443121,35.435439592838826],[-120.94022561944556,35.435435835068056],[-120.94021643582519,35.43579627299817],[-120.94065684779751,35.43580378823793],[-120.94065225690632,35.435984007243874],[-120.94043205040971,35.43598024979974],[-120.94042745898773,35.436160468774894],[-120.94130828717881,35.43617549624339],[-120.94131287664057,35.43599527716878],[-120.94153308330014,35.43599903300792],[-120.94152849432844,35.436179252107394],[-120.94174870151883,35.436183007570136],[-120.94175329000045,35.436002788445805],[-120.94219370352326,35.43601029811784],[-120.94218452847953,35.43637073646],[-120.94262494412553,35.436378244626425]],[[-120.94155602754758,35.435097937421936],[-120.94133582333825,35.43509418170708],[-120.94134041255559,35.434913962597015],[-120.94156061627486,35.43491771828701],[-120.94155602754758,35.435097937421936]]]},"properties":{"id":"nbs-usgs-e00d57f04b","sector_id":"cambria-morro","tile":"BH4575BX","approx_display_area_m2":30400,"support_native_cells":1900,"display_cell_m":20,"measured_depth_ft_range":[38.5,50.8],"maximum_depth_with_uncertainty_and_margin_ft":61.6,"maximum_supplied_uncertainty_m":1.31,"nbs_raster_url":"https://noaa-ocs-nationalbathymetry-pds.s3.amazonaws.com/Test-and-Evaluation/Modeling/BH4575BX/Modeling_BH4575BX_20260702.tiff","nbs_raster_sha256":"4e95628ffcc1d939f0cbba443e3c0c211ff9f79d5fb1047568e4a6d41fdae696","usgs_sources":[{"release_id":"P9HEZNRO","archive_sha256":"0092b70907c2a1709e4c6f081c55dca44e496758a30ace86c2733edcb8b22ea5","metadata_url":"https://cmgds.marine.usgs.gov/data-releases/media/2022/10.5066-P9HEZNRO/99111880d0194352899672cd4d7690ac/SeafloorCharacter_OffshoreMorroBay_metadata.xml"},{"release_id":"P9ZSTUK1","archive_sha256":"1deb5eb5130e2d0aaf39d0b73bbb2841b4aaff50f0b85b7a2a4b22d7fe9ece3c","metadata_url":"https://cmgds.marine.usgs.gov/data-releases/media/2022/10.5066-P9ZSTUK1/0f75d175cc2046f38c45b6ac26a9be92/SeafloorCharacter_OffshorePointEstero_metadata.xml"}],"fishing_target":false,"exportable":false,"legal_clearance":false,"fish_confirmed":false,"depth_qualified_for_target":false}},{"type":"Feature","geometry":{"type":"Polygon","coordinates":[[[-120.95345743625701,35.443594020358546],[-120.95346656349193,35.443233579899584],[-120.95368679154254,35.443237314232206],[-120.95369135460896,35.44305709396915],[-120.95347112704863,35.44305335966125],[-120.95347569056482,35.442873139417024],[-120.95369591763492,35.4428768737002],[-120.95370048062037,35.44269665342535],[-120.9534802540405,35.442692919166866],[-120.95348481747567,35.44251269891083],[-120.95326459142655,35.4425089642757],[-120.95327828295969,35.441968303546325],[-120.95261760946751,35.44195709745534],[-120.95262673989501,35.44159665708789],[-120.95240651645909,35.44159292097099],[-120.95241108210227,35.441412700803156],[-120.95263130504797,35.44141643689534],[-120.95263587016042,35.44123621669684],[-120.95153475828822,35.441217532346265],[-120.95152562312074,35.44157797249],[-120.95130539988753,35.4415742343664],[-120.95132367202108,35.44085335415429],[-120.95000234523819,35.44083091757855],[-120.94999777432446,35.44101113749195],[-120.95021799584373,35.4410148779493],[-120.95020885487494,35.44137531780791],[-120.95086952261732,35.441386536920504],[-120.9508649535427,35.441566756915186],[-120.95108517669485,35.44157049584147],[-120.95108060806987,35.441750715855],[-120.95152105547619,35.44175819255302],[-120.95151648779111,35.44193841261013],[-120.95195693634007,35.44194588775225],[-120.95194780280912,35.442306327947705],[-120.9523882534811,35.44231380158337],[-120.9523836876353,35.442494021721714],[-120.95260391352232,35.44249775796223],[-120.95259478268959,35.442858198270656],[-120.95325546353524,35.44286940473247],[-120.9532372072664,35.44359028557513],[-120.95345743625701,35.443594020358546]],[[-120.95326002750116,35.44268918450704],[-120.95281957454401,35.4426817139833],[-120.9528241394499,35.442501493801416],[-120.95326459142655,35.4425089642757],[-120.95326002750116,35.44268918450704]],[[-120.95239281928642,35.44213358143913],[-120.95217259442038,35.4421298448467],[-120.95217716067535,35.441949624721296],[-120.95239738505117,35.44195336128899],[-120.95239281928642,35.44213358143913]],[[-120.9521817268898,35.44176940458998],[-120.95196150304473,35.44176566764567],[-120.95196606970885,35.44158544753318],[-120.95218629306372,35.44158918445276],[-120.9521817268898,35.44176940458998]],[[-120.9508740916514,35.4412063169199],[-120.95065386952024,35.44120257764178],[-120.95065843900396,35.44102235766004],[-120.95087866064492,35.441026096913404],[-120.9508740916514,35.4412063169199]]]},"properties":{"id":"nbs-usgs-7bc092d90c","sector_id":"cambria-morro","tile":"BH4575BX","approx_display_area_m2":25600,"support_native_cells":1600,"display_cell_m":20,"measured_depth_ft_range":[34.0,51.1],"maximum_depth_with_uncertainty_and_margin_ft":62.0,"maximum_supplied_uncertainty_m":1.32,"nbs_raster_url":"https://noaa-ocs-nationalbathymetry-pds.s3.amazonaws.com/Test-and-Evaluation/Modeling/BH4575BX/Modeling_BH4575BX_20260702.tiff","nbs_raster_sha256":"4e95628ffcc1d939f0cbba443e3c0c211ff9f79d5fb1047568e4a6d41fdae696","usgs_sources":[{"release_id":"P9HEZNRO","archive_sha256":"0092b70907c2a1709e4c6f081c55dca44e496758a30ace86c2733edcb8b22ea5","metadata_url":"https://cmgds.marine.usgs.gov/data-releases/media/2022/10.5066-P9HEZNRO/99111880d0194352899672cd4d7690ac/SeafloorCharacter_OffshoreMorroBay_metadata.xml"},{"release_id":"P9ZSTUK1","archive_sha256":"1deb5eb5130e2d0aaf39d0b73bbb2841b4aaff50f0b85b7a2a4b22d7fe9ece3c","metadata_url":"https://cmgds.marine.usgs.gov/data-releases/media/2022/10.5066-P9ZSTUK1/0f75d175cc2046f38c45b6ac26a9be92/SeafloorCharacter_OffshorePointEstero_metadata.xml"}],"fishing_target":false,"exportable":false,"legal_clearance":false,"fish_confirmed":false,"depth_qualified_for_target":false}},{"type":"Feature","geometry":{"type":"Polygon","coordinates":[[[-120.94362512319925,35.440361832050364],[-120.94362970820629,35.440181612838295],[-120.9438499265864,35.44018536483478],[-120.94385909549804,35.43982492634326],[-120.94363887809827,35.43982117439644],[-120.9436434629832,35.43964095516666],[-120.94408389684314,35.43964845860934],[-120.9440930645303,35.43928802003274],[-120.94431328054102,35.439291771102475],[-120.94430869720793,35.43947199041856],[-120.94452891374947,35.43947574111182],[-120.94453807939468,35.4391153024241],[-120.94431786383345,35.43911155178048],[-120.94432244708516,35.43893133245259],[-120.94476287726806,35.43893883328888],[-120.94476745949883,35.438758613905435],[-120.94454724487719,35.43875486371275],[-120.94455182755742,35.43857464434822],[-120.94389118540693,35.43856339143693],[-120.943882017065,35.43892383001112],[-120.94366180211595,35.43892007818845],[-120.9436663867974,35.43873985892914],[-120.9434461723792,35.438736106730005],[-120.94345075751008,35.43855588748961],[-120.94323054362268,35.438552134914026],[-120.94323971474259,35.43819169646519],[-120.9425790762654,35.43818043647976],[-120.94257448925545,35.43836065563259],[-120.9427947025306,35.4383644093872],[-120.94279011597004,35.438544628559],[-120.94256990220478,35.43854087477954],[-120.9425653151134,35.43872109392056],[-120.94278552936878,35.43872484772487],[-120.9427809427268,35.43890506688483],[-120.94300115751302,35.438908820312676],[-120.94299657132046,35.43908903949158],[-120.9427763560441,35.43908528603889],[-120.94276718255657,35.439445724329296],[-120.94254696634066,35.43944197042562],[-120.94253779170995,35.4398024086427],[-120.94275800890618,35.439806162596064],[-120.94274883509294,35.44016660083921],[-120.94296905331021,35.44017035444095],[-120.94297363974704,35.439990135297485],[-120.94341407532339,35.439997641247345],[-120.94340490436969,35.44035807962772],[-120.94362512319925,35.440361832050364]],[[-120.94364804782744,35.43946073593097],[-120.9432076151106,35.439453230932735],[-120.94322137233998,35.43891257333922],[-120.94344158720762,35.438916325964485],[-120.94343700199533,35.43909654519306],[-120.9436572173938,35.439100297441854],[-120.94364804782744,35.43946073593097]]]},"properties":{"id":"nbs-usgs-79f62b49c8","sector_id":"cambria-morro","tile":"BH4575BX","approx_display_area_m2":22800,"support_native_cells":1425,"display_cell_m":20,"measured_depth_ft_range":[25.1,45.7],"maximum_depth_with_uncertainty_and_margin_ft":56.5,"maximum_supplied_uncertainty_m":1.28,"nbs_raster_url":"https://noaa-ocs-nationalbathymetry-pds.s3.amazonaws.com/Test-and-Evaluation/Modeling/BH4575BX/Modeling_BH4575BX_20260702.tiff","nbs_raster_sha256":"4e95628ffcc1d939f0cbba443e3c0c211ff9f79d5fb1047568e4a6d41fdae696","usgs_sources":[{"release_id":"P9HEZNRO","archive_sha256":"0092b70907c2a1709e4c6f081c55dca44e496758a30ace86c2733edcb8b22ea5","metadata_url":"https://cmgds.marine.usgs.gov/data-releases/media/2022/10.5066-P9HEZNRO/99111880d0194352899672cd4d7690ac/SeafloorCharacter_OffshoreMorroBay_metadata.xml"},{"release_id":"P9ZSTUK1","archive_sha256":"1deb5eb5130e2d0aaf39d0b73bbb2841b4aaff50f0b85b7a2a4b22d7fe9ece3c","metadata_url":"https://cmgds.marine.usgs.gov/data-releases/media/2022/10.5066-P9ZSTUK1/0f75d175cc2046f38c45b6ac26a9be92/SeafloorCharacter_OffshorePointEstero_metadata.xml"}],"fishing_target":false,"exportable":false,"legal_clearance":false,"fish_confirmed":false,"depth_qualified_for_target":false}},{"type":"Feature","geometry":{"type":"Polygon","coordinates":[[[-120.97444150207797,35.450258477583176],[-120.97445053798734,35.44989803281577],[-120.97423028894539,35.4498943357577],[-120.97423932567521,35.449533891015655],[-120.97401907765423,35.44953019360502],[-120.9740235964494,35.449349971249625],[-120.973803348959,35.449346273462005],[-120.97380786820446,35.449166051125175],[-120.9744686093248,35.449177143210235],[-120.97445505588185,35.44971781042322],[-120.97467530447348,35.449721507055365],[-120.9746707870694,35.449901729472366],[-120.97489103619154,35.449905425727486],[-120.97490910360555,35.44918453592626],[-120.97468885644513,35.44918083976898],[-120.97470240805588,35.44864017242957],[-120.97426191679783,35.44863277905739],[-120.97427095296611,35.44827233423285],[-120.97361021932225,35.448261241310426],[-120.97360569978694,35.44844146365224],[-120.9738259447852,35.448445161718986],[-120.97381238740982,35.44898582878246],[-120.9729314017727,35.44897103381306],[-120.97292688060567,35.44915125605787],[-120.97314712744516,35.44915495542689],[-120.97313808597156,35.44951539994779],[-120.97335833383204,35.44951909896431],[-120.97335381352546,35.44969932124038],[-120.97357406191651,35.449703019879905],[-120.97356502216387,35.450063464463355],[-120.97422577052033,35.45007455811988],[-120.97422125205514,35.45025478047617],[-120.97444150207797,35.450258477583176]],[[-120.97401003994355,35.44989063829814],[-120.97378979098184,35.449886940437096],[-120.97379431034769,35.44970671811795],[-120.97401455881895,35.44971041595452],[-120.97401003994355,35.44989063829814]],[[-120.97357858173264,35.449522797579355],[-120.97335833383204,35.44951909896431],[-120.97336285409848,35.449338876682326],[-120.97358310150868,35.449342575272894],[-120.97357858173264,35.449522797579355]]]},"properties":{"id":"nbs-usgs-d0745df430","sector_id":"cambria-morro","tile":"BH4575BX","approx_display_area_m2":18000,"support_native_cells":1125,"display_cell_m":20,"measured_depth_ft_range":[48.0,62.2],"maximum_depth_with_uncertainty_and_margin_ft":73.3,"maximum_supplied_uncertainty_m":1.38,"nbs_raster_url":"https://noaa-ocs-nationalbathymetry-pds.s3.amazonaws.com/Test-and-Evaluation/Modeling/BH4575BX/Modeling_BH4575BX_20260702.tiff","nbs_raster_sha256":"4e95628ffcc1d939f0cbba443e3c0c211ff9f79d5fb1047568e4a6d41fdae696","usgs_sources":[{"release_id":"P9HEZNRO","archive_sha256":"0092b70907c2a1709e4c6f081c55dca44e496758a30ace86c2733edcb8b22ea5","metadata_url":"https://cmgds.marine.usgs.gov/data-releases/media/2022/10.5066-P9HEZNRO/99111880d0194352899672cd4d7690ac/SeafloorCharacter_OffshoreMorroBay_metadata.xml"},{"release_id":"P9ZSTUK1","archive_sha256":"1deb5eb5130e2d0aaf39d0b73bbb2841b4aaff50f0b85b7a2a4b22d7fe9ece3c","metadata_url":"https://cmgds.marine.usgs.gov/data-releases/media/2022/10.5066-P9ZSTUK1/0f75d175cc2046f38c45b6ac26a9be92/SeafloorCharacter_OffshorePointEstero_metadata.xml"}],"fishing_target":false,"exportable":false,"legal_clearance":false,"fish_confirmed":false,"depth_qualified_for_target":false}},{"type":"Feature","geometry":{"type":"Polygon","coordinates":[[[-120.96809231786405,35.43987474651759],[-120.96809684825908,35.43969452453594],[-120.9683170686789,35.43969823186265],[-120.96832612836795,35.439337787832585],[-120.96788568952924,35.439330372876],[-120.96789022029378,35.4391501509012],[-120.96744978259629,35.439142734388426],[-120.96745431430095,35.438962512456825],[-120.9670138777447,35.438955094387886],[-120.96701841038946,35.43877487249947],[-120.96679819266187,35.43877116288758],[-120.96678912635174,35.4391316066094],[-120.96656890768405,35.439127896547085],[-120.96657344134938,35.43894767471368],[-120.96635322321211,35.438943964274614],[-120.96635775732734,35.43876374245988],[-120.96591732215384,35.438756320426926],[-120.96590825192243,35.43911676395228],[-120.96546781494929,35.439109340215815],[-120.96545874259617,35.439469783619295],[-120.96633962062482,35.43948462968346],[-120.96633508634856,35.439664851474625],[-120.96677552658477,35.4396722721479],[-120.96677099324863,35.43985249398228],[-120.96721143462618,35.439859913099355],[-120.96721596698197,35.43967969121588],[-120.9674361872409,35.439683400147885],[-120.96743165537531,35.4398636220559],[-120.96765187616468,35.43986733061112],[-120.96765640754008,35.43968710867856],[-120.96787662787946,35.43969081680792],[-120.96787209699426,35.43987103876503],[-120.96809231786405,35.43987474651759]],[[-120.96655984023263,35.439488340196206],[-120.96633962062482,35.43948462968346],[-120.96634415486083,35.43930440788641],[-120.96656437397846,35.43930811837459],[-120.96655984023263,35.439488340196206]],[[-120.96634415486083,35.43930440788641],[-120.96612393578346,35.43930069699691],[-120.9661284704694,35.43912047521853],[-120.96634868905659,35.43912418608346],[-120.96634415486083,35.43930440788641]]]},"properties":{"id":"nbs-usgs-a84d0078ad","sector_id":"cambria-morro","tile":"BH4575BX","approx_display_area_m2":17600,"support_native_cells":1100,"display_cell_m":20,"measured_depth_ft_range":[63.8,73.2],"maximum_depth_with_uncertainty_and_margin_ft":84.5,"maximum_supplied_uncertainty_m":1.45,"nbs_raster_url":"https://noaa-ocs-nationalbathymetry-pds.s3.amazonaws.com/Test-and-Evaluation/Modeling/BH4575BX/Modeling_BH4575BX_20260702.tiff","nbs_raster_sha256":"4e95628ffcc1d939f0cbba443e3c0c211ff9f79d5fb1047568e4a6d41fdae696","usgs_sources":[{"release_id":"P9HEZNRO","archive_sha256":"0092b70907c2a1709e4c6f081c55dca44e496758a30ace86c2733edcb8b22ea5","metadata_url":"https://cmgds.marine.usgs.gov/data-releases/media/2022/10.5066-P9HEZNRO/99111880d0194352899672cd4d7690ac/SeafloorCharacter_OffshoreMorroBay_metadata.xml"},{"release_id":"P9ZSTUK1","archive_sha256":"1deb5eb5130e2d0aaf39d0b73bbb2841b4aaff50f0b85b7a2a4b22d7fe9ece3c","metadata_url":"https://cmgds.marine.usgs.gov/data-releases/media/2022/10.5066-P9ZSTUK1/0f75d175cc2046f38c45b6ac26a9be92/SeafloorCharacter_OffshorePointEstero_metadata.xml"}],"fishing_target":false,"exportable":false,"legal_clearance":false,"fish_confirmed":false,"depth_qualified_for_target":false}}]}
