{"type":"FeatureCollection","schema_version":1,"scope":"central-nbs-usgs-hard-research-context","coast_id":"central","compiled_at":"2026-09-24T07:39:59.949115+00:00","source_review":"data/nbs-central-usgs-hard-overlap-review.json","mpa_screened_at":"2026-09-23T22:30:59Z","federal_screened_at":"2026-09-23T22:56:33.483262+00:00","minimum_component_area_m2":2500,"maximum_displayed_per_tile":10,"maximum_screen_uncertainty_m":1.0,"sector_ids":["morro-conception"],"omitted_smaller_or_lower_ranked_components":0,"method":"Original 2 m USGS class-3 pixels sampled at NOAA NBS 4 m measured-contributor cells; 25\u2013200 ft MLLW with supplied uncertainty <=1.0 m and 2 m planning margin; complete 100 m MPA/GEA buffers. Each displayed 20 m square requires all 25 underlying 4 m cells to pass; largest connected components only.","limitations":["Research context even where uncertainty passes the 1 m depth screen; a target requires many more gates.","Historical USGS classes and compiled NBS cells are not independent confirmations of fish, recent bottom stability or catch success.","Original NBS contributor provenance, present chart hazards, routes, species rules and access need review before any point or export.","No fishing target, legal clearance or navigation claim; recheck current MPA and GEA boundaries."],"features":[{"type":"Feature","geometry":{"type":"Polygon","coordinates":[[[-120.56405075849976,34.54127981183493],[-120.56414530009394,34.5380362295859],[-120.56392754140637,34.538031883362045],[-120.56392228902361,34.53821208239802],[-120.56348677085167,34.538203388728675],[-120.56348151748551,34.53838358770042],[-120.56217496127901,34.5383574972101],[-120.56216970505594,34.53853769600116],[-120.56195194538313,34.538533346199614],[-120.56194668864497,34.538713544955506],[-120.56172892855047,34.53870919473703],[-120.56172367129726,34.53888939345777],[-120.56150591078105,34.538885042822336],[-120.56151116850263,34.53870484413073],[-120.55998684947517,34.53867437902758],[-120.55998158847486,34.53885457751525],[-120.56041710890025,34.538863283827816],[-120.56041184879005,34.53904348236773],[-120.56084737033905,34.539052187187295],[-120.56084211111892,34.53923238577946],[-120.56127763379146,34.53924108910597],[-120.56127237546143,34.53942128775038],[-120.56170789925756,34.53942998958383],[-120.56170264181763,34.539610188280456],[-120.56148487942782,34.53960583752852],[-120.5614796214728,34.53978603618998],[-120.56191514723591,34.539794737364275],[-120.56192040425411,34.53961453864455],[-120.56213816673728,34.53961888862082],[-120.56213291018749,34.53979908736966],[-120.56235067318576,34.53980343698721],[-120.5623454170577,34.53998363575915],[-120.56212765359103,34.539979286112484],[-120.56212239694788,34.54015948484926],[-120.56234016088297,34.540163834525046],[-120.56233490466158,34.540344033284924],[-120.56255266911175,34.540348382601984],[-120.56254741331212,34.54052858138495],[-120.56276517827736,34.54053293034328],[-120.56275992289949,34.540713129149324],[-120.56319545390687,34.540721825960645],[-120.5631901994192,34.54090202481889],[-120.56340796546131,34.54090637267187],[-120.56340271139543,34.541086571553194],[-120.56362047795264,34.541090919047434],[-120.56361522430855,34.54127111795183],[-120.56405075849976,34.54127981183493]]]},"properties":{"id":"nbs-usgs-24bdd5fe78","sector_id":"morro-conception","tile":"BH45D5BJ","approx_display_area_m2":62000,"support_native_cells":3875,"display_cell_m":20,"measured_depth_ft_range":[25.4,44.4],"maximum_depth_with_uncertainty_and_margin_ft":51.8,"maximum_supplied_uncertainty_m":0.28,"nbs_raster_url":"https://noaa-ocs-nationalbathymetry-pds.s3.amazonaws.com/Test-and-Evaluation/Modeling/BH45D5BJ/Modeling_BH45D5BJ_20260629.tiff","nbs_raster_sha256":"e38d71dc9cbf47ee04e8f91dce01915e3a11366d917d33df7c9a8480d1f4563f","usgs_sources":[{"release_id":"F7QN64XQ","archive_sha256":"c5faa08e5162cf09401fa07976333487626a0e2d8732b4e112255b3a8c5733fb","metadata_url":"https://cmgds.marine.usgs.gov/data/csmp/OffshorePointConception/metadata/SeafloorCharacter_OffshorePointConception_metadata.xml"}],"fishing_target":false,"exportable":false,"legal_clearance":false,"fish_confirmed":false,"depth_qualified_for_target":false}},{"type":"Feature","geometry":{"type":"Polygon","coordinates":[[[-120.53619291994045,34.53278728533925],[-120.53619823099841,34.53260708988595],[-120.536633711128,34.53261587963306],[-120.53663902120242,34.53243568411487],[-120.53620354200922,34.53242689442661],[-120.53620885297289,34.53224669896123],[-120.53599111391524,34.53224230356496],[-120.53600173663747,34.53188191267493],[-120.53578399856336,34.53187751694982],[-120.53578931032193,34.53169732152517],[-120.53557157276319,34.531692925441796],[-120.53556626053641,34.53187312083701],[-120.53534852255665,34.531868724336505],[-120.53535914789938,34.531508333598886],[-120.53448820019752,34.531490743955416],[-120.534482885677,34.531670939209484],[-120.53470062299989,34.53167533723133],[-120.53469530890038,34.53185553250879],[-120.53513078462404,34.5318643274483],[-120.53512015815623,34.53222471810285],[-120.53533789702524,34.532229115049944],[-120.53533258418878,34.53240931039759],[-120.53555032357313,34.53241370698639],[-120.53554501115772,34.53259390235745],[-120.53598049100435,34.53260269443082],[-120.53597517947816,34.532782889854694],[-120.53619291994045,34.53278728533925]]]},"properties":{"id":"nbs-usgs-36d437d471","sector_id":"morro-conception","tile":"BH45D5BJ","approx_display_area_m2":10400,"support_native_cells":650,"display_cell_m":20,"measured_depth_ft_range":[25.6,35.9],"maximum_depth_with_uncertainty_and_margin_ft":43.3,"maximum_supplied_uncertainty_m":0.28,"nbs_raster_url":"https://noaa-ocs-nationalbathymetry-pds.s3.amazonaws.com/Test-and-Evaluation/Modeling/BH45D5BJ/Modeling_BH45D5BJ_20260629.tiff","nbs_raster_sha256":"e38d71dc9cbf47ee04e8f91dce01915e3a11366d917d33df7c9a8480d1f4563f","usgs_sources":[{"release_id":"F7QN64XQ","archive_sha256":"c5faa08e5162cf09401fa07976333487626a0e2d8732b4e112255b3a8c5733fb","metadata_url":"https://cmgds.marine.usgs.gov/data/csmp/OffshorePointConception/metadata/SeafloorCharacter_OffshorePointConception_metadata.xml"}],"fishing_target":false,"exportable":false,"legal_clearance":false,"fish_confirmed":false,"depth_qualified_for_target":false}},{"type":"Feature","geometry":{"type":"Polygon","coordinates":[[[-120.52659723343446,34.525741723646064],[-120.52660789404366,34.52538133492744],[-120.5263901744322,34.52537692317781],[-120.52639550513382,34.52519672883898],[-120.52661322427727,34.525201140559055],[-120.52661855446355,34.52502094618463],[-120.5268362731863,34.52502535748759],[-120.52682561370246,34.525385746289466],[-120.52704333340859,34.5253901572639],[-120.52704866270614,34.52520996283645],[-120.52726638199158,34.52521437339376],[-120.52727171077377,34.52503417893073],[-120.52705399195636,34.52502976840296],[-120.52705932115929,34.52484957396341],[-120.52684160285723,34.52484516307758],[-120.5268575915861,34.524304579811265],[-120.526422157932,34.52429575705407],[-120.526416827467,34.524475951423135],[-120.52598139306622,34.52446712705654],[-120.52597606161791,34.52464732136047],[-120.52619377926263,34.52465173376712],[-120.52616712365102,34.525552705343834],[-120.5263848436832,34.52555711751061],[-120.52637951288693,34.525737311837354],[-120.52659723343446,34.525741723646064]]]},"properties":{"id":"nbs-usgs-485a17468d","sector_id":"morro-conception","tile":"BH45D5BJ","approx_display_area_m2":8800,"support_native_cells":550,"display_cell_m":20,"measured_depth_ft_range":[42.3,50.3],"maximum_depth_with_uncertainty_and_margin_ft":57.7,"maximum_supplied_uncertainty_m":0.28,"nbs_raster_url":"https://noaa-ocs-nationalbathymetry-pds.s3.amazonaws.com/Test-and-Evaluation/Modeling/BH45D5BJ/Modeling_BH45D5BJ_20260629.tiff","nbs_raster_sha256":"e38d71dc9cbf47ee04e8f91dce01915e3a11366d917d33df7c9a8480d1f4563f","usgs_sources":[{"release_id":"F7QN64XQ","archive_sha256":"c5faa08e5162cf09401fa07976333487626a0e2d8732b4e112255b3a8c5733fb","metadata_url":"https://cmgds.marine.usgs.gov/data/csmp/OffshorePointConception/metadata/SeafloorCharacter_OffshorePointConception_metadata.xml"}],"fishing_target":false,"exportable":false,"legal_clearance":false,"fish_confirmed":false,"depth_qualified_for_target":false}},{"type":"Feature","geometry":{"type":"Polygon","coordinates":[[[-120.52574768004581,34.52500329709691],[-120.52575301205682,34.524823102834596],[-120.52553529403876,34.524818689623245],[-120.52554062647046,34.524638495384444],[-120.5257583440205,34.52464290856624],[-120.52576367593682,34.52446271429186],[-120.52554595885479,34.524458301139596],[-120.52555129119179,34.52427810688871],[-120.52533357462507,34.52427369337841],[-120.52532290896772,34.52463408181505],[-120.52510519151238,34.524629667858065],[-120.52509452472961,34.52499005621141],[-120.52574768004581,34.52500329709691]]]},"properties":{"id":"nbs-usgs-1de26f95f9","sector_id":"morro-conception","tile":"BH45D5BJ","approx_display_area_m2":3200,"support_native_cells":200,"display_cell_m":20,"measured_depth_ft_range":[38.4,44.0],"maximum_depth_with_uncertainty_and_margin_ft":51.4,"maximum_supplied_uncertainty_m":0.26,"nbs_raster_url":"https://noaa-ocs-nationalbathymetry-pds.s3.amazonaws.com/Test-and-Evaluation/Modeling/BH45D5BJ/Modeling_BH45D5BJ_20260629.tiff","nbs_raster_sha256":"e38d71dc9cbf47ee04e8f91dce01915e3a11366d917d33df7c9a8480d1f4563f","usgs_sources":[{"release_id":"F7QN64XQ","archive_sha256":"c5faa08e5162cf09401fa07976333487626a0e2d8732b4e112255b3a8c5733fb","metadata_url":"https://cmgds.marine.usgs.gov/data/csmp/OffshorePointConception/metadata/SeafloorCharacter_OffshorePointConception_metadata.xml"}],"fishing_target":false,"exportable":false,"legal_clearance":false,"fish_confirmed":false,"depth_qualified_for_target":false}}]}
