{"type":"FeatureCollection","schema_version":1,"scope":"southern-native-noaa-usgs-hard-bottom-context","compiled_at":"2026-09-24T01:36:40.136452+00:00","coast_id":"southern","source_review":"data/gaviota-native-hard-review-summary.json","mpa_screened_at":"2026-09-23T22:30:59Z","federal_screened_at":"2026-09-23T22:56:33.483262+00:00","method":"Historical original NOAA BAG 1\u20132 m MLLW depth and supplied uncertainty intersected with original USGS hard class; survey hazards, complete current MPAs and GEAs screened with 100 m planning clearance. Display geometry simplified inward and overlap removed.","limitations":["Historical seabed context only; current fish presence, exact legal access, YRCA applicability, charts, hazards and route remain unverified.","No fishing targets, score contribution, drifts or chartplotter exports.","The MPA and GEA screen is a compilation-time snapshot; recheck current boundaries and rules."],"features":[{"type":"Feature","geometry":{"type":"MultiPolygon","coordinates":[[[[-120.39639008421256,34.43479656609226],[-120.39639005625382,34.4347974669864],[-120.39638659860547,34.434803703749516],[-120.39638545537551,34.43480548237248],[-120.3963843680631,34.43480545920719],[-120.39637787214755,34.43480441932107],[-120.39637678483516,34.4348043961557],[-120.39636920160743,34.43480333310374],[-120.39636485235799,34.43480324044191],[-120.39635726913056,34.434802177389244],[-120.39635618181822,34.434802154223696],[-120.39635509450589,34.434802131058134],[-120.396355122465,34.43480123016403],[-120.39634536461331,34.434800120779485],[-120.39633666611489,34.43479993545399],[-120.39632905492887,34.434799773293676],[-120.39632144374289,34.43479961113289],[-120.39631600718153,34.434799495303466],[-120.39636808942336,34.43476905279637],[-120.39639008421256,34.43479656609226]]],[[[-120.3956250580683,34.435116520384845],[-120.39562388685064,34.43511919989321],[-120.39561638750948,34.43511543411311],[-120.395618562141,34.43511548045772],[-120.3956250580683,34.435116520384845]]]]},"properties":{"id":"native-hard-H11951-1210","survey_id":"H11951","depth_ft_range":[59.1,94.5],"max_product_uncertainty_m":0.293,"approx_display_area_m2":14,"native_resolution_m":[2.0,2.0],"survey_dates":["2008-08-15T00:00:00","2008-09-04T00:00:00"],"noaa_bag_url":"https://data.ngdc.noaa.gov/platforms/ocean/nos/coast/H10001-H12000/H11951/BAG/H11951_MB_2m_MLLW_2of5.bag","noaa_bag_sha256":"471111622cd997881fa0da1abcdfee40f2149e3846f91c7af30d178a4052004d","survey_report_url":"https://data.ngdc.noaa.gov/platforms/ocean/nos/coast/H10001-H12000/H11951/DR/H11951.pdf","usgs_metadata_urls":["https://cmgds.marine.usgs.gov/data/csmp/OffshorePointConception/metadata/SeafloorCharacter_OffshorePointConception_metadata.xml","https://cmgds.marine.usgs.gov/data/csmp/OffshoreGaviota/metadata/SeafloorCharacter_OffshoreGaviota_metadata.xml"],"fishing_target":false,"exportable":false,"legal_clearance":false,"fish_confirmed":false,"depth_qualified_for_target":false}},{"type":"Feature","geometry":{"type":"MultiPolygon","coordinates":[[[[-120.37687813255762,34.42955275327099],[-120.37686235403699,34.429639858684304],[-120.3767605488538,34.42962505274301],[-120.37674214464543,34.429552538883144],[-120.37687813255762,34.42955275327099]]],[[[-120.37799565541123,34.42951182707541],[-120.37783343997796,34.42958497302813],[-120.37792357123176,34.42948594042946],[-120.37799621842231,34.42949380944194],[-120.37799565541123,34.42951182707541]]],[[[-120.38144358269614,34.43016811143051],[-120.38129452827165,34.43034251048917],[-120.38127093682365,34.43026177269339],[-120.38127537013395,34.43025916322954],[-120.38128089068435,34.43025657706244],[-120.3812830932812,34.4302557227723],[-120.38128861383117,34.43025313660483],[-120.38129193178419,34.43025140472743],[-120.38135829081641,34.430216767159024],[-120.38137156261645,34.43020983964069],[-120.38137819851566,34.430206375880935],[-120.38138377528954,34.43020198794083],[-120.38140608237907,34.43018443617755],[-120.38141165915,34.43018004823601],[-120.38141617679548,34.4301747361145],[-120.38142295326256,34.430166767931844],[-120.38144358269614,34.43016811143051]]]]},"properties":{"id":"native-hard-H11951-2460","survey_id":"H11951","depth_ft_range":[83.1,112.2],"max_product_uncertainty_m":0.318,"approx_display_area_m2":235,"native_resolution_m":[2.0,2.0],"survey_dates":["2008-08-15T00:00:00","2008-09-04T00:00:00"],"noaa_bag_url":"https://data.ngdc.noaa.gov/platforms/ocean/nos/coast/H10001-H12000/H11951/BAG/H11951_MB_2m_MLLW_2of5.bag","noaa_bag_sha256":"471111622cd997881fa0da1abcdfee40f2149e3846f91c7af30d178a4052004d","survey_report_url":"https://data.ngdc.noaa.gov/platforms/ocean/nos/coast/H10001-H12000/H11951/DR/H11951.pdf","usgs_metadata_urls":["https://cmgds.marine.usgs.gov/data/csmp/OffshorePointConception/metadata/SeafloorCharacter_OffshorePointConception_metadata.xml","https://cmgds.marine.usgs.gov/data/csmp/OffshoreGaviota/metadata/SeafloorCharacter_OffshoreGaviota_metadata.xml"],"fishing_target":false,"exportable":false,"legal_clearance":false,"fish_confirmed":false,"depth_qualified_for_target":false}},{"type":"Feature","geometry":{"type":"MultiPolygon","coordinates":[[[[-120.37333116625987,34.43286164487812],[-120.37332784804994,34.432863376526306],[-120.37332232710119,34.432865962313805],[-120.37331569068056,34.43286942560956],[-120.37330905425935,34.432872888904924],[-120.37330347690053,34.432877276447066],[-120.37329232218114,34.43288605153053],[-120.37328674482058,34.43289043907183],[-120.3732822265223,34.4328957508602],[-120.37327770822343,34.43290106264837],[-120.37327430539652,34.43290549692825],[-120.37326975889174,34.43291170959382],[-120.37326749974156,34.43291436548766],[-120.37326406870861,34.43291970064494],[-120.37326178135304,34.43292325741639],[-120.37325832211434,34.43292949345121],[-120.37325717843632,34.43293127183689],[-120.37325500390027,34.432931225097214],[-120.37320800484386,34.43276434183359],[-120.37333116625987,34.43286164487812]]],[[[-120.37300798386876,34.43258515444622],[-120.3730025193448,34.43258593846452],[-120.3729937930307,34.43258665236674],[-120.37298612577229,34.432588290517955],[-120.37298174851128,34.43258909790734],[-120.37297516851581,34.43259075942991],[-120.37297076304691,34.43259246769648],[-120.37296978861444,34.43258884081397],[-120.37296678069426,34.43258066279914],[-120.37296371635905,34.43257428653943],[-120.37296165466397,34.43257063628464],[-120.37295856212165,34.4325651609024],[-120.37295647221914,34.43256241152511],[-120.37295232062242,34.43255601189287],[-120.3729491998733,34.43255143738802],[-120.3729450200697,34.43254593863314],[-120.37294084026661,34.43254043987815],[-120.37293554499338,34.43253581862816],[-120.37292495444873,34.43252657612756],[-120.37291965917727,34.432521954876954],[-120.37291324843575,34.432518211131054],[-120.37290683769483,34.432514467384856],[-120.37290148600839,34.43251164788863],[-120.3728939880063,34.432507880769045],[-120.37289078263659,34.43250600889551],[-120.37288434368908,34.43250316602575],[-120.37288005105768,34.43250127077906],[-120.37287252484884,34.43249840453577],[-120.37286282411647,34.432495491545914],[-120.37285526969993,34.43249352617913],[-120.37284880254576,34.432491584185094],[-120.37284556896881,34.43249061318796],[-120.37292488017769,34.432424706844735],[-120.37320047772307,34.43237924636986],[-120.37319988541708,34.43239816480327],[-120.37313208035184,34.43240932813173],[-120.3731266158402,34.432410112156184],[-120.37311894860021,34.43241175031664],[-120.37311128135994,34.432413388476604],[-120.37310249865206,34.432415904142886],[-120.37309368773748,34.43241932068621],[-120.3730859640835,34.432422760599906],[-120.37308044315795,34.43242534637763],[-120.37307380676427,34.43242880966161],[-120.37306717037006,34.4324322729452],[-120.37306053397532,34.43243573622839],[-120.37305495663486,34.43244012376021],[-120.3730493792938,34.43244451129176],[-120.37304380195218,34.432448898823004],[-120.37303259085334,34.43245947563995],[-120.37302807256464,34.43246478741957],[-120.37302355427535,34.432470099199],[-120.37302012324741,34.4324754343499],[-120.37301666401189,34.432481670378316],[-120.37301320477584,34.43248790640659],[-120.37300968912484,34.432495944190016],[-120.37300731714987,34.432502203589834],[-120.3730049451745,34.43250846298958],[-120.37300248857687,34.432517425022134],[-120.37300120386318,34.43252370779361],[-120.37299980631987,34.432533594075515],[-120.37299958066104,34.43254080109642],[-120.37300035764287,34.43255073412205],[-120.37300127566162,34.43255616275961],[-120.37300216547312,34.43256249227477],[-120.37300308349207,34.43256792091231],[-120.3730040015111,34.432573349549855],[-120.37300597858614,34.43257970243686],[-120.37300798386876,34.43258515444622]]],[[[-120.37261893264524,34.4327444667686],[-120.37246451491004,34.43281146254051],[-120.37258964591466,34.43270687628506],[-120.37260845495952,34.43273162073201],[-120.37261263474876,34.432737119497666],[-120.3726168145385,34.43274261826319],[-120.37261893264524,34.4327444667686]]],[[[-120.3734957213432,34.43212326021286],[-120.37349460588383,34.43212413772366],[-120.37349454948061,34.432125939479725],[-120.37349452127899,34.43212684035777],[-120.37347182987438,34.432121845253526],[-120.37347088362596,34.432117317495994],[-120.3734957213432,34.43212326021286]]]]},"properties":{"id":"native-hard-H11951-2024","survey_id":"H11951","depth_ft_range":[66.4,84.7],"max_product_uncertainty_m":0.276,"approx_display_area_m2":337,"native_resolution_m":[2.0,2.0],"survey_dates":["2008-08-15T00:00:00","2008-09-04T00:00:00"],"noaa_bag_url":"https://data.ngdc.noaa.gov/platforms/ocean/nos/coast/H10001-H12000/H11951/BAG/H11951_MB_2m_MLLW_2of5.bag","noaa_bag_sha256":"471111622cd997881fa0da1abcdfee40f2149e3846f91c7af30d178a4052004d","survey_report_url":"https://data.ngdc.noaa.gov/platforms/ocean/nos/coast/H10001-H12000/H11951/DR/H11951.pdf","usgs_metadata_urls":["https://cmgds.marine.usgs.gov/data/csmp/OffshorePointConception/metadata/SeafloorCharacter_OffshorePointConception_metadata.xml","https://cmgds.marine.usgs.gov/data/csmp/OffshoreGaviota/metadata/SeafloorCharacter_OffshoreGaviota_metadata.xml"],"fishing_target":false,"exportable":false,"legal_clearance":false,"fish_confirmed":false,"depth_qualified_for_target":false}},{"type":"Feature","geometry":{"type":"MultiPolygon","coordinates":[[[[-120.38951036574375,34.4327368417105],[-120.38949240710537,34.43292937657932],[-120.38944464056752,34.43282107912929],[-120.38951036574375,34.4327368417105]]],[[[-120.3913246562719,34.431948016320014],[-120.39133698038283,34.43193656003215],[-120.3913344137011,34.43194912608807],[-120.3913246562719,34.431948016320014]]]]},"properties":{"id":"native-hard-H11951-1995","survey_id":"H11951","depth_ft_range":[70.1,104.7],"max_product_uncertainty_m":0.28,"approx_display_area_m2":57,"native_resolution_m":[2.0,2.0],"survey_dates":["2008-08-15T00:00:00","2008-09-04T00:00:00"],"noaa_bag_url":"https://data.ngdc.noaa.gov/platforms/ocean/nos/coast/H10001-H12000/H11951/BAG/H11951_MB_2m_MLLW_2of5.bag","noaa_bag_sha256":"471111622cd997881fa0da1abcdfee40f2149e3846f91c7af30d178a4052004d","survey_report_url":"https://data.ngdc.noaa.gov/platforms/ocean/nos/coast/H10001-H12000/H11951/DR/H11951.pdf","usgs_metadata_urls":["https://cmgds.marine.usgs.gov/data/csmp/OffshorePointConception/metadata/SeafloorCharacter_OffshorePointConception_metadata.xml","https://cmgds.marine.usgs.gov/data/csmp/OffshoreGaviota/metadata/SeafloorCharacter_OffshoreGaviota_metadata.xml"],"fishing_target":false,"exportable":false,"legal_clearance":false,"fish_confirmed":false,"depth_qualified_for_target":false}},{"type":"Feature","geometry":{"type":"MultiPolygon","coordinates":[[[[-120.37352410433711,34.43086900417921],[-120.3734433478252,34.43077261274099],[-120.37351938568781,34.4308112077743],[-120.37352410433711,34.43086900417921]]],[[[-120.37260743797184,34.43057524923065],[-120.37260414805147,34.43057607998558],[-120.37259759642014,34.4305768406176],[-120.37258992934206,34.43057847875249],[-120.3725822622637,34.43058011688689],[-120.37257802615501,34.43057641987868],[-120.37258748571254,34.43055228317876],[-120.37260743797184,34.43057524923065]]]]},"properties":{"id":"native-hard-H11951-2322","survey_id":"H11951","depth_ft_range":[68.8,94.1],"max_product_uncertainty_m":0.293,"approx_display_area_m2":26,"native_resolution_m":[2.0,2.0],"survey_dates":["2008-08-15T00:00:00","2008-09-04T00:00:00"],"noaa_bag_url":"https://data.ngdc.noaa.gov/platforms/ocean/nos/coast/H10001-H12000/H11951/BAG/H11951_MB_2m_MLLW_2of5.bag","noaa_bag_sha256":"471111622cd997881fa0da1abcdfee40f2149e3846f91c7af30d178a4052004d","survey_report_url":"https://data.ngdc.noaa.gov/platforms/ocean/nos/coast/H10001-H12000/H11951/DR/H11951.pdf","usgs_metadata_urls":["https://cmgds.marine.usgs.gov/data/csmp/OffshorePointConception/metadata/SeafloorCharacter_OffshorePointConception_metadata.xml","https://cmgds.marine.usgs.gov/data/csmp/OffshoreGaviota/metadata/SeafloorCharacter_OffshoreGaviota_metadata.xml"],"fishing_target":false,"exportable":false,"legal_clearance":false,"fish_confirmed":false,"depth_qualified_for_target":false}},{"type":"Feature","geometry":{"type":"MultiPolygon","coordinates":[[[[-120.29224156135602,34.44866311835733],[-120.29218547103319,34.4486140978206],[-120.29224723813378,34.44858842293614],[-120.29228556995571,34.44861451336096],[-120.29228110399448,34.4486180202276],[-120.29227552154246,34.44862240381065],[-120.29226882259925,34.44862766410993],[-120.29226432754555,34.448632071791806],[-120.29226091989102,34.448636503572985],[-120.29225639574518,34.44864181207045],[-120.29225298808981,34.44864624385135],[-120.29224843485166,34.44865245316436],[-120.2922438816128,34.448658662477165],[-120.29224156135602,34.44866311835733]]],[[[-120.29295049855598,34.449927351379635],[-120.29296565768219,34.44999709973556],[-120.29293380262348,34.45000630998255],[-120.29292339381176,34.44999165597939],[-120.29292453940056,34.44998987844137],[-120.29292909266987,34.44998366910543],[-120.29293135476155,34.44998101484548],[-120.29293479152686,34.449975682231155],[-120.29293825737703,34.44996944880046],[-120.2929406067239,34.449964092091626],[-120.29294298515575,34.44995783456651],[-120.29294536358718,34.449951577041325],[-120.29294782927383,34.44994261706735],[-120.29294912028729,34.44993633544786],[-120.29295049855598,34.449927351379635]]]]},"properties":{"id":"native-hard-H11951-58","survey_id":"H11951","depth_ft_range":[76.3,84.8],"max_product_uncertainty_m":0.863,"approx_display_area_m2":52,"native_resolution_m":[2.0,2.0],"survey_dates":["2008-08-15T00:00:00","2008-09-04T00:00:00"],"noaa_bag_url":"https://data.ngdc.noaa.gov/platforms/ocean/nos/coast/H10001-H12000/H11951/BAG/H11951_MB_2m_MLLW_2of5.bag","noaa_bag_sha256":"471111622cd997881fa0da1abcdfee40f2149e3846f91c7af30d178a4052004d","survey_report_url":"https://data.ngdc.noaa.gov/platforms/ocean/nos/coast/H10001-H12000/H11951/DR/H11951.pdf","usgs_metadata_urls":["https://cmgds.marine.usgs.gov/data/csmp/OffshorePointConception/metadata/SeafloorCharacter_OffshorePointConception_metadata.xml","https://cmgds.marine.usgs.gov/data/csmp/OffshoreGaviota/metadata/SeafloorCharacter_OffshoreGaviota_metadata.xml"],"fishing_target":false,"exportable":false,"legal_clearance":false,"fish_confirmed":false,"depth_qualified_for_target":false}},{"type":"Feature","geometry":{"type":"Polygon","coordinates":[[[-120.29108291625437,34.44973270842972],[-120.29107711940368,34.449710043393964],[-120.29109645999034,34.44971768390352],[-120.29108291625437,34.44973270842972]]]},"properties":{"id":"native-hard-H11951-44","survey_id":"H11951","depth_ft_range":[73.3,80.5],"max_product_uncertainty_m":0.273,"approx_display_area_m2":2,"native_resolution_m":[2.0,2.0],"survey_dates":["2008-08-15T00:00:00","2008-09-04T00:00:00"],"noaa_bag_url":"https://data.ngdc.noaa.gov/platforms/ocean/nos/coast/H10001-H12000/H11951/BAG/H11951_MB_2m_MLLW_2of5.bag","noaa_bag_sha256":"471111622cd997881fa0da1abcdfee40f2149e3846f91c7af30d178a4052004d","survey_report_url":"https://data.ngdc.noaa.gov/platforms/ocean/nos/coast/H10001-H12000/H11951/DR/H11951.pdf","usgs_metadata_urls":["https://cmgds.marine.usgs.gov/data/csmp/OffshorePointConception/metadata/SeafloorCharacter_OffshorePointConception_metadata.xml","https://cmgds.marine.usgs.gov/data/csmp/OffshoreGaviota/metadata/SeafloorCharacter_OffshoreGaviota_metadata.xml"],"fishing_target":false,"exportable":false,"legal_clearance":false,"fish_confirmed":false,"depth_qualified_for_target":false}},{"type":"Feature","geometry":{"type":"Polygon","coordinates":[[[-120.37528976616709,34.430385879578054],[-120.37528644809548,34.430387611286434],[-120.37528650445658,34.43038580952726],[-120.37528661717877,34.430382206008915],[-120.37528764805448,34.430384031118365],[-120.37528976616709,34.430385879578054]]]},"properties":{"id":"native-hard-H11951-2426","survey_id":"H11951","depth_ft_range":[76.8,96.1],"max_product_uncertainty_m":0.292,"approx_display_area_m2":0,"native_resolution_m":[2.0,2.0],"survey_dates":["2008-08-15T00:00:00","2008-09-04T00:00:00"],"noaa_bag_url":"https://data.ngdc.noaa.gov/platforms/ocean/nos/coast/H10001-H12000/H11951/BAG/H11951_MB_2m_MLLW_2of5.bag","noaa_bag_sha256":"471111622cd997881fa0da1abcdfee40f2149e3846f91c7af30d178a4052004d","survey_report_url":"https://data.ngdc.noaa.gov/platforms/ocean/nos/coast/H10001-H12000/H11951/DR/H11951.pdf","usgs_metadata_urls":["https://cmgds.marine.usgs.gov/data/csmp/OffshorePointConception/metadata/SeafloorCharacter_OffshorePointConception_metadata.xml","https://cmgds.marine.usgs.gov/data/csmp/OffshoreGaviota/metadata/SeafloorCharacter_OffshoreGaviota_metadata.xml"],"fishing_target":false,"exportable":false,"legal_clearance":false,"fish_confirmed":false,"depth_qualified_for_target":false}},{"type":"Feature","geometry":{"type":"MultiPolygon","coordinates":[[[[-120.38864191687665,34.43204487624112],[-120.38842108524979,34.432218651995576],[-120.38832298478032,34.432189510946536],[-120.38832189750879,34.43218948771109],[-120.38832028770956,34.431996534874024],[-120.38836799370318,34.43196690376661],[-120.38837919653186,34.431991483347495],[-120.38838229008857,34.43199695838469],[-120.38838644287316,34.43200335754538],[-120.38839062369999,34.43200885581717],[-120.3883959198383,34.43201347643473],[-120.3884012159772,34.43201809705208],[-120.38840762742763,34.43202184001501],[-120.38841403887862,34.43202558297765],[-120.38842047837156,34.43202842505114],[-120.38842800513454,34.432031290358736],[-120.38843555993925,34.43203325477707],[-120.38844314278548,34.432034318306115],[-120.38845072563191,34.432035381834694],[-120.38845833651953,34.432035544473976],[-120.38846706271775,34.432034829458],[-120.3884747016462,34.432034091207406],[-120.38848236861524,34.43203245206748],[-120.38848897635502,34.43202988880431],[-120.38849669940453,34.4320264478857],[-120.38854749892603,34.43200229174094],[-120.38864191687665,34.43204487624112]]],[[[-120.38857732893011,34.43184787320708],[-120.3885654531083,34.43184491497687],[-120.38861647681071,34.43181355168505],[-120.3886234988611,34.43183263298195],[-120.38861914979238,34.43183254005163],[-120.38861148284397,34.431834179201154],[-120.38860378785611,34.431836719239165],[-120.38859609286783,34.43183925927667],[-120.38858836983974,34.43184270020263],[-120.38857732893011,34.43184787320708]]],[[[-120.38796366996868,34.43300218566677],[-120.38781819506887,34.433306483585056],[-120.38776169092556,34.43326921629414],[-120.38796366996868,34.43300218566677]]]]},"properties":{"id":"native-hard-H11951-2027","survey_id":"H11951","depth_ft_range":[74.6,94.3],"max_product_uncertainty_m":0.281,"approx_display_area_m2":576,"native_resolution_m":[2.0,2.0],"survey_dates":["2008-08-15T00:00:00","2008-09-04T00:00:00"],"noaa_bag_url":"https://data.ngdc.noaa.gov/platforms/ocean/nos/coast/H10001-H12000/H11951/BAG/H11951_MB_2m_MLLW_2of5.bag","noaa_bag_sha256":"471111622cd997881fa0da1abcdfee40f2149e3846f91c7af30d178a4052004d","survey_report_url":"https://data.ngdc.noaa.gov/platforms/ocean/nos/coast/H10001-H12000/H11951/DR/H11951.pdf","usgs_metadata_urls":["https://cmgds.marine.usgs.gov/data/csmp/OffshorePointConception/metadata/SeafloorCharacter_OffshorePointConception_metadata.xml","https://cmgds.marine.usgs.gov/data/csmp/OffshoreGaviota/metadata/SeafloorCharacter_OffshoreGaviota_metadata.xml"],"fishing_target":false,"exportable":false,"legal_clearance":false,"fish_confirmed":false,"depth_qualified_for_target":false}},{"type":"Feature","geometry":{"type":"Polygon","coordinates":[[[-120.37816588303345,34.43290776888152],[-120.37809795471914,34.43295769619804],[-120.37809366193504,34.43295580112828],[-120.37809369008819,34.432954900247054],[-120.37809371824132,34.43295399936582],[-120.37811743439248,34.4328914042127],[-120.37812601995563,34.43289519435018],[-120.37813031273751,34.43289708941871],[-120.37813783918259,34.43289995534766],[-120.37814754017204,34.43290286792884],[-120.37815509477073,34.43290483297549],[-120.37816264936978,34.432906798021676],[-120.37816588303345,34.43290776888152]]]},"properties":{"id":"native-hard-H11951-2045","survey_id":"H11951","depth_ft_range":[72.2,80.8],"max_product_uncertainty_m":0.272,"approx_display_area_m2":19,"native_resolution_m":[2.0,2.0],"survey_dates":["2008-08-15T00:00:00","2008-09-04T00:00:00"],"noaa_bag_url":"https://data.ngdc.noaa.gov/platforms/ocean/nos/coast/H10001-H12000/H11951/BAG/H11951_MB_2m_MLLW_2of5.bag","noaa_bag_sha256":"471111622cd997881fa0da1abcdfee40f2149e3846f91c7af30d178a4052004d","survey_report_url":"https://data.ngdc.noaa.gov/platforms/ocean/nos/coast/H10001-H12000/H11951/DR/H11951.pdf","usgs_metadata_urls":["https://cmgds.marine.usgs.gov/data/csmp/OffshorePointConception/metadata/SeafloorCharacter_OffshorePointConception_metadata.xml","https://cmgds.marine.usgs.gov/data/csmp/OffshoreGaviota/metadata/SeafloorCharacter_OffshoreGaviota_metadata.xml"],"fishing_target":false,"exportable":false,"legal_clearance":false,"fish_confirmed":false,"depth_qualified_for_target":false}},{"type":"Feature","geometry":{"type":"MultiPolygon","coordinates":[[[[-120.38888297119486,34.43132613176298],[-120.38878820175377,34.43122494321684],[-120.38879043234577,34.43122318789989],[-120.38879600882534,34.43121879960735],[-120.38880161334077,34.431213510425295],[-120.38880721785546,34.43120822124296],[-120.38881285040574,34.43120203117112],[-120.38881739569607,34.4311958178685],[-120.38881971039527,34.43119135988328],[-120.3888231123532,34.43118692512841],[-120.38882768567798,34.43117981093608],[-120.38883117174316,34.43117267351323],[-120.38883354251297,34.431166413749196],[-120.3888359132824,34.43116015398508],[-120.3888371687569,34.431154771879896],[-120.38883842423121,34.43114938977468],[-120.38883973577718,34.431142205890936],[-120.38884107535883,34.43113412111793],[-120.38884138375371,34.431124211336154],[-120.38890544533268,34.43130317323918],[-120.38888297119486,34.43132613176298]]],[[[-120.38881636108162,34.43105426210659],[-120.38881427067541,34.431051512978065],[-120.38881008986338,34.43104601472093],[-120.38880590905191,34.43104051646366],[-120.38880061294772,34.43103589586499],[-120.38879531684412,34.43103127526612],[-120.3887900207411,34.43102665466703],[-120.38878363738182,34.43102201083709],[-120.3887814909046,34.43102106348653],[-120.38858971008021,34.430890757334566],[-120.3885854451756,34.43088796173795],[-120.38857903379996,34.43088421878733],[-120.38857262242493,34.43088047583637],[-120.38856621105046,34.43087673288511],[-120.38855977163793,34.43087389082263],[-120.38855224497118,34.4308710255272],[-120.38854254379572,34.43086811376592],[-120.38853498909123,34.43086614935854],[-120.38852743438713,34.43086418495072],[-120.3885242006625,34.430863214363065],[-120.38852542811206,34.43085873315062],[-120.38875731557725,34.4308889296602],[-120.38881636108162,34.43105426210659]]]]},"properties":{"id":"native-hard-H11951-2372","survey_id":"H11951","depth_ft_range":[94.0,113.8],"max_product_uncertainty_m":0.287,"approx_display_area_m2":253,"native_resolution_m":[2.0,2.0],"survey_dates":["2008-08-15T00:00:00","2008-09-04T00:00:00"],"noaa_bag_url":"https://data.ngdc.noaa.gov/platforms/ocean/nos/coast/H10001-H12000/H11951/BAG/H11951_MB_2m_MLLW_2of5.bag","noaa_bag_sha256":"471111622cd997881fa0da1abcdfee40f2149e3846f91c7af30d178a4052004d","survey_report_url":"https://data.ngdc.noaa.gov/platforms/ocean/nos/coast/H10001-H12000/H11951/DR/H11951.pdf","usgs_metadata_urls":["https://cmgds.marine.usgs.gov/data/csmp/OffshorePointConception/metadata/SeafloorCharacter_OffshorePointConception_metadata.xml","https://cmgds.marine.usgs.gov/data/csmp/OffshoreGaviota/metadata/SeafloorCharacter_OffshoreGaviota_metadata.xml"],"fishing_target":false,"exportable":false,"legal_clearance":false,"fish_confirmed":false,"depth_qualified_for_target":false}},{"type":"Feature","geometry":{"type":"Polygon","coordinates":[[[-120.41160613390831,34.435081934236706],[-120.4118129420472,34.43500878588866],[-120.41183325692224,34.43519672683131],[-120.41152073024878,34.43531090769636],[-120.41160613390831,34.435081934236706]]]},"properties":{"id":"native-hard-H11951-1805","survey_id":"H11951","depth_ft_range":[93.5,107.7],"max_product_uncertainty_m":0.304,"approx_display_area_m2":521,"native_resolution_m":[2.0,2.0],"survey_dates":["2008-08-15T00:00:00","2008-09-04T00:00:00"],"noaa_bag_url":"https://data.ngdc.noaa.gov/platforms/ocean/nos/coast/H10001-H12000/H11951/BAG/H11951_MB_2m_MLLW_2of5.bag","noaa_bag_sha256":"471111622cd997881fa0da1abcdfee40f2149e3846f91c7af30d178a4052004d","survey_report_url":"https://data.ngdc.noaa.gov/platforms/ocean/nos/coast/H10001-H12000/H11951/DR/H11951.pdf","usgs_metadata_urls":["https://cmgds.marine.usgs.gov/data/csmp/OffshorePointConception/metadata/SeafloorCharacter_OffshorePointConception_metadata.xml","https://cmgds.marine.usgs.gov/data/csmp/OffshoreGaviota/metadata/SeafloorCharacter_OffshoreGaviota_metadata.xml"],"fishing_target":false,"exportable":false,"legal_clearance":false,"fish_confirmed":false,"depth_qualified_for_target":false}}]}
