{"type":"FeatureCollection","schema_version":1,"scope":"san-francisco-nbs-usgs-hard-research-context","coast_id":"san-francisco","compiled_at":"2026-09-24T07:03:45.670177+00:00","source_review":"data/nbs-central-usgs-hard-overlap-review.json","mpa_screened_at":"2026-09-23T22:30:59Z","federal_screened_at":"2026-09-23T22:56:33.483262+00:00","minimum_component_area_m2":2500,"maximum_displayed_per_tile":10,"maximum_screen_uncertainty_m":1.0,"sector_ids":["arena-bodega","bodega-reyes"],"omitted_smaller_or_lower_ranked_components":0,"method":"Original 2 m USGS class-3 pixels sampled at NOAA NBS 4 m measured-contributor cells; 25\u2013200 ft MLLW with supplied uncertainty <=1.0 m and 2 m planning margin; complete 100 m MPA/GEA buffers. Each displayed 20 m square requires all 25 underlying 4 m cells to pass; largest connected components only.","limitations":["Research context even where uncertainty passes the 1 m depth screen; a target requires many more gates.","Historical USGS classes and compiled NBS cells are not independent confirmations of fish, recent bottom stability or catch success.","Original NBS contributor provenance, present chart hazards, routes, species rules and access need review before any point or export.","No fishing target, legal clearance or navigation claim; recheck current MPA and GEA boundaries."],"features":[{"type":"Feature","geometry":{"type":"Polygon","coordinates":[[[-122.96887789057457,38.17317601567067],[-122.96887796722851,38.172995763017575],[-122.96864963246338,38.17299570228351],[-122.96864978689398,38.17263519696147],[-122.96887812053434,38.17263525769478],[-122.96887819718623,38.17245500502504],[-122.96842153103096,38.17245488311528],[-122.96842145325431,38.17263513578424],[-122.96819311961534,38.17263507416303],[-122.96819304127563,38.172815326826026],[-122.96842137547698,38.17281538844764],[-122.96842129769895,38.172995641105466],[-122.9681929629352,38.17299557948346],[-122.9681928845941,38.17317583213537],[-122.96887789057457,38.17317601567067]]]},"properties":{"id":"nbs-usgs-e9549e73b3","sector_id":"bodega-reyes","tile":"BH4475DB","approx_display_area_m2":3200,"support_native_cells":200,"display_cell_m":20,"measured_depth_ft_range":[61.5,71.5],"maximum_depth_with_uncertainty_and_margin_ft":78.8,"maximum_supplied_uncertainty_m":0.45,"nbs_raster_url":"https://noaa-ocs-nationalbathymetry-pds.s3.amazonaws.com/Test-and-Evaluation/Modeling/BH4475DB/Modeling_BH4475DB_20260702.tiff","nbs_raster_sha256":"b83a3b31356446160424103d5b487df83da2bc722fe69ff9eb5d0db4b36af132","usgs_sources":[{"release_id":"OffshoreTomalesPoint","archive_sha256":"a46c7f5fe9eff6b7c517e600d850ab7d31e6e6bcd48d729a2a2e20389490af96","metadata_url":"https://pubs.usgs.gov/ds/781/OffshoreTomalesPoint/metadata/SeafloorCharacter_OffshoreTomalesPoint_metadata.xml"}],"fishing_target":false,"exportable":false,"legal_clearance":false,"fish_confirmed":false,"depth_qualified_for_target":false}}]}
