{"type":"FeatureCollection","schema_version":1,"scope":"generalized-statewide-usgs-hard-bottom-context","compiled_at":"2026-09-23T21:08:10.879160+00:00","source":"USGS California State Waters Map Series legacy catalogs and DOI releases","source_catalog_url":"https://pubs.usgs.gov/ds/781/","legacy_block_count":17,"doi_release_count":13,"mpa_screened_at":"2026-09-23T20:44:08Z","method":"Original video-supervised seafloor character class 3, generalized at 20 m, cut by current complete CDFW MPA polygons. Display only; no fishing waypoint or legal-depth claim.","limitations":["Map blocks are discontinuous and smaller patches are omitted.","No depth-datum conversion, fish presence or legal access is implied.","Original source metadata and archive checksums are recorded on each feature."],"coast_id":"mendocino","features":[]}
